[{"type":"node","id":443822379,"lat":51.5029784,"lon":7.2126939,"tags":{"amenity":"bicycle_parking","bicycle_parking":"stands","capacity":"12","covered":"yes"}},{"type":"node","id":472443725,"lat":51.4554486,"lon":7.1890084,"tags":{"amenity":"bicycle_parking"}},{"type":"node","id":474985787,"lat":51.4820097,"lon":7.1318947,"tags":{"amenity":"bicycle_parking","bicycle_parking":"wall_loops","capacity":"10","covered":"no","operator":"Stadt Bochum","supervised":"no"}},{"type":"node","id":582943387,"lat":51.472375,"lon":7.2108101,"tags":{"amenity":"bicycle_parking","bicycle_parking":"stands","bike_ride":"yes","capacity":"10","covered":"yes","fixme":"bicycle_parking=* fehlt"}},{"type":"node","id":582943388,"lat":51.4724951,"lon":7.2106529,"tags":{"amenity":"bicycle_parking","bicycle_parking":"stands","bike_ride":"yes","capacity":"20","covered":"yes"}},{"type":"node","id":696761069,"lat":51.4890554,"lon":7.2156973,"tags":{"amenity":"bicycle_parking","bicycle_parking":"stands","capacity":"12","covered":"no"}},{"type":"node","id":696761092,"lat":51.488805,"lon":7.2156048,"tags":{"amenity":"bicycle_parking","bicycle_parking":"stands","capacity":"10","covered":"no"}},{"type":"node","id":996711873,"lat":51.4962499,"lon":7.279964},{"type":"node","id":1029447917,"lat":51.4816398,"lon":7.3272331,"tags":{"amenity":"bicycle_parking","bicycle_parking":"wall_loops","covered":"no","fixme":"Wo ist dieser Fahrradständer?"}},{"type":"node","id":1029448101,"lat":51.4778827,"lon":7.3235271,"tags":{"amenity":"bicycle_parking","bicycle_parking":"stands","capacity":"11","covered":"yes","level":"0","park_ride":"yes"}},{"type":"node","id":1080570087,"lat":51.499675,"lon":7.259798},{"type":"node","id":1232392446,"lat":51.4511313,"lon":7.2435661,"tags":{"amenity":"bicycle_parking"}},{"type":"node","id":1301976369,"lat":51.4945861,"lon":7.1452128,"tags":{"amenity":"bicycle_parking"}},{"type":"node","id":1330923290,"lat":51.4657511,"lon":7.3149235},{"type":"node","id":1348053913,"lat":51.4996592,"lon":7.2598075},{"type":"node","id":1429865960,"lat":51.4417389,"lon":7.2579717,"tags":{"amenity":"bicycle_parking","bicycle_parking":"stands","capacity":"9","covered":"yes","level":"0","level:ref":"05","name":"Fahrradstellplatz Ebene 05"}},{"type":"node","id":1429865967,"lat":51.4421038,"lon":7.2591403,"tags":{"amenity":"bicycle_parking","bicycle_parking":"stands","capacity":"9","covered":"yes","level":"0","level:ref":"05","name":"Fahrradstellplatz Ebene 05"}},{"type":"node","id":1429865983,"lat":51.4425028,"lon":7.2603007,"tags":{"amenity":"bicycle_parking","bicycle_parking":"stands","capacity":"9","covered":"yes","level":"0","level:ref":"05","name":"Fahrradstellplatz Ebene 05"}},{"type":"node","id":1429865986,"lat":51.4426389,"lon":7.2573523,"tags":{"amenity":"bicycle_parking","bicycle_parking":"stands","capacity":"14","covered":"yes","level":"1","level:ref":"04","operator":"Ruhr-Universität Bochum"}},{"type":"node","id":1429905128,"lat":51.4802257,"lon":7.1979825,"tags":{"FIXME":"Anzahl geschätzt","amenity":"bicycle_parking","bicycle_parking":"stands","capacity":"50","covered":"no"}},{"type":"node","id":1469045222,"lat":51.4735526,"lon":7.3140149},{"type":"node","id":1469045226,"lat":51.4737358,"lon":7.3141356},{"type":"node","id":1469045227,"lat":51.4736721,"lon":7.3139228},{"type":"node","id":1469045239,"lat":51.4736163,"lon":7.3142278},{"type":"node","id":1509236735,"lat":51.4756103,"lon":7.3149245,"tags":{"amenity":"bicycle_parking","capacity":"6"}},{"type":"node","id":1568218967,"lat":51.4910004,"lon":7.200918},{"type":"node","id":1568218972,"lat":51.4910132,"lon":7.2008617},{"type":"node","id":1568218976,"lat":51.4910146,"lon":7.2009263},{"type":"node","id":1568218986,"lat":51.4910274,"lon":7.20087},{"type":"node","id":1624665525,"lat":51.4513613,"lon":7.1563984},{"type":"node","id":1624665535,"lat":51.451355,"lon":7.1561824},{"type":"node","id":1624665536,"lat":51.4513585,"lon":7.1563043},{"type":"node","id":1624665538,"lat":51.4514791,"lon":7.156173},{"type":"node","id":1624665544,"lat":51.4514855,"lon":7.156389},{"type":"node","id":1704075495,"lat":51.4801436,"lon":7.2160705,"tags":{"amenity":"bicycle_parking","bicycle_parking":"bollard","capacity":"20","covered":"no"}},{"type":"node","id":1726326149,"lat":51.4665338,"lon":7.2044747},{"type":"node","id":1726326150,"lat":51.466591,"lon":7.2043318},{"type":"node","id":1726326151,"lat":51.4666138,"lon":7.2043833},{"type":"node","id":1746145652,"lat":51.4434097,"lon":7.2596026,"tags":{"amenity":"bicycle_parking","capacity":"14","covered":"yes","level":"1","level:ref":"04","operator":"Ruhr-Universität Bochum"}},{"type":"node","id":1758964782,"lat":51.466511,"lon":7.2044232},{"type":"node","id":1781718834,"lat":51.4811857,"lon":7.1329973,"tags":{"amenity":"bicycle_parking","bicycle_parking":"wall_loops","capacity":"6","covered":"no","operator":"Stadt Bochum","supervised":"no"}},{"type":"node","id":1811313460,"lat":51.4430351,"lon":7.2584682,"tags":{"amenity":"bicycle_parking","capacity":"14","covered":"yes","level":"1","level:ref":"04","operator":"Ruhr-Universität Bochum"}},{"type":"node","id":1811314914,"lat":51.4437006,"lon":7.2598389,"tags":{"amenity":"bicycle_parking","capacity":"5","covered":"yes","level":"1","level:ref":"04","operator":"Ruhr-Universität Bochum"}},{"type":"node","id":1811315097,"lat":51.4433125,"lon":7.2587285,"tags":{"amenity":"bicycle_parking","capacity":"5","covered":"yes","level":"1","level:ref":"04","operator":"Ruhr-Universität Bochum"}},{"type":"node","id":1811315530,"lat":51.4429514,"lon":7.2575537,"tags":{"amenity":"bicycle_parking","capacity":"5","covered":"yes","level":"1","level:ref":"04","operator":"Ruhr-Universität Bochum"}},{"type":"node","id":1811315836,"lat":51.4430185,"lon":7.2577736,"tags":{"amenity":"bicycle_parking","capacity":"5","covered":"yes","level":"1","level:ref":"04","operator":"Ruhr-Universität Bochum"}},{"type":"node","id":1811317098,"lat":51.4447906,"lon":7.2689756,"tags":{"access":"yes","amenity":"bicycle_parking","capacity":"12","covered":"no","fee":"no","name":"Fahrradstellplatz Ebene 05","opening_hours":"24/7","operator":"Ruhr-Universität Bochum","surface":"paving_stones"}},{"type":"node","id":1812130845,"lat":51.4431062,"lon":7.2636245,"tags":{"amenity":"bicycle_parking","capacity":"5","covered":"no","name":"Fahrradstellplatz Ebene 05","operator":"Ruhr-Universität Bochum"}},{"type":"node","id":1812130880,"lat":51.4443423,"lon":7.2624836,"tags":{"amenity":"bicycle_parking","capacity":"10","covered":"yes","name":"Fahrradstellplatz Ebene 03","operator":"Ruhr-Universität Bochum"}},{"type":"node","id":1812132210,"lat":51.444279,"lon":7.2632343,"tags":{"amenity":"bicycle_parking","capacity":"10","covered":"yes","layer":"4","level":"4","level:ref":"01","name":"Fahrradstellplatz Ebene 01","operator":"Ruhr-Universität Bochum"}},{"type":"node","id":1812132211,"lat":51.4446936,"lon":7.2643662,"tags":{"amenity":"bicycle_parking","capacity":"10","covered":"yes","layer":"3","level":"3","level:ref":"02","name":"Fahrradstellplatz Ebene 02","operator":"Ruhr-Universität Bochum"}},{"type":"node","id":1812132854,"lat":51.4448775,"lon":7.264613,"tags":{"amenity":"bicycle_parking","capacity":"15","covered":"yes","level":"0","level:ref":"04","name":"Fahrradstellplatz Ebene 04","operator":"Ruhr-Universität Bochum"}},{"type":"node","id":1812132855,"lat":51.4446066,"lon":7.2635991,"tags":{"amenity":"bicycle_parking","capacity":"11","covered":"yes","operator":"Ruhr-Universität Bochum"}},{"type":"node","id":1812132856,"lat":51.4450948,"lon":7.265541,"tags":{"amenity":"bicycle_parking","capacity":"5","covered":"yes","operator":"Ruhr-Universität Bochum"}},{"type":"node","id":1812132857,"lat":51.4453322,"lon":7.2657717,"tags":{"amenity":"bicycle_parking","capacity":"13","covered":"yes","name":"Fahrradstellplatz Ebene 04","operator":"Ruhr-Universität Bochum"}},{"type":"node","id":1812135333,"lat":51.4454789,"lon":7.2584671,"tags":{"amenity":"bicycle_parking","capacity":"10","covered":"yes","level":"0","level:ref":"01","name":"Fahrradstellplatz Ebene 01","operator":"Ruhr-Universität Bochum"}},{"type":"node","id":1812135336,"lat":51.4460501,"lon":7.2598164,"tags":{"amenity":"bicycle_parking","capacity":"15","covered":"yes","level":"5","level:ref":"0","name":"Fahrradstellplatz MZ 0","operator":"Ruhr-Universität Bochum"}},{"type":"node","id":1812135849,"lat":51.4453756,"lon":7.2599107,"tags":{"amenity":"bicycle_parking","capacity":"10","covered":"yes","level":"5","level:ref":"0","name":"Fahrradstellplatz SO 0","operator":"Ruhr-Universität Bochum"}},{"type":"node","id":1812137663,"lat":51.4452016,"lon":7.261019,"tags":{"amenity":"bicycle_parking","capacity":"22","covered":"yes","level":"5","level:ref":"0","name":"Fahrradstellplatz UB 0","operator":"Ruhr-Universität Bochum"}},{"type":"node","id":1812137664,"lat":51.4457157,"lon":7.260976,"tags":{"amenity":"bicycle_parking","capacity":"5","covered":"yes","level":"5","level:ref":"0","name":"Fahrradstellplatz UV 0","operator":"Ruhr-Universität Bochum"}},{"type":"node","id":1812137783,"lat":51.4447922,"lon":7.2602705,"tags":{"addr:city":"Bochum","addr:postcode":"44801","addr:street":"M-Südstraße","amenity":"bicycle_parking","capacity":"27","covered":"yes","operator":"Ruhr-Universität Bochum"}},{"type":"node","id":1812137784,"lat":51.4449363,"lon":7.2612742,"tags":{"amenity":"bicycle_parking","bicycle_parking":"stands","capacity":"10","covered":"yes","level":"4","level:ref":"01","name":"Fahrradstellplatz Kunstsammlung 01","operator":"Ruhr-Universität Bochum"}},{"type":"node","id":1812137785,"lat":51.4452877,"lon":7.2629189,"tags":{"amenity":"bicycle_parking","capacity":"15","covered":"yes","level":"3;0","level:ref":"02","operator":"Ruhr-Universität Bochum"}},{"type":"node","id":1812137786,"lat":51.4451472,"lon":7.2615597,"tags":{"amenity":"bicycle_parking","capacity":"8","level":"5","level:ref":"0","name":"Fahrradstellplatz FNO 0","operator":"Ruhr-Universität Bochum"}},{"type":"node","id":1812137940,"lat":51.4445658,"lon":7.2592833,"tags":{"amenity":"bicycle_parking","capacity":"29","covered":"yes","level":"0","level:ref":"01","name":"Fahrradstellplatz MA 01","operator":"Ruhr-Universität Bochum"}},{"type":"node","id":1812137941,"lat":51.44444,"lon":7.259405,"tags":{"amenity":"bicycle_parking","capacity":"5","covered":"yes","level":"5","level:ref":"0","name":"Fahrradstellplatz MA 0","operator":"Ruhr-Universität Bochum"}},{"type":"node","id":1907544174,"lat":51.4797084,"lon":7.3384026,"tags":{"amenity":"bicycle_parking","bicycle_parking":"stands","capacity":"3","covered":"no"}},{"type":"node","id":1942592875,"lat":51.4847773,"lon":7.3015369},{"type":"node","id":2045890620,"lat":51.4702069,"lon":7.1302694,"tags":{"amenity":"bicycle_parking","bicycle_parking":"anchors","covered":"no","operator":"FitX Bochum-Wattenscheid"}},{"type":"node","id":2274416441,"lat":51.4478807,"lon":7.270848,"tags":{"amenity":"bicycle_parking","bicycle_parking":"wall_loops","capacity":"16","covered":"yes","level":"1","level:ref":"0"}},{"type":"node","id":2326682242,"lat":51.4599691,"lon":7.1545045},{"type":"node","id":2326682244,"lat":51.4599972,"lon":7.154476},{"type":"node","id":2326682245,"lat":51.4599978,"lon":7.1545772},{"type":"node","id":2326682246,"lat":51.4600258,"lon":7.1545487},{"type":"node","id":2326684755,"lat":51.4599635,"lon":7.1545661},{"type":"node","id":2326684756,"lat":51.4599494,"lon":7.1546716},{"type":"node","id":2326684757,"lat":51.4599747,"lon":7.1545699},{"type":"node","id":2326684759,"lat":51.4599606,"lon":7.1546754},{"type":"node","id":2361708789,"lat":51.4467168,"lon":7.1897048,"tags":{"access":"yes","amenity":"bicycle_parking","bicycle_parking":"wall_loops","capacity":"10","covered":"no","fee":"no","lit":"no","opening_hours":"24/7","surface":"compacted"}},{"type":"node","id":2361708797,"lat":51.446955,"lon":7.1939554,"tags":{"amenity":"bicycle_parking","bicycle_parking":"wall_loops","capacity":"10","covered":"no"}},{"type":"node","id":2700432982,"lat":51.509684,"lon":7.2114324},{"type":"node","id":2700432988,"lat":51.5097023,"lon":7.2114147},{"type":"node","id":2700433004,"lat":51.5097116,"lon":7.211506},{"type":"node","id":2700433020,"lat":51.5097299,"lon":7.2114883},{"type":"node","id":3448186586,"lat":51.4736777,"lon":7.1399289},{"type":"node","id":3448186587,"lat":51.473688,"lon":7.1398903},{"type":"node","id":3448186590,"lat":51.4738348,"lon":7.1401742},{"type":"node","id":3448186591,"lat":51.473839,"lon":7.1400393},{"type":"node","id":3448186794,"lat":51.4738472,"lon":7.1402606},{"type":"node","id":3448186795,"lat":51.4738493,"lon":7.1400007},{"type":"node","id":3448186796,"lat":51.4738581,"lon":7.1401656},{"type":"node","id":3448186798,"lat":51.4738705,"lon":7.140252},{"type":"node","id":3448534015,"lat":51.4906366,"lon":7.2009808},{"type":"node","id":3448534016,"lat":51.4906383,"lon":7.2009451},{"type":"node","id":3448534019,"lat":51.4907155,"lon":7.2009904},{"type":"node","id":3448534020,"lat":51.4907172,"lon":7.2009547},{"type":"node","id":3455498311,"lat":51.4812388,"lon":7.2115778,"tags":{"amenity":"bicycle_parking","bicycle_parking":"stands","bike_ride":"yes","capacity":"9","covered":"yes"}},{"type":"node","id":3533956595,"lat":51.4809305,"lon":7.2200988},{"type":"node","id":3533956598,"lat":51.4810213,"lon":7.2200555},{"type":"node","id":3585429100,"lat":51.4532419,"lon":7.2504819},{"type":"node","id":3585429101,"lat":51.4532611,"lon":7.2504685},{"type":"node","id":3585429102,"lat":51.453272,"lon":7.2503934},{"type":"node","id":3585429103,"lat":51.4532335,"lon":7.2503451},{"type":"node","id":3585429104,"lat":51.4532068,"lon":7.2503518},{"type":"node","id":3585429105,"lat":51.4532034,"lon":7.2504095},{"type":"node","id":3585429106,"lat":51.4532068,"lon":7.2504618},{"type":"node","id":3587505356,"lat":51.4474744,"lon":7.2656847},{"type":"node","id":3587505357,"lat":51.4475802,"lon":7.2655906},{"type":"node","id":3587505358,"lat":51.447588,"lon":7.2656172},{"type":"node","id":3587505359,"lat":51.4474824,"lon":7.2657086},{"type":"node","id":3587518395,"lat":51.4475468,"lon":7.2659002},{"type":"node","id":3587518398,"lat":51.4475376,"lon":7.265873},{"type":"node","id":3590108236,"lat":51.4467883,"lon":7.266781,"tags":{"amenity":"bicycle_parking","capacity":"8","covered":"no","level":"0","level:ref":"05","name":"Fahrradstellplatz Ebene 05"}},{"type":"node","id":3667352502,"lat":51.4515996,"lon":7.1565938,"tags":{"access":"yes","amenity":"bicycle_parking","bicycle_parking":"rack","fee":"no","lit":"no","opening_hours":"24/7","supervised":"no","surface":"gravel"}},{"type":"node","id":3722576994,"lat":51.5046483,"lon":7.1644692,"tags":{"access":"customers","amenity":"bicycle_parking","capacity":"22","covered":"yes","fee":"no","lit":"no","name":"LWL-Industriemuseum Zeche Hannover","opening_hours":"Apr-Oct We-Sa 14:00-18:00; Su, PH 11:00-18:00","operator":"LW","surface":"paving_stones"}},{"type":"node","id":3741163262,"lat":51.4891346,"lon":7.2141437,"tags":{"amenity":"bicycle_parking","bicycle_parking":"stands","capacity":"6","covered":"no"}},{"type":"node","id":4159687898,"lat":51.4240575,"lon":7.1581236,"tags":{"access":"customers","amenity":"bicycle_parking","bicycle_parking":"anchors","capacity":"5","covered":"no","fee":"no","lit":"no","opening_hours":"24/7","operator":"Augusta - Krankenanstalt","supervised":"no","surface":"paving_stones"}},{"type":"node","id":4326742532,"lat":51.4726822,"lon":7.2139491},{"type":"node","id":4326742541,"lat":51.4726957,"lon":7.2139325},{"type":"node","id":4326742545,"lat":51.4727504,"lon":7.2140911},{"type":"node","id":4326742547,"lat":51.4727638,"lon":7.2140745},{"type":"node","id":4345002965,"lat":51.4476447,"lon":7.2657763},{"type":"node","id":4345002969,"lat":51.4476535,"lon":7.2658025},{"type":"node","id":4729499162,"lat":51.4458779,"lon":7.2590266,"tags":{"amenity":"bicycle_parking","capacity":"15","covered":"yes","name":"Fahrradstellplatz Ebene 01","operator":"Ruhr-Universität Bochum"}},{"type":"node","id":4742903021,"lat":51.4479194,"lon":7.2547557,"tags":{"access":"yes","amenity":"bicycle_parking","bicycle_parking":"bollard","capacity":"12","covered":"no"}},{"type":"node","id":4756235349,"lat":51.4268966,"lon":7.1403919,"tags":{"access":"yes","amenity":"bicycle_parking","bicycle_parking":"stands","capacity":"24","covered":"no","fee":"no","lit":"no","opening_hours":"24/7","surface":"paving_stones"}},{"type":"node","id":4886475401,"lat":51.4509061,"lon":7.1984834},{"type":"node","id":4886475402,"lat":51.4508589,"lon":7.1985325},{"type":"node","id":4886475403,"lat":51.4508152,"lon":7.1984244},{"type":"node","id":4886475404,"lat":51.4508623,"lon":7.1983753},{"type":"node","id":4995322129,"lat":51.4788628,"lon":7.2219362},{"type":"node","id":4995322130,"lat":51.4788929,"lon":7.2219025},{"type":"node","id":4995322131,"lat":51.478914,"lon":7.2220545},{"type":"node","id":4995322132,"lat":51.4789441,"lon":7.2220209},{"type":"node","id":5022324202,"lat":51.4799501,"lon":7.2228594,"tags":{"amenity":"bicycle_parking","bicycle_parking":"bollard","capacity":"6","covered":"no"}},{"type":"node","id":5121485125,"lat":51.4452209,"lon":7.2589311,"tags":{"amenity":"bicycle_parking","covered":"yes","level":"5","level:ref":"0","name":"Fahrradstellplatz MAFO 0","operator":"Ruhr-Universität Bochum"}},{"type":"node","id":5121485144,"lat":51.4450406,"lon":7.2602707,"tags":{"amenity":"bicycle_parking","covered":"yes","level":"5","level:ref":"0","name":"Fahrradstellplatz UB 0","operator":"Ruhr-Universität Bochum"}},{"type":"node","id":5121485145,"lat":51.4452983,"lon":7.2575005,"tags":{"amenity":"bicycle_parking","covered":"no","level":"0","level:ref":"01","name":"Fahrradstellplatz Ebene 01","operator":"Ruhr-Universität Bochum"}},{"type":"node","id":5126136040,"lat":51.4439139,"lon":7.2663282,"tags":{"amenity":"bicycle_parking","covered":"yes","name":"Fahrradstellplatz Ebene 05","operator":"Ruhr-Universität Bochum"}},{"type":"node","id":5126136041,"lat":51.4437885,"lon":7.2655812,"tags":{"amenity":"bicycle_parking","covered":"no","name":"Fahrradstellplatz Ebene 05","operator":"Ruhr-Universität Bochum"}},{"type":"node","id":5126136042,"lat":51.4425347,"lon":7.2627461,"tags":{"amenity":"bicycle_parking","bicycle_parking":"stands","covered":"no","level":"0","level:ref":"05","name":"Fahrradstellplatz Ebene 06"}},{"type":"node","id":5126136043,"lat":51.4419403,"lon":7.2615512,"tags":{"amenity":"bicycle_parking","bicycle_parking":"stands","covered":"yes","level":"0","level:ref":"05","name":"Fahrradstellplatz Ebene 06"}},{"type":"node","id":5126136044,"lat":51.4416971,"lon":7.2606567,"tags":{"amenity":"bicycle_parking","bicycle_parking":"stands","covered":"yes","level":"0","level:ref":"05","name":"Fahrradstellplatz Ebene 05"}},{"type":"node","id":5126136045,"lat":51.4419508,"lon":7.258928,"tags":{"amenity":"bicycle_parking","bicycle_parking":"stands","covered":"yes","level":"0","level:ref":"05","name":"Fahrradstellplatz Ebene 05"}},{"type":"node","id":5139244650,"lat":51.4447383,"lon":7.264053,"tags":{"amenity":"bicycle_parking","covered":"yes","name":"Fahrradstellplatz Ebene 03","operator":"Ruhr-Universität Bochum"}},{"type":"node","id":5139244651,"lat":51.4458503,"lon":7.2646459,"tags":{"amenity":"bicycle_parking","bicycle_parking":"stands","capacity":"12","covered":"yes","layer":"2","level":"2","level:ref":"03","name":"Fahrradstellplatz HIB 02","operator":"Ruhr-Universität Bochum"}},{"type":"node","id":5140887391,"lat":51.4449849,"lon":7.2656368,"tags":{"amenity":"bicycle_parking","capacity":"10","covered":"yes","layer":"3","level":"3","level:ref":"02","name":"Fahrradstellplatz Ebene 02","operator":"Ruhr-Universität Bochum"}},{"type":"node","id":5140887392,"lat":51.4462548,"lon":7.2658327,"tags":{"amenity":"bicycle_parking","bicycle_parking":"stands","capacity":"12","covered":"yes","fixme":"level und level:ref prüfen! https://wiki.openstreetmap.org/wiki/Bochum/Projekte","level":"0","level:ref":"03","name":"Fahrradstellplatz HIC 03","operator":"Ruhr-Universität Bochum"}},{"type":"node","id":5140887393,"lat":51.4461856,"lon":7.2649874,"tags":{"amenity":"bicycle_parking","level":"0","level:ref":"04","name":"Fahrradstellplatz Ebene 04","operator":"Ruhr-Universität Bochum"}},{"type":"node","id":5140887394,"lat":51.4454703,"lon":7.2662707,"tags":{"amenity":"bicycle_parking","covered":"yes","level":"0","level:ref":"04","name":"Fahrradstellplatz Ebene 04","operator":"Ruhr-Universität Bochum"}},{"type":"node","id":5140887395,"lat":51.4449983,"lon":7.2651941,"tags":{"amenity":"bicycle_parking","covered":"yes","level":"0","level:ref":"04","name":"Fahrradstellplatz Ebene 04","operator":"Ruhr-Universität Bochum"}},{"type":"node","id":5166919399,"lat":51.4954173,"lon":7.2777794},{"type":"node","id":5166919400,"lat":51.4954256,"lon":7.2777472},{"type":"node","id":5166919401,"lat":51.4952878,"lon":7.277644},{"type":"node","id":5166919402,"lat":51.4952781,"lon":7.2776781},{"type":"node","id":5166923936,"lat":51.4960278,"lon":7.2780067},{"type":"node","id":5166923937,"lat":51.4959836,"lon":7.2779786},{"type":"node","id":5166923938,"lat":51.4959961,"lon":7.2779289},{"type":"node","id":5166923939,"lat":51.4960395,"lon":7.2779585},{"type":"node","id":5166924148,"lat":51.4955649,"lon":7.2780855},{"type":"node","id":5166924149,"lat":51.4955432,"lon":7.278123},{"type":"node","id":5166924150,"lat":51.4955131,"lon":7.2780774},{"type":"node","id":5166924151,"lat":51.4955357,"lon":7.2780412},{"type":"node","id":5166933250,"lat":51.4962284,"lon":7.2799475},{"type":"node","id":5166933251,"lat":51.496178,"lon":7.2801422},{"type":"node","id":5166933252,"lat":51.4961991,"lon":7.280156},{"type":"node","id":5166938524,"lat":51.4962097,"lon":7.2799207},{"type":"node","id":5166938525,"lat":51.4961829,"lon":7.2800245},{"type":"node","id":5166938526,"lat":51.4961272,"lon":7.2799903},{"type":"node","id":5166938527,"lat":51.4961564,"lon":7.2798832},{"type":"node","id":5169544086,"lat":51.4960157,"lon":7.2814486},{"type":"node","id":5169544087,"lat":51.4959295,"lon":7.2813893},{"type":"node","id":5169544088,"lat":51.495916,"lon":7.2817305},{"type":"node","id":5169544089,"lat":51.4959368,"lon":7.2817448},{"type":"node","id":5169544090,"lat":51.4959202,"lon":7.2814242},{"type":"node","id":5169544091,"lat":51.4959856,"lon":7.2814692},{"type":"node","id":5169569255,"lat":51.4961026,"lon":7.2827842},{"type":"node","id":5169569256,"lat":51.4960739,"lon":7.282901},{"type":"node","id":5169569257,"lat":51.4959482,"lon":7.2828212},{"type":"node","id":5169569258,"lat":51.495977,"lon":7.2827044},{"type":"node","id":5169574423,"lat":51.4955975,"lon":7.2846661},{"type":"node","id":5169574424,"lat":51.4955781,"lon":7.2847344},{"type":"node","id":5169574425,"lat":51.4954968,"lon":7.28468},{"type":"node","id":5169574426,"lat":51.495516,"lon":7.2846094},{"type":"node","id":5196696837,"lat":51.4904518,"lon":7.2314468,"tags":{"access":"yes","amenity":"bicycle_parking","bicycle_parking":"stands","capacity":"8","covered":"no","fee":"no","opening_hours":"24/7","operator":"Kinderklinik, St. Josefs-Hospital","surface":"paving_stones"}},{"type":"node","id":5196696838,"lat":51.4904729,"lon":7.2317757,"tags":{"access":"yes","amenity":"bicycle_parking","bicycle_parking":"stands","capacity":"8","covered":"no","fee":"no","opening_hours":"24/7","operator":"Kinderklinik, St. Josefs-Hospital","surface":"paving_stones"}},{"type":"node","id":5219270402,"lat":51.4447258,"lon":7.2618603,"tags":{"amenity":"bicycle_parking","bicycle_parking":"stands","capacity":"12","covered":"yes","layer":"5","level":"5","level:ref":"0","name":"Fahrradstellplatz HZO 0","operator":"Ruhr-Universität Bochum"}},{"type":"node","id":5219270403,"lat":51.4448013,"lon":7.2619167,"tags":{"amenity":"bicycle_parking","bicycle_parking":"wall_loops","capacity":"14","covered":"no","layer":"5","level":"5","level:ref":"0","name":"Fahrradstellplatz HZO 0","operator":"Ruhr-Universität Bochum"}},{"type":"node","id":5264552755,"lat":51.4817344,"lon":7.2150202,"tags":{"access":"yes","amenity":"bicycle_parking","bicycle_parking":"stands","capacity":"20","covered":"no"}},{"type":"node","id":5346338383,"lat":51.457468,"lon":7.2385926},{"type":"node","id":5346343963,"lat":51.4574723,"lon":7.2385396},{"type":"node","id":5346343964,"lat":51.457486,"lon":7.2385745},{"type":"node","id":5346344872,"lat":51.4574543,"lon":7.2385577},{"type":"node","id":5348123693,"lat":51.4811307,"lon":7.2145431,"tags":{"amenity":"bicycle_parking","bicycle_parking":"bollard","capacity":"3","covered":"no","fee":"no"}},{"type":"node","id":5348123704,"lat":51.4808081,"lon":7.2146292,"tags":{"amenity":"bicycle_parking","bicycle_parking":"bollard","capacity":"3","covered":"no","fee":"no"}},{"type":"node","id":5365728526,"lat":51.4571229,"lon":7.2382783,"tags":{"access":"yes","amenity":"bicycle_parking","bicycle_parking":"stands","capacity":"12","covered":"no"}},{"type":"node","id":5367942951,"lat":51.4795049,"lon":7.2035666},{"type":"node","id":5367942952,"lat":51.4794896,"lon":7.2034949},{"type":"node","id":5471246845,"lat":51.479353,"lon":7.2236121,"tags":{"amenity":"bicycle_parking","bicycle_parking":"stands","capacity":"20","covered":"no"}},{"type":"node","id":5502574662,"lat":51.4521275,"lon":7.1924547,"tags":{"amenity":"bicycle_parking","bicycle_parking":"stands","capacity":"14","covered":"no"}},{"type":"node","id":5664368228,"lat":51.4265408,"lon":7.142583,"tags":{"access":"yes","amenity":"bicycle_parking","bicycle_parking":"stands","capacity":"20","covered":"yes","opening_hours":"24/7","supervised":"no","surface":"paving_stones"}},{"type":"node","id":5715911441,"lat":51.4776766,"lon":7.2152295,"tags":{"access":"yes","amenity":"bicycle_parking","bicycle_parking":"stands","capacity":"30","covered":"no","fee":"no","opening_hours":"24/7","supervised":"no","surface":"paving_stones"}},{"type":"node","id":5842045571,"lat":51.4898243,"lon":7.2279383,"tags":{"access":"yes","amenity":"bicycle_parking","bicycle_parking":"wall_loops","capacity":"8","covered":"no","fee":"no","lit":"no","opening_hours":"24/7","supervised":"no","surface":"paving_stones"}},{"type":"node","id":5859466890,"lat":51.4853722,"lon":7.2226195,"tags":{"access":"customers","amenity":"bicycle_parking","bicycle_parking":"stands","capacity":"20","covered":"yes","fee":"no","lit":"no","opening_hours":"08:30-12:30,15:30-20:00","operator":"Augusta-Kranken-Anstalt-Bochum-Mitte","supervised":"no","surface":"paving_stones"}},{"type":"node","id":5923830842,"lat":51.428114,"lon":7.1639394,"tags":{"amenity":"bicycle_parking","bicycle_parking":"stands","capacity":"5","covered":"no"}},{"type":"node","id":5923830843,"lat":51.4277078,"lon":7.1632735,"tags":{"amenity":"bicycle_parking","bicycle_parking":"stands","capacity":"4","covered":"no"}},{"type":"node","id":5923830847,"lat":51.4272619,"lon":7.1622154,"tags":{"amenity":"bicycle_parking","bicycle_parking":"stands","capacity":"4","covered":"no"}},{"type":"node","id":5963943003,"lat":51.4619056,"lon":7.2017817,"tags":{"access":"yes","amenity":"bicycle_parking","bicycle_parking":"stands","capacity":"2","covered":"no","fee":"no","lit":"yes","opening_hours":"24/7","surface":"paving_stones"}},{"type":"node","id":5967169855,"lat":51.4779844,"lon":7.2234525,"tags":{"amenity":"bicycle_parking","bicycle_parking":"stands","capacity":"7","covered":"yes"}},{"type":"node","id":6022539679,"lat":51.4769462,"lon":7.3023734,"tags":{"access":"yes","amenity":"bicycle_parking","bicycle_parking":"stands","capacity":"6","covered":"no","smoothness":"intermediate","surface":"paving_stones"}},{"type":"node","id":6026275121,"lat":51.4850954,"lon":7.2149665,"tags":{"amenity":"bicycle_parking","bicycle_parking":"stands","capacity":"8","covered":"no"}},{"type":"node","id":6026275123,"lat":51.4841081,"lon":7.2156568,"tags":{"amenity":"bicycle_parking","bicycle_parking":"bollard","capacity":"2","covered":"no"}},{"type":"node","id":6031932449,"lat":51.4821575,"lon":7.2132109,"tags":{"access":"yes","amenity":"bicycle_parking","bicycle_parking":"stands","capacity":"6","covered":"no","smoothness":"excellent","surface":"asphalt"}},{"type":"node","id":6031932450,"lat":51.4820656,"lon":7.2131526,"tags":{"access":"yes","amenity":"bicycle_parking","bicycle_parking":"stands","capacity":"4","covered":"no","surface":"asphalt"}},{"type":"node","id":6036411854,"lat":51.4427459,"lon":7.2560828,"tags":{"amenity":"bicycle_parking","capacity":"7","covered":"yes","level":"1","level:ref":"04","operator":"Ruhr-Universität Bochum"}},{"type":"node","id":6036411855,"lat":51.4425675,"lon":7.2562344,"tags":{"amenity":"bicycle_parking","capacity":"7","covered":"yes","level":"1","level:ref":"04","operator":"Ruhr-Universität Bochum"}},{"type":"node","id":6036411856,"lat":51.4426682,"lon":7.2561526,"tags":{"amenity":"bicycle_parking","capacity":"7","covered":"yes","level":"1","level:ref":"04","operator":"Ruhr-Universität Bochum"}},{"type":"node","id":6036411859,"lat":51.44252,"lon":7.256062,"tags":{"amenity":"bicycle_parking","capacity":"7","covered":"yes","level":"1","level:ref":"04","operator":"Ruhr-Universität Bochum"}},{"type":"node","id":6036411860,"lat":51.4426208,"lon":7.2559802,"tags":{"amenity":"bicycle_parking","capacity":"7","covered":"yes","level":"1","level:ref":"04","operator":"Ruhr-Universität Bochum"}},{"type":"node","id":6036411861,"lat":51.4426985,"lon":7.2559105,"tags":{"amenity":"bicycle_parking","capacity":"7","covered":"yes","level":"1","level:ref":"04","operator":"Ruhr-Universität Bochum"}},{"type":"node","id":6054902091,"lat":51.4759325,"lon":7.3031799,"tags":{"access":"yes","amenity":"bicycle_parking","bicycle_parking":"stands","capacity":"4","covered":"no","smoothness":"good","surface":"paving_stones"}},{"type":"node","id":6054902092,"lat":51.475304,"lon":7.3045763,"tags":{"access":"yes","amenity":"bicycle_parking","bicycle_parking":"stands","capacity":"6","covered":"no","lit":"yes","smoothness":"good","surface":"paving_stones"}},{"type":"node","id":6054902094,"lat":51.4754402,"lon":7.3041582,"tags":{"access":"yes","amenity":"bicycle_parking","bicycle_parking":"wall_loops","capacity":"4","covered":"no","lit":"yes","smoothness":"good","surface":"paving_stones"}},{"type":"node","id":6054902100,"lat":51.4751974,"lon":7.3044754,"tags":{"access":"yes","amenity":"bicycle_parking","bicycle_parking":"stands","capacity":"2","covered":"no","lit":"yes","smoothness":"intermediate","surface":"paving_stones"}},{"type":"node","id":6054902102,"lat":51.4771748,"lon":7.3022659,"tags":{"access":"yes","amenity":"bicycle_parking","bicycle_parking":"stands","capacity":"2","covered":"no","smoothness":"good","surface":"paving_stones"}},{"type":"node","id":6054902106,"lat":51.4760528,"lon":7.3028055,"tags":{"access":"yes","amenity":"bicycle_parking","bicycle_parking":"stands","capacity":"4","covered":"no","smoothness":"good","surface":"paving_stones"}},{"type":"node","id":6054902107,"lat":51.4774648,"lon":7.3022512,"tags":{"access":"yes","amenity":"bicycle_parking","bicycle_parking":"stands","capacity":"6","covered":"no","smoothness":"good","surface":"paving_stones"}},{"type":"node","id":6055050323,"lat":51.4808821,"lon":7.20854,"tags":{"access":"yes","amenity":"bicycle_parking","bicycle_parking":"anchors","capacity":"5","colour":"silver","covered":"no","fee":"no","lit":"no","material":"metal","opening_hours":"24/7","operator":"das Labor","operator:type":"community","operator:wikidata":"Q42839700","smoothness":"good","supervised":"no","surface":"asphalt"}},{"type":"node","id":6061735719,"lat":51.4658648,"lon":7.3149308},{"type":"node","id":6061735722,"lat":51.4657923,"lon":7.3150154},{"type":"node","id":6068069523,"lat":51.4847987,"lon":7.3014105},{"type":"node","id":6068069546,"lat":51.4848268,"lon":7.3014945},{"type":"node","id":6068069728,"lat":51.4847493,"lon":7.3014529},{"type":"node","id":6068482421,"lat":51.4464086,"lon":7.2445173},{"type":"node","id":6068482422,"lat":51.4462089,"lon":7.244694},{"type":"node","id":6071500263,"lat":51.4697491,"lon":7.2965146,"tags":{"access":"permissive","amenity":"bicycle_parking","bicycle_parking":"wall_loops","capacity":"6","colour":"yellow","covered":"no","fee":"no","smoothness":"bad","supervised":"no","surface":"grass"}},{"type":"node","id":6075372316,"lat":51.5102747,"lon":7.2114124,"tags":{"access":"permissive","amenity":"bicycle_parking","bicycle_parking":"lockers","capacity":"10","covered":"yes","operator":"Bogestra"}},{"type":"node","id":6110941269,"lat":51.4904473,"lon":7.2277552,"tags":{"access":"yes","amenity":"bicycle_parking","bicycle_parking":"stands","capacity":"10","covered":"no","fee":"no","name":"Tierpark + Fossilium Bochum","operator":"Tierpark + Fossilium Bochum","surface":"grass_paver"}},{"type":"node","id":6128850833,"lat":51.4670236,"lon":7.2972557,"tags":{"amenity":"bicycle_parking","bicycle_parking":"stands","capacity":"14","covered":"no"}},{"type":"node","id":6168879096,"lat":51.4848121,"lon":7.3014504},{"type":"node","id":6189912422,"lat":51.4697778,"lon":7.3086037,"tags":{"access":"private","amenity":"bicycle_parking","covered":"no","fee":"no"}},{"type":"node","id":6201936295,"lat":51.4264626,"lon":7.1587794,"tags":{"access":"customers","amenity":"bicycle_parking","bicycle_parking":"bollard","capacity":"4","covered":"no","fee":"no","lit":"yes","opening_hours":"24/7","operator":"St. Josefs-Hospital Bochum-Linden","surface":"sett"}},{"type":"node","id":6227385175,"lat":51.4260141,"lon":7.160752,"tags":{"amenity":"bicycle_parking","bicycle_parking":"bollard","capacity":"4","covered":"no"}},{"type":"node","id":6230304519,"lat":51.4903488,"lon":7.3021186,"tags":{"access":"yes","amenity":"bicycle_parking","bicycle_parking":"stands","capacity":"6","covered":"no","fee":"no","smoothness":"good","surface":"paving_stones"}},{"type":"node","id":6246309926,"lat":51.426553,"lon":7.1414013,"tags":{"amenity":"bicycle_parking","bicycle_parking":"lockers","capacity":"16","covered":"yes","fee":"yes","name":"Fahrradbox Bf Dahlhausen","operator":"Kienzler DeinRadschloss","website":"https://www.dein-radschloss.de/boxbuchen/?preselect_unit_uid=227"}},{"type":"node","id":6246515357,"lat":51.4755275,"lon":7.2159251,"tags":{"amenity":"bicycle_parking","bicycle_parking":"lockers","capacity":"10","covered":"yes","fee":"yes","name":"Fahrradbox Bermuda3Eck","operator":"Kienzler DeinRadschloss","website":"https://www.dein-radschloss.de/boxbuchen/?preselect_unit_uid=205"}},{"type":"node","id":6250097585,"lat":51.4797219,"lon":7.2204675,"tags":{"amenity":"bicycle_parking","bicycle_parking":"stands","capacity":"6","covered":"no"}},{"type":"node","id":6250382666,"lat":51.4829004,"lon":7.2148443,"tags":{"access":"yes","amenity":"bicycle_parking","bicycle_parking":"stands","capacity":"5","covered":"no","fee":"no"}},{"type":"node","id":6250382667,"lat":51.4830255,"lon":7.2144701,"tags":{"access":"yes","amenity":"bicycle_parking","bicycle_parking":"stands","capacity":"12","covered":"no","fee":"no"}},{"type":"node","id":6250382668,"lat":51.4830914,"lon":7.2144703,"tags":{"access":"yes","amenity":"bicycle_parking","bicycle_parking":"stands","capacity":"3","covered":"yes","fee":"no"}},{"type":"node","id":6250382669,"lat":51.4831134,"lon":7.2145578,"tags":{"access":"yes","amenity":"bicycle_parking","bicycle_parking":"stands","capacity":"3","covered":"yes","fee":"no"}},{"type":"node","id":6250382670,"lat":51.4830171,"lon":7.2145345,"tags":{"access":"yes","amenity":"bicycle_parking","bicycle_parking":"stands","capacity":"3","covered":"no","fee":"no"}},{"type":"node","id":6267518854,"lat":51.4696057,"lon":7.293763,"tags":{"access":"customers","amenity":"bicycle_parking","bicycle_parking":"wall_loops","capacity":"14","covered":"yes","fee":"no","level":"0","operator":"Kaufland","smoothness":"excellent","surface":"asphalt"}},{"type":"node","id":6284483075,"lat":51.4745073,"lon":7.3064194,"tags":{"access":"yes","amenity":"bicycle_parking","bicycle_parking":"stands","capacity":"4","covered":"no","fee":"no","lit":"yes","smoothness":"good","supervised":"no","surface":"paving_stones"}},{"type":"node","id":6284754236,"lat":51.4303512,"lon":7.1336717,"tags":{"access":"yes","amenity":"bicycle_parking","bicycle_parking":"stands","capacity":"6","covered":"no","fee":"no","lit":"yes","opening_hours":"24/7","surface":"paving_stones"}},{"type":"node","id":6284754237,"lat":51.4304446,"lon":7.1337822,"tags":{"access":"yes","amenity":"bicycle_parking","bicycle_parking":"stands","capacity":"6","covered":"no","fee":"no","lit":"yes","opening_hours":"24/7","surface":"paving_stones"}},{"type":"node","id":6289307888,"lat":51.472889,"lon":7.2984979},{"type":"node","id":6289307889,"lat":51.4728555,"lon":7.2984932},{"type":"node","id":6289307890,"lat":51.4728794,"lon":7.2984715},{"type":"node","id":6289307892,"lat":51.4728651,"lon":7.2985196},{"type":"node","id":6289307893,"lat":51.4725811,"lon":7.2987414,"tags":{"amenity":"bicycle_parking","bicycle_parking":"stands","capacity":"2","covered":"no","fee":"no"}},{"type":"node","id":6293161455,"lat":51.4817573,"lon":7.2862478},{"type":"node","id":6293161456,"lat":51.4816865,"lon":7.2862353},{"type":"node","id":6293161457,"lat":51.4816733,"lon":7.2863716},{"type":"node","id":6293161458,"lat":51.4817454,"lon":7.2863854},{"type":"node","id":6293161459,"lat":51.4816825,"lon":7.2862758,"tags":{"entrance":"yes"}},{"type":"node","id":6299004747,"lat":51.4750252,"lon":7.272456,"tags":{"access":"yes","amenity":"bicycle_parking","bicycle_parking":"stands","capacity":"6","covered":"no","fee":"no","lit":"yes","smoothness":"good","supervised":"no","surface":"paving_stones"}},{"type":"node","id":6299004749,"lat":51.4745981,"lon":7.2720906,"tags":{"access":"yes","amenity":"bicycle_parking","bicycle_parking":"stands","capacity":"6","covered":"no","fee":"no","lit":"yes","smoothness":"good","supervised":"no","surface":"paving_stones"}},{"type":"node","id":6299004751,"lat":51.4764127,"lon":7.2747434,"tags":{"access":"yes","amenity":"bicycle_parking","bicycle_parking":"stands","capacity":"6","covered":"no","fee":"no","lit":"yes","smoothness":"good","supervised":"no","surface":"paving_stones"}},{"type":"node","id":6299004753,"lat":51.4728159,"lon":7.2674566,"tags":{"access":"yes","amenity":"bicycle_parking","bicycle_parking":"stands","capacity":"6","covered":"no","fee":"no","lit":"yes","smoothness":"good","supervised":"no","surface":"paving_stones"}},{"type":"node","id":6299004763,"lat":51.4767521,"lon":7.275814,"tags":{"access":"yes","amenity":"bicycle_parking","bicycle_parking":"stands","capacity":"6","covered":"no","fee":"no","lit":"yes","smoothness":"good","supervised":"no","surface":"paving_stones"}},{"type":"node","id":6299004771,"lat":51.472467,"lon":7.2670048,"tags":{"access":"yes","amenity":"bicycle_parking","bicycle_parking":"stands","capacity":"6","covered":"no","fee":"no","lit":"yes","smoothness":"good","supervised":"no","surface":"paving_stones"}},{"type":"node","id":6301215712,"lat":51.4721535,"lon":7.2110012,"tags":{"amenity":"bicycle_parking","bicycle_parking":"lockers","capacity":"16","covered":"yes","fee":"yes","name":"Fahrradbox Bf Ehrenfeld","operator":"Kienzler DeinRadschloss","website":"https://www.dein-radschloss.de/boxbuchen/?preselect_unit_uid=210"}},{"type":"node","id":6301250706,"lat":51.5158695,"lon":7.2713982,"tags":{"amenity":"bicycle_parking","bicycle_parking":"lockers","capacity":"10","covered":"yes","fee":"yes","name":"Fahrradbox Castroper Hellweg / Heinrichstraße","operator":"Kienzler DeinRadschloss","website":"https://www.dein-radschloss.de/boxbuchen/?preselect_unit_uid=201"}},{"type":"node","id":6301262622,"lat":51.4794723,"lon":7.2241537,"tags":{"amenity":"bicycle_parking","bicycle_parking":"lockers","capacity":"10","covered":"yes","fee":"yes","name":"Fahrradbox HBF Nord","operator":"Kienzler DeinRadschloss","website":"https://www.dein-radschloss.de/boxbuchen/?preselect_unit_uid=200"}},{"type":"node","id":6301276675,"lat":51.4474636,"lon":7.2523569,"tags":{"amenity":"bicycle_parking","bicycle_parking":"lockers","capacity":"10","covered":"yes","fee":"yes","name":"Fahrradbox U35 Gesundheitscampus","operator":"Kienzler DeinRadschloss","website":"https://www.dein-radschloss.de/boxbuchen/?preselect_unit_uid=199"}},{"type":"node","id":6301286925,"lat":51.4599609,"lon":7.1544024,"tags":{"amenity":"bicycle_parking","bicycle_parking":"lockers","capacity":"20","covered":"yes","fee":"yes","name":"Fahrradbox Bf Höntrop","operator":"Kienzler DeinRadschloss","website":"https://www.dein-radschloss.de/boxbuchen/?preselect_unit_uid=202"}},{"type":"node","id":6301295536,"lat":51.4516765,"lon":7.2732672},{"type":"node","id":6301310812,"lat":51.4775758,"lon":7.3240841},{"type":"node","id":6301320632,"lat":51.4684523,"lon":7.2296999,"tags":{"amenity":"bicycle_parking","bicycle_parking":"lockers","capacity":"10","covered":"yes","fee":"yes","name":"Fahrradbox Neues Gymnasium","operator":"Kienzler DeinRadschloss","website":"https://www.dein-radschloss.de/boxbuchen/?preselect_unit_uid=206"}},{"type":"node","id":6301346809,"lat":51.510263,"lon":7.2113668,"tags":{"amenity":"bicycle_parking","bicycle_parking":"lockers","capacity":"10","covered":"yes","fee":"yes","name":"Fahrradbox Riemker Markt","operator":"Kienzler DeinRadschloss","website":"https://www.dein-radschloss.de/boxbuchen/?preselect_unit_uid=207"}},{"type":"node","id":6301357826,"lat":51.4632942,"lon":7.232881,"tags":{"amenity":"bicycle_parking","bicycle_parking":"lockers","capacity":"10","covered":"yes","fee":"yes","name":"Fahrradbox U35 Wasserstraße","operator":"Kienzler DeinRadschloss","website":"https://www.dein-radschloss.de/boxbuchen/?preselect_unit_uid=208"}},{"type":"node","id":6301363737,"lat":51.4737529,"lon":7.1404093,"tags":{"amenity":"bicycle_parking","bicycle_parking":"lockers","capacity":"20","covered":"yes","fee":"yes","name":"Fahrradbox Bf Wattenscheid","operator":"Kienzler DeinRadschloss","website":"https://www.dein-radschloss.de/boxbuchen/?preselect_unit_uid=209"}},{"type":"node","id":6305462974,"lat":51.4574705,"lon":7.2377967,"tags":{"amenity":"bicycle_parking","bicycle_parking":"lockers","capacity":"9","fee":"yes","name":"Fahrradbox U35 Brenscheder Str.","operator":"Kienzler DeinRadschloss","website":"https://www.dein-radschloss.de/boxbuchen/?preselect_unit_uid=198"}},{"type":"node","id":6313077440,"lat":51.4803882,"lon":7.2839352,"tags":{"access":"yes","amenity":"bicycle_parking","bicycle_parking":"stands","capacity":"6","covered":"no","fee":"no","smoothness":"good","supervised":"no","surface":"paving_stones"}},{"type":"node","id":6354812472,"lat":51.4705443,"lon":7.3152526,"tags":{"access":"yes","amenity":"bicycle_parking","bicycle_parking":"stands","capacity":"8","covered":"no","fee":"no","lit":"yes","smoothness":"good","supervised":"no","surface":"paving_stones"}},{"type":"node","id":6364328849,"lat":51.4755312,"lon":7.2159252,"tags":{"access":"customers","alt_name":"DeinRadschloss","amenity":"bicycle_parking","bicycle_parking":"lockers","capacity":"10","fee":"yes","lit":"yes","loc_name":"DeinRadschloss","name":"DeinRadschloss","official_name":"DeinRadschloss","operator":"Kienzler DeinRadschloss"}},{"type":"node","id":6374029217,"lat":51.481458,"lon":7.2246213,"tags":{"access":"yes","amenity":"bicycle_parking","bicycle_parking":"stands","capacity":"7","covered":"no","smoothness":"good","surface":"sett"}},{"type":"node","id":6374130255,"lat":51.4809256,"lon":7.2100319,"tags":{"amenity":"bicycle_parking","bicycle_parking":"wall_loops","capacity":"15","covered":"no","fee":"no"}},{"type":"node","id":6379372108,"lat":51.490157,"lon":7.2330759},{"type":"node","id":6385137990,"lat":51.4820908,"lon":7.2182375,"tags":{"amenity":"bicycle_parking","bicycle_parking":"stands","capacity":"4","covered":"no"}},{"type":"node","id":6385137991,"lat":51.4820902,"lon":7.2183268,"tags":{"amenity":"bicycle_parking","bicycle_parking":"stands","capacity":"6","covered":"no"}},{"type":"node","id":6385137998,"lat":51.4818191,"lon":7.2179837,"tags":{"amenity":"bicycle_parking","bicycle_parking":"stands","capacity":"8","covered":"no"}},{"type":"node","id":6387285810,"lat":51.4263836,"lon":7.1613098,"tags":{"amenity":"bicycle_parking","bicycle_parking":"stands","capacity":"2","covered":"no"}},{"type":"node","id":6387748160,"lat":51.4681112,"lon":7.306422,"tags":{"amenity":"bicycle_parking","bicycle_parking":"stands","capacity":"8","covered":"no","smoothness":"good","surface":"paving_stones"}},{"type":"node","id":6388667332,"lat":51.4777164,"lon":7.3241232},{"type":"node","id":6388667333,"lat":51.4776931,"lon":7.3241352},{"type":"node","id":6388667334,"lat":51.4776857,"lon":7.3241447},{"type":"node","id":6388667335,"lat":51.477738,"lon":7.3241311},{"type":"node","id":6388667336,"lat":51.4777444,"lon":7.3241376},{"type":"node","id":6388667338,"lat":51.4777239,"lon":7.3241244},{"type":"node","id":6388667339,"lat":51.4777313,"lon":7.324127},{"type":"node","id":6388667340,"lat":51.4776765,"lon":7.3241671},{"type":"node","id":6388667341,"lat":51.4777004,"lon":7.3241287},{"type":"node","id":6388667342,"lat":51.4777507,"lon":7.3241457},{"type":"node","id":6388667344,"lat":51.4776733,"lon":7.3241803},{"type":"node","id":6388667345,"lat":51.47768,"lon":7.324155},{"type":"node","id":6388759377,"lat":51.463752,"lon":7.231842},{"type":"node","id":6388759378,"lat":51.463737,"lon":7.2318225},{"type":"node","id":6388759379,"lat":51.463658,"lon":7.2319647},{"type":"node","id":6388759380,"lat":51.4636714,"lon":7.2319841},{"type":"node","id":6393721188,"lat":51.481681,"lon":7.2862916},{"type":"node","id":6401304737,"lat":51.5187631,"lon":7.2782559,"tags":{"access":"yes","amenity":"bicycle_parking","bicycle_parking":"stands","capacity":"6","covered":"no","fee":"no","lit":"yes","surface":"paving_stones"}},{"type":"node","id":6401304738,"lat":51.5186766,"lon":7.2782573,"tags":{"access":"yes","amenity":"bicycle_parking","bicycle_parking":"stands","capacity":"6","covered":"no","fee":"no","lit":"yes","surface":"paving_stones"}},{"type":"node","id":6401304741,"lat":51.518977,"lon":7.278997,"tags":{"access":"yes","amenity":"bicycle_parking","bicycle_parking":"stands","capacity":"6","covered":"no","fee":"no","lit":"yes","surface":"paving_stones"}},{"type":"node","id":6401304747,"lat":51.5189976,"lon":7.2795366,"tags":{"access":"yes","amenity":"bicycle_parking","bicycle_parking":"stands","capacity":"6","covered":"no","fee":"no","lit":"yes","surface":"paving_stones"}},{"type":"node","id":6411053621,"lat":51.4748611,"lon":7.305844,"tags":{"access":"yes","amenity":"bicycle_parking","bicycle_parking":"stands","capacity":"6","covered":"no","smoothness":"good","surface":"paving_stones"}},{"type":"node","id":6411463484,"lat":51.4833498,"lon":7.2872449,"tags":{"amenity":"bicycle_parking","bicycle_parking":"stands","capacity":"6","covered":"no","smoothness":"good","surface":"paving_stones"}},{"type":"node","id":6412416884,"lat":51.4784163,"lon":7.2182302,"tags":{"amenity":"bicycle_parking","bicycle_parking":"stands","capacity":"6","covered":"no","fixme":"Position"}},{"type":"node","id":6449660055,"lat":51.4296178,"lon":7.1664213,"tags":{"amenity":"bicycle_parking","bicycle_parking":"stands","capacity":"2","covered":"no"}},{"type":"node","id":6449660056,"lat":51.4296276,"lon":7.1664391,"tags":{"amenity":"bicycle_parking","bicycle_parking":"stands","capacity":"2","covered":"no"}},{"type":"node","id":6453942285,"lat":51.4404825,"lon":7.2118349,"tags":{"amenity":"bicycle_parking","bicycle_parking":"bollard","capacity":"12","covered":"no"}},{"type":"node","id":6457087479,"lat":51.4722084,"lon":7.2504945,"tags":{"access":"yes","amenity":"bicycle_parking","bicycle_parking":"stands","capacity":"6","covered":"no","fee":"no","smoothness":"good","surface":"paving_stones"}},{"type":"node","id":6458402116,"lat":51.4938996,"lon":7.2285417,"tags":{"amenity":"bicycle_parking"}},{"type":"node","id":6466468487,"lat":51.4912323,"lon":7.3019607,"tags":{"access":"yes","amenity":"bicycle_parking","bicycle_parking":"stands","capacity":"6","covered":"no","fee":"no","smoothness":"good","surface":"paving_stones"}},{"type":"node","id":6469898046,"lat":51.4799231,"lon":7.2243747,"tags":{"access":"yes","amenity":"bicycle_parking","bicycle_parking":"bollard","capacity":"10","covered":"no","fee":"no","smoothness":"good","surface":"paving_stones"}},{"type":"node","id":6478100190,"lat":51.4752208,"lon":7.3048196,"tags":{"access":"yes","amenity":"bicycle_parking","bicycle_parking":"stands","capacity":"4","covered":"no","lit":"yes","smoothness":"good","surface":"paving_stones"}},{"type":"node","id":6513805410,"lat":51.4799391,"lon":7.217186,"tags":{"amenity":"bicycle_parking","bicycle_parking":"stands","capacity":"6","covered":"no"}},{"type":"node","id":6513805424,"lat":51.4836033,"lon":7.2157283,"tags":{"amenity":"bicycle_parking","bicycle_parking":"stands","capacity":"10","covered":"no"}},{"type":"node","id":6516610099,"lat":51.4677071,"lon":7.2715387},{"type":"node","id":6518234616,"lat":51.4869679,"lon":7.3073172,"tags":{"access":"yes","amenity":"bicycle_parking","bicycle_parking":"stands","covered":"no","fee":"no","smoothness":"good","surface":"paving_stones"}},{"type":"node","id":6534443826,"lat":51.4717472,"lon":7.2132973,"tags":{"amenity":"bicycle_parking","bicycle_parking":"stands","capacity":"8","covered":"no"}},{"type":"node","id":6543139155,"lat":51.429975,"lon":7.1517904,"tags":{"access":"yes","amenity":"bicycle_parking","bicycle_parking":"stands","capacity":"20","covered":"no","fee":"no","lit":"yes","opening_hours":"24/7"}},{"type":"node","id":6555577891,"lat":51.4796259,"lon":7.2054486,"tags":{"amenity":"bicycle_parking","bicycle_parking":"stands","capacity":"6","covered":"no"}},{"type":"node","id":6563041026,"lat":51.4214788,"lon":7.1476893,"tags":{"access":"yes","amenity":"bicycle_parking","bicycle_parking":"lockers","capacity":"3","covered":"yes","opening_hours":"24/7","surface":"gravel"}},{"type":"node","id":6563705989,"lat":51.4712679,"lon":7.2127874,"tags":{"amenity":"bicycle_parking","bicycle_parking":"stands","capacity":"4","covered":"no"}},{"type":"node","id":6563706068,"lat":51.4819776,"lon":7.2165473,"tags":{"amenity":"bicycle_parking","bicycle_parking":"stands","capacity":"6","covered":"no"}},{"type":"node","id":6564268431,"lat":51.4257714,"lon":7.164799,"tags":{"amenity":"bicycle_parking","bicycle_parking":"wall_loops","capacity":"4","covered":"no","fee":"No"}},{"type":"node","id":6566371746,"lat":51.4729115,"lon":7.2863737,"tags":{"access":"yes","amenity":"bicycle_parking","bicycle_parking":"stands","capacity":"10","covered":"no","fee":"no","lit":"no","opening_hours":"24/7","surface":"compacted"}},{"type":"node","id":6575146173,"lat":51.4834673,"lon":7.2131264,"tags":{"access":"yes","amenity":"bicycle_parking","bicycle_parking":"stands","capacity":"12","covered":"no","surface":"paving_stones"}},{"type":"node","id":6579828615,"lat":51.4798274,"lon":7.2199653,"tags":{"amenity":"bicycle_parking","bicycle_parking":"stands","capacity":"4","covered":"no"}},{"type":"node","id":6588962469,"lat":51.4767054,"lon":7.3026952,"tags":{"access":"yes","amenity":"bicycle_parking","bicycle_parking":"stands","capacity":"4","covered":"no","fee":"no","lit":"yes","surface":"paving_stones"}},{"type":"node","id":6715807098,"lat":51.4736777,"lon":7.2523291},{"type":"node","id":6715807099,"lat":51.4736988,"lon":7.2525135},{"type":"node","id":6715807100,"lat":51.4736231,"lon":7.2524663},{"type":"node","id":6715807101,"lat":51.4736776,"lon":7.2525222},{"type":"node","id":6715807102,"lat":51.4737448,"lon":7.2523979},{"type":"node","id":6715807103,"lat":51.4736862,"lon":7.2525006},{"type":"node","id":6734020038,"lat":51.4272649,"lon":7.1450624,"tags":{"amenity":"bicycle_parking","bicycle_parking":"stands","capacity":"8"}},{"type":"node","id":6742267409,"lat":51.4955958,"lon":7.284648},{"type":"node","id":6742267410,"lat":51.4955859,"lon":7.2846353},{"type":"node","id":6742267411,"lat":51.495526,"lon":7.2845987},{"type":"node","id":6742267412,"lat":51.4955417,"lon":7.2846031},{"type":"node","id":6742267413,"lat":51.4955588,"lon":7.2846162},{"type":"node","id":6757750116,"lat":51.4367112,"lon":7.2772069},{"type":"node","id":6757750117,"lat":51.4366779,"lon":7.2772211},{"type":"node","id":6757750118,"lat":51.4366671,"lon":7.2771561},{"type":"node","id":6757750119,"lat":51.4367004,"lon":7.2771419},{"type":"node","id":6757750120,"lat":51.4365311,"lon":7.2767583,"tags":{"access":"yes","amenity":"bicycle_parking","bicycle_parking":"stands","capacity":"15","covered":"no","fee":"no","lit":"no","opening_hours":"24/7","surface":"unpaved"}},{"type":"node","id":6758044324,"lat":51.4797567,"lon":7.2197853,"tags":{"amenity":"bicycle_parking","bicycle_parking":"stands","capacity":"6","covered":"no"}},{"type":"node","id":6760501432,"lat":51.4490361,"lon":7.1480799,"tags":{"amenity":"bicycle_parking","covered":"no"}},{"type":"node","id":6762335587,"lat":51.4267641,"lon":7.1430834,"tags":{"amenity":"bicycle_parking","bicycle_parking":"wall_loops","capacity":"6","covered":"no"}},{"type":"node","id":6762335589,"lat":51.4265279,"lon":7.1439772,"tags":{"amenity":"bicycle_parking","bicycle_parking":"wall_loops","capacity":"6","covered":"no"}},{"type":"node","id":6781582587,"lat":51.4572543,"lon":7.1756017,"tags":{"amenity":"bicycle_parking"}},{"type":"node","id":6781582604,"lat":51.4444286,"lon":7.1717632,"tags":{"amenity":"bicycle_parking","bicycle_parking":"wall_loops","capacity":"3","covered":"no"}},{"type":"node","id":6781582614,"lat":51.4373925,"lon":7.1734087,"tags":{"amenity":"bicycle_parking","bicycle_parking":"wall_loops","capacity":"6","covered":"no"}},{"type":"node","id":6792094221,"lat":51.4283159,"lon":7.2429484,"tags":{"amenity":"bicycle_parking","operator":"Provinzial","operator:type":"private"}},{"type":"node","id":6792094224,"lat":51.4283502,"lon":7.2432133,"tags":{"amenity":"bicycle_parking","bicycle_parking":"stands","capacity":"4","covered":"no"}},{"type":"node","id":6792170779,"lat":51.4514916,"lon":7.1925388,"tags":{"amenity":"bicycle_parking","bicycle_parking":"wall_loops","capacity":"7","covered":"no"}},{"type":"node","id":6792170783,"lat":51.4629042,"lon":7.2030172,"tags":{"amenity":"bicycle_parking","bicycle_parking":"stands","capacity":"6","covered":"no"}},{"type":"node","id":6792219413,"lat":51.4214391,"lon":7.2117201,"tags":{"amenity":"bicycle_parking","bicycle_parking":"wall_loops","capacity":"30","covered":"no"}},{"type":"node","id":6819483830,"lat":51.4791527,"lon":7.2215287},{"type":"node","id":6819483831,"lat":51.4791381,"lon":7.2215451},{"type":"node","id":6819483832,"lat":51.4792019,"lon":7.2216813},{"type":"node","id":6819483833,"lat":51.4792163,"lon":7.2216649},{"type":"node","id":6819483849,"lat":51.479601,"lon":7.220406,"tags":{"amenity":"bicycle_parking","bicycle_parking":"bollard","capacity":"6","covered":"no"}},{"type":"node","id":6819483866,"lat":51.4773709,"lon":7.2171612,"tags":{"amenity":"bicycle_parking","bicycle_parking":"bollard","capacity":"10","covered":"no"}},{"type":"node","id":6821776171,"lat":51.482606,"lon":7.2172177,"tags":{"amenity":"bicycle_parking","bicycle_parking":"bollard","capacity":"6","covered":"no"}},{"type":"node","id":6828106521,"lat":51.4804811,"lon":7.2215671},{"type":"node","id":6828106522,"lat":51.4804619,"lon":7.221559},{"type":"node","id":6828106523,"lat":51.4804574,"lon":7.221586},{"type":"node","id":6828106524,"lat":51.4804766,"lon":7.2215942},{"type":"node","id":6828106526,"lat":51.4805147,"lon":7.2214343},{"type":"node","id":6828106527,"lat":51.4804962,"lon":7.221424},{"type":"node","id":6828106528,"lat":51.4804773,"lon":7.2215122},{"type":"node","id":6828106529,"lat":51.4804959,"lon":7.2215225},{"type":"node","id":6828106530,"lat":51.48053,"lon":7.2213345,"tags":{"amenity":"bicycle_parking","bicycle_parking":"bollard","capacity":"1","covered":"no"}},{"type":"node","id":6828106531,"lat":51.4806127,"lon":7.2210003},{"type":"node","id":6828106532,"lat":51.4805972,"lon":7.2209923},{"type":"node","id":6828106533,"lat":51.4805854,"lon":7.2210508},{"type":"node","id":6828106534,"lat":51.480601,"lon":7.2210588},{"type":"node","id":6828106535,"lat":51.4805755,"lon":7.2211746},{"type":"node","id":6828106536,"lat":51.4805623,"lon":7.2211674},{"type":"node","id":6828106537,"lat":51.4805484,"lon":7.221233},{"type":"node","id":6828106538,"lat":51.4805616,"lon":7.2212402},{"type":"node","id":6831477986,"lat":51.481787,"lon":7.2179929,"tags":{"amenity":"bicycle_parking","bicycle_parking":"bollard","capacity":"6","covered":"no"}},{"type":"node","id":6838004014,"lat":51.4791713,"lon":7.2215987},{"type":"node","id":6838004063,"lat":51.4791639,"lon":7.2215985},{"type":"node","id":6838004064,"lat":51.4791761,"lon":7.2216046},{"type":"node","id":6838004065,"lat":51.4791783,"lon":7.2216166},{"type":"node","id":6838004066,"lat":51.4791763,"lon":7.2216255},{"type":"node","id":6847723143,"lat":51.4572205,"lon":7.2204564,"tags":{"amenity":"bicycle_parking","bicycle_parking":"stands","capacity":"2","covered":"no"}},{"type":"node","id":6860431857,"lat":51.4736834,"lon":7.2523349},{"type":"node","id":6860431865,"lat":51.4737218,"lon":7.2523743},{"type":"node","id":6903775528,"lat":51.4828793,"lon":7.220061,"tags":{"amenity":"bicycle_parking","bicycle_parking":"wall_loops","capacity":"4","covered":"no"}},{"type":"node","id":6903775539,"lat":51.484985,"lon":7.2152357,"tags":{"amenity":"bicycle_parking","bicycle_parking":"bollard","capacity":"8","covered":"no"}},{"type":"node","id":6912763483,"lat":51.4772494,"lon":7.3024772,"tags":{"access":"yes","amenity":"bicycle_parking","bicycle_parking":"stands","capacity":"4","covered":"no","smoothness":"good","surface":"paving_stones"}},{"type":"node","id":6914058306,"lat":51.4799662,"lon":7.1379683,"tags":{"amenity":"bicycle_parking","bicycle_parking":"bollard","capacity":"2","covered":"no"}},{"type":"node","id":6914058308,"lat":51.4800589,"lon":7.1379747,"tags":{"amenity":"bicycle_parking","bicycle_parking":"bollard","capacity":"6"}},{"type":"node","id":6914058309,"lat":51.4800974,"lon":7.1379921,"tags":{"amenity":"bicycle_parking","bicycle_parking":"bollard","capacity":"12"}},{"type":"node","id":6914058321,"lat":51.480527,"lon":7.1367238,"tags":{"amenity":"bicycle_parking","bicycle_parking":"bollard","capacity":"2","covered":"no"}},{"type":"node","id":6914058322,"lat":51.4805374,"lon":7.1366883,"tags":{"amenity":"bicycle_parking","bicycle_parking":"bollard","capacity":"2","covered":"no"}},{"type":"node","id":6914058337,"lat":51.4811668,"lon":7.1349415,"tags":{"amenity":"bicycle_parking","bicycle_parking":"bollard","capacity":"4","covered":"no"}},{"type":"node","id":6914058338,"lat":51.4811238,"lon":7.1349656,"tags":{"amenity":"bicycle_parking","bicycle_parking":"bollard","capacity":"4","covered":"no"}},{"type":"node","id":6921086814,"lat":51.4857779,"lon":7.2266687,"tags":{"access":"yes","amenity":"bicycle_parking","bicycle_parking":"stands","covered":"no","fee":"no","lit":"yes","opening_hours":"24/7","surface":"paving_stones"}},{"type":"node","id":6925701025,"lat":51.519556,"lon":7.2767871,"tags":{"amenity":"bicycle_parking","bicycle_parking":"bollard","capacity":"2","covered":"no"}},{"type":"node","id":6925701026,"lat":51.5195768,"lon":7.2767404,"tags":{"amenity":"bicycle_parking","bicycle_parking":"bollard","capacity":"2","covered":"no"}},{"type":"node","id":6925701030,"lat":51.5197757,"lon":7.2762781,"tags":{"amenity":"bicycle_parking","bicycle_parking":"bollard","capacity":"2","covered":"no"}},{"type":"node","id":6925749843,"lat":51.4412766,"lon":7.2133535,"tags":{"amenity":"bicycle_parking","bicycle_parking":"wall_loops","capacity":"6","covered":"no"}},{"type":"node","id":6938491810,"lat":51.4724569,"lon":7.2168116,"tags":{"amenity":"bicycle_parking","bicycle_parking":"bollard","capacity":"14","covered":"no"}},{"type":"node","id":6938491811,"lat":51.4722334,"lon":7.2169035,"tags":{"amenity":"bicycle_parking","bicycle_parking":"bollard","capacity":"14","covered":"no"}},{"type":"node","id":6959939044,"lat":51.480006,"lon":7.2480478,"tags":{"amenity":"bicycle_parking","bicycle_parking":"wall_loops","covered":"no","surface":"paving_stones"}},{"type":"node","id":6959939058,"lat":51.4800142,"lon":7.2481197,"tags":{"amenity":"bicycle_parking","bicycle_parking":"stands","covered":"no","surface":"paving_stones"}},{"type":"node","id":6976121703,"lat":51.4890979,"lon":7.2137197,"tags":{"amenity":"bicycle_parking","bicycle_parking":"bollard","capacity":"10","covered":"no"}},{"type":"node","id":6976121708,"lat":51.4916281,"lon":7.2134015,"tags":{"amenity":"bicycle_parking","bicycle_parking":"stands","capacity":"6","covered":"no"}},{"type":"node","id":6976121761,"lat":51.5101707,"lon":7.2111698,"tags":{"amenity":"bicycle_parking","bicycle_parking":"bollard","capacity":"12","covered":"no"}},{"type":"node","id":6976121771,"lat":51.5136333,"lon":7.2113705,"tags":{"amenity":"bicycle_parking","bicycle_parking":"bollard","capacity":"10","covered":"no"}},{"type":"node","id":7024008687,"lat":51.4327587,"lon":7.1888951,"tags":{"access":"customers","amenity":"bicycle_parking","bicycle_parking":"rack","capacity":"10","covered":"no","fee":"no","operator":"SV Waldesrand Bochum Linden / Sundern 1928 e.V.","surface":"compacted"}},{"type":"node","id":7025314079,"lat":51.4803052,"lon":7.1349291,"tags":{"amenity":"bicycle_parking","bicycle_parking":"wall_loops","capacity":"10","covered":"no"}},{"type":"node","id":7025314080,"lat":51.480499,"lon":7.134958,"tags":{"amenity":"bicycle_parking","bicycle_parking":"bollard","capacity":"8","covered":"no"}},{"type":"node","id":7025325585,"lat":51.480671,"lon":7.1351566,"tags":{"amenity":"bicycle_parking","bicycle_parking":"bollard","capacity":"8","covered":"no"}},{"type":"node","id":7064911568,"lat":51.4648498,"lon":7.2582711,"tags":{"access":"yes","amenity":"bicycle_parking","bicycle_parking":"stands","capacity":"8","covered":"no","fee":"no","smoothness":"good","surface":"paving_stones"}},{"type":"node","id":7085015235,"lat":51.4676798,"lon":7.2715843},{"type":"node","id":7085015241,"lat":51.4677552,"lon":7.2716129},{"type":"node","id":7085015242,"lat":51.4677279,"lon":7.2716585},{"type":"node","id":7101682741,"lat":51.4528428,"lon":7.2478658,"tags":{"access":"yes","amenity":"bicycle_parking","bicycle_parking":"stands","capacity":"20","covered":"no","lit":"yes","surface":"dirt"}},{"type":"node","id":7131887677,"lat":51.4516825,"lon":7.2732945},{"type":"node","id":7131891505,"lat":51.4516034,"lon":7.2733392},{"type":"node","id":7131891523,"lat":51.4515974,"lon":7.2733119},{"type":"node","id":7136952838,"lat":51.4777562,"lon":7.3241573},{"type":"node","id":7136952839,"lat":51.4775988,"lon":7.3242291},{"type":"node","id":7136952841,"lat":51.4775613,"lon":7.32409},{"type":"node","id":7136952843,"lat":51.4775843,"lon":7.3242351},{"type":"node","id":7136952844,"lat":51.4777086,"lon":7.3241246},{"type":"node","id":7136952846,"lat":51.477672,"lon":7.3241949},{"type":"node","id":7149422783,"lat":51.465149,"lon":7.1512596,"tags":{"amenity":"bicycle_parking","bicycle_parking":"wall_loops","capacity":"24","covered":"no"}},{"type":"node","id":7158917048,"lat":51.4482105,"lon":7.2300756,"tags":{"amenity":"bicycle_parking","bicycle_parking":"bollard","capacity":"6","covered":"no"}},{"type":"node","id":7158917055,"lat":51.451689,"lon":7.2315774,"tags":{"amenity":"bicycle_parking","bicycle_parking":"bollard","capacity":"6","covered":"no"}},{"type":"node","id":7158917057,"lat":51.4517569,"lon":7.2315816,"tags":{"amenity":"bicycle_parking","bicycle_parking":"bollard","capacity":"6","covered":"no"}},{"type":"node","id":7175910067,"lat":51.4988883,"lon":7.2229769},{"type":"node","id":7175910068,"lat":51.4988774,"lon":7.2229743},{"type":"node","id":7175910069,"lat":51.4988682,"lon":7.22304},{"type":"node","id":7175910070,"lat":51.4988799,"lon":7.2230453},{"type":"node","id":7188552958,"lat":51.469366,"lon":7.2444796},{"type":"node","id":7188552959,"lat":51.4693551,"lon":7.2444743},{"type":"node","id":7188552960,"lat":51.469371,"lon":7.2444139},{"type":"node","id":7188552961,"lat":51.4693818,"lon":7.2444206},{"type":"node","id":7193136314,"lat":51.518549,"lon":7.2797501,"tags":{"access":"yes","amenity":"bicycle_parking","covered":"no","fee":"no"}},{"type":"node","id":7193136681,"lat":51.5185238,"lon":7.2798528,"tags":{"access":"yes","amenity":"bicycle_parking","covered":"no","fee":"no"}},{"type":"node","id":7193147943,"lat":51.5195142,"lon":7.2777497,"tags":{"amenity":"bicycle_parking"}},{"type":"node","id":7200949047,"lat":51.4739563,"lon":7.3082437,"tags":{"amenity":"bicycle_parking","bicycle_parking":"stands","capacity":"12","covered":"no"}},{"type":"node","id":7201248137,"lat":51.4913603,"lon":7.3062042,"tags":{"amenity":"bicycle_parking","covered":"no","fee":"no"}},{"type":"node","id":7201254906,"lat":51.4814577,"lon":7.3230511,"tags":{"access":"customers","amenity":"bicycle_parking","bicycle_parking":"wall_loops","covered":"no"}},{"type":"node","id":7201276509,"lat":51.4815236,"lon":7.3242614,"tags":{"access":"customers","amenity":"bicycle_parking","bicycle_parking":"wall_loops","covered":"no"}},{"type":"node","id":7201277631,"lat":51.4919256,"lon":7.3076327,"tags":{"access":"yes","amenity":"bicycle_parking","bicycle_parking":"stands","capacity":"6","covered":"no","fee":"no","smoothness":"good","surface":"paving_stones"}},{"type":"node","id":7203882759,"lat":51.4913034,"lon":7.3060286,"tags":{"amenity":"bicycle_parking","bicycle_parking":"wide_stands","capacity":"6","covered":"no","fee":"no"}},{"type":"node","id":7203882760,"lat":51.4916638,"lon":7.3079786,"tags":{"amenity":"bicycle_parking","bicycle_parking":"wall_loops","capacity":"6","covered":"no","fee":"no"}},{"type":"node","id":7228363855,"lat":51.4164026,"lon":7.2348471,"tags":{"access":"yes","amenity":"bicycle_parking","bicycle_parking":"stands","capacity":"5","covered":"no","fee":"no","lit":"yes","opening_hours":"24/7","surface":"paving_stones"}},{"type":"node","id":7258064493,"lat":51.4478296,"lon":7.2691152,"tags":{"access":"yes","amenity":"bicycle_parking","bicycle_parking":"stands","capacity":"18","covered":"no","fee":"no","smoothness":"good","surface":"paving_stones"}},{"type":"node","id":7258064495,"lat":51.4476509,"lon":7.2692127,"tags":{"access":"yes","amenity":"bicycle_parking","bicycle_parking":"stands","capacity":"16","covered":"no","fee":"no","smoothness":"good","surface":"paving_stones"}},{"type":"node","id":7263947946,"lat":51.4420227,"lon":7.1413868,"tags":{"amenity":"bicycle_parking","bicycle_parking":"wall_loops","capacity":"9","covered":"no","lit":"no"}},{"type":"node","id":7266562470,"lat":51.4861721,"lon":7.3076512,"tags":{"access":"customers","amenity":"bicycle_parking","bicycle_parking":"wall_loops","capacity":"4","covered":"no","fee":"no","lit":"no"}},{"type":"node","id":7266608296,"lat":51.4869353,"lon":7.3074035,"tags":{"amenity":"bicycle_parking","bicycle_parking":"stands","capacity":"6","covered":"no","fee":"no","lit":"yes"}},{"type":"node","id":7280452131,"lat":51.4727606,"lon":7.2863485,"tags":{"access":"yes","amenity":"bicycle_parking","bicycle_parking":"stands","capacity":"10","covered":"no","fee":"no","lit":"no","opening_hours":"24/7","surface":"compacted"}},{"type":"node","id":7316453445,"lat":51.4259825,"lon":7.1403329,"tags":{"access":"yes","amenity":"bicycle_parking","bicycle_parking":"stands","capacity":"12","covered":"no","fee":"no","lit":"no","opening_hours":"24/7","supervised":"no","surface":"fine_gravel"}},{"type":"node","id":7369587612,"lat":51.4726574,"lon":7.3161002},{"type":"node","id":7369587613,"lat":51.4726309,"lon":7.3159832},{"type":"node","id":7369587614,"lat":51.4726115,"lon":7.3159945},{"type":"node","id":7369587615,"lat":51.4726379,"lon":7.3161116},{"type":"node","id":7375419165,"lat":51.4929034,"lon":7.3081825,"tags":{"amenity":"bicycle_parking","bicycle_parking":"wall_loops","capacity":"3","covered":"no"}},{"type":"node","id":7377484654,"lat":51.4614975,"lon":7.2015997,"tags":{"amenity":"bicycle_parking","bicycle_parking":"bollard","capacity":"6"}},{"type":"node","id":7380351248,"lat":51.4950386,"lon":7.2854808,"tags":{"amenity":"bicycle_parking","bicycle_parking":"wall_loops","capacity":"6","covered":"yes"}},{"type":"node","id":7385010019,"lat":51.4634561,"lon":7.231407,"tags":{"amenity":"bicycle_parking","bicycle_parking":"stands","capacity":"5","fee":"no"}},{"type":"node","id":7385010020,"lat":51.4689896,"lon":7.227275,"tags":{"amenity":"bicycle_parking","bicycle_parking":"stands","capacity":"6","fee":"no"}},{"type":"node","id":7385010021,"lat":51.4691107,"lon":7.2268121,"tags":{"amenity":"bicycle_parking","bicycle_parking":"stands","capacity":"6","covered":"no","fee":"no"}},{"type":"node","id":7391495123,"lat":51.4470469,"lon":7.24454,"tags":{"amenity":"bicycle_parking","bicycle_parking":"stands","capacity":"20"}},{"type":"node","id":7395382399,"lat":51.4522519,"lon":7.2439749,"tags":{"amenity":"bicycle_parking"}},{"type":"node","id":7433594170,"lat":51.480831,"lon":7.2220215},{"type":"node","id":7433594171,"lat":51.4806547,"lon":7.2219201},{"type":"node","id":7433594172,"lat":51.4806478,"lon":7.221951},{"type":"node","id":7433594173,"lat":51.4808241,"lon":7.2220524},{"type":"node","id":7473485146,"lat":51.4997022,"lon":7.2597826},{"type":"node","id":7473485147,"lat":51.4996424,"lon":7.259731},{"type":"node","id":7473485148,"lat":51.4996851,"lon":7.2597064},{"type":"node","id":7493935157,"lat":51.4482817,"lon":7.2589029,"tags":{"amenity":"bicycle_parking","bicycle_parking":"wall_loops","capacity":"5","covered":"no"}},{"type":"node","id":7494277509,"lat":51.4482066,"lon":7.2592106,"tags":{"amenity":"bicycle_parking","bicycle_parking":"stands","capacity":"5","covered":"yes"}},{"type":"node","id":7537540993,"lat":51.4826422,"lon":7.2197607,"tags":{"amenity":"bicycle_parking","bicycle_parking":"stands","capacity":"12","covered":"no","lit":"yes"}},{"type":"node","id":7554717768,"lat":51.4811699,"lon":7.2187176,"tags":{"access":"yes","amenity":"bicycle_parking","bicycle_parking":"stands","capacity":"8","fee":"no"}},{"type":"node","id":7617581855,"lat":51.4890397,"lon":7.2142684,"tags":{"amenity":"bicycle_parking","bicycle":"stands","capacity":"3"}},{"type":"node","id":7617599149,"lat":51.492287,"lon":7.2129589,"tags":{"amenity":"bicycle_parking","bicycle_parking":"wall_loops","capacity":"5"}},{"type":"node","id":7617606786,"lat":51.4913438,"lon":7.2145081,"tags":{"amenity":"bicycle_parking","bicycle_parking":"wall_loops","capacity":"6"}},{"type":"node","id":7620163754,"lat":51.4741045,"lon":7.2150874,"tags":{"amenity":"bicycle_parking","bicycle_parking":"stands","capacity":"6","covered":"no"}},{"type":"node","id":7640314540,"lat":51.4735785,"lon":7.2160628,"tags":{"amenity":"bicycle_parking","bicycle_parking":"stands","capacity":"8","covered":"no"}},{"type":"node","id":7660624283,"lat":51.4840648,"lon":7.2181507,"tags":{"amenity":"bicycle_parking","bicycle_parking":"stands","capacity":"6","covered":"no"}},{"type":"node","id":7660683797,"lat":51.4818611,"lon":7.2165676,"tags":{"amenity":"bicycle_parking","bicycle_parking":"bollard","capacity":"6","covered":"no"}},{"type":"node","id":7670825246,"lat":51.4717656,"lon":7.2473312,"tags":{"amenity":"bicycle_parking","bicycle_parking":"stands","capacity":"4"}},{"type":"node","id":7721603376,"lat":51.4758945,"lon":7.2284127,"tags":{"amenity":"bicycle_parking","bicycle_parking":"wall_mounted","capacity":"7","covered":"yes"}},{"type":"node","id":7731670123,"lat":51.473375,"lon":7.2251865},{"type":"node","id":7731670124,"lat":51.4733851,"lon":7.2252806},{"type":"node","id":7731670125,"lat":51.4733996,"lon":7.2252765},{"type":"node","id":7731670126,"lat":51.4733895,"lon":7.2251825},{"type":"node","id":7731670142,"lat":51.4735178,"lon":7.2253383},{"type":"node","id":7731670143,"lat":51.4735033,"lon":7.2253424},{"type":"node","id":7731670144,"lat":51.4734832,"lon":7.225156},{"type":"node","id":7731670145,"lat":51.4734978,"lon":7.225152},{"type":"node","id":7773874352,"lat":51.4783149,"lon":7.2140686,"tags":{"amenity":"bicycle_parking","bicycle_parking":"wall_loops"}},{"type":"node","id":7774264182,"lat":51.4779381,"lon":7.2080286,"tags":{"amenity":"bicycle_parking","bicycle_parking":"stands","capacity":"36"}},{"type":"node","id":7774321141,"lat":51.4775659,"lon":7.2070724,"tags":{"amenity":"bicycle_parking","bicycle_parking":"stands","capacity":"8"}},{"type":"node","id":7780270547,"lat":51.4408862,"lon":7.2125763,"tags":{"amenity":"bicycle_parking","bicycle_parking":"bollard","capacity":"6"}},{"type":"node","id":7792189629,"lat":51.4755585,"lon":7.2356434},{"type":"node","id":7792189630,"lat":51.4755429,"lon":7.2356273},{"type":"node","id":7792189631,"lat":51.4810156,"lon":7.2200247},{"type":"node","id":7792189632,"lat":51.4809248,"lon":7.220068},{"type":"node","id":7792189633,"lat":51.4755661,"lon":7.2355698},{"type":"node","id":7792189634,"lat":51.4755816,"lon":7.2355859},{"type":"node","id":7798658280,"lat":51.4845129,"lon":7.2160013,"tags":{"amenity":"bicycle_parking","bicycle_parking":"stands","capacity":"4","covered":"no"}},{"type":"node","id":7800878522,"lat":51.4123998,"lon":7.2345797,"tags":{"amenity":"bicycle_parking","bicycle_parking":"stands","capacity":"5","covered":"no","fee":"no"}},{"type":"node","id":7816794145,"lat":51.4672425,"lon":7.3166282},{"type":"node","id":7816794157,"lat":51.4672893,"lon":7.3168029},{"type":"node","id":7816794158,"lat":51.4672277,"lon":7.3166436},{"type":"node","id":7816794164,"lat":51.467303,"lon":7.3167878},{"type":"node","id":7831895444,"lat":51.4783048,"lon":7.3024757,"tags":{"amenity":"bicycle_parking","bicycle_parking":"stands","capacity":"6","covered":"yes"}},{"type":"node","id":7832011563,"lat":51.4733327,"lon":7.2259434,"tags":{"amenity":"bicycle_parking","bicycle_parking":"stands","covered":"yes","level":"0"}},{"type":"node","id":7832032830,"lat":51.4731239,"lon":7.2260133,"tags":{"amenity":"bicycle_parking","bicycle_parking":"stands","covered":"no"}},{"type":"node","id":7832056353,"lat":51.4788514,"lon":7.2208315,"tags":{"amenity":"bicycle_parking","bicycle_parking":"wall_loops","capacity":"6","covered":"yes","operator":"Herz Apotheke","operator:type":"private"}},{"type":"node","id":7832076339,"lat":51.4802823,"lon":7.2233249,"tags":{"amenity":"bicycle_parking","bicycle_parking":"wall_loops","capacity":"6"}},{"type":"node","id":7832105878,"lat":51.4771659,"lon":7.216772,"tags":{"amenity":"bicycle_parking","bicycle_parking":"bollard","capacity":"3"}},{"type":"node","id":7832115635,"lat":51.4762846,"lon":7.2162191,"tags":{"amenity":"bicycle_parking","bicycle_parking":"wall_loops","capacity":"4","covered":"no","operator":"Miss Hops","operator:type":"private"}},{"type":"node","id":7832118976,"lat":51.477444,"lon":7.216607,"tags":{"amenity":"bicycle_parking","bicycle_parking":"bollard","capacity":"6","covered":"no"}},{"type":"node","id":7832136821,"lat":51.478009,"lon":7.2177546,"tags":{"amenity":"bicycle_parking","bicycle_parking":"bollard","capacity":"5"}},{"type":"node","id":7832138615,"lat":51.4790099,"lon":7.222398,"tags":{"amenity":"bicycle_parking","bicycle_parking":"bollard","covered":"yes"}},{"type":"node","id":7863009184,"lat":51.4409979,"lon":7.2102054,"tags":{"amenity":"bicycle_parking","bicycle_parking":"bollard","capacity":"6","covered":"no"}},{"type":"node","id":7899791548,"lat":51.488008,"lon":7.2126952,"tags":{"amenity":"bicycle_parking","bicycle_parking":"stands","covered":"yes"}},{"type":"node","id":7922214603,"lat":51.4823183,"lon":7.2189535,"tags":{"access":"customers","amenity":"bicycle_parking","bicycle_parking":"wall_loops","capacity":"4","covered":"no"}},{"type":"node","id":7922225657,"lat":51.481909,"lon":7.2175188,"tags":{"amenity":"bicycle_parking","bicycle_parking":"bollard","capacity":"4","covered":"no"}},{"type":"node","id":7924855782,"lat":51.4838688,"lon":7.2256053,"tags":{"amenity":"bicycle_parking","bicycle_parking":"wall_loops"}},{"type":"node","id":7924855784,"lat":51.4841359,"lon":7.2246395,"tags":{"amenity":"bicycle_parking","bicycle_parking":"wall_loops"}},{"type":"node","id":7945707956,"lat":51.4748892,"lon":7.2658219,"tags":{"amenity":"bicycle_parking"}},{"type":"node","id":7947968757,"lat":51.470289,"lon":7.2904248,"tags":{"access":"yes","amenity":"bicycle_parking","bicycle_parking":"stands","capacity":"2","covered":"no","lit":"no"}},{"type":"node","id":7947968759,"lat":51.470072,"lon":7.2908614,"tags":{"access":"yes","amenity":"bicycle_parking","bicycle_parking":"stands","capacity":"2","covered":"no","lit":"no"}},{"type":"node","id":7959915722,"lat":51.4737733,"lon":7.3239098,"tags":{"amenity":"bicycle_parking","bicycle_parking":"bollard","capacity":"3","covered":"no"}},{"type":"node","id":7963864984,"lat":51.4808784,"lon":7.2881461,"tags":{"amenity":"bicycle_parking","bicycle_parking":"wall_loops","capacity":"2","covered":"no"}},{"type":"node","id":7963982819,"lat":51.4834684,"lon":7.2895633,"tags":{"amenity":"bicycle_parking","bicycle_parking":"wall_loops","capacity":"5","covered":"no"}},{"type":"node","id":7964016629,"lat":51.482882,"lon":7.2868846,"tags":{"access":"customers","amenity":"bicycle_parking","bicycle_parking":"wall_loops","capacity":"4","covered":"no"}},{"type":"node","id":7964372340,"lat":51.4877283,"lon":7.3041331,"tags":{"amenity":"bicycle_parking","bicycle_parking":"wall_loops","capacity":"5","covered":"no"}},{"type":"node","id":7964372341,"lat":51.495693,"lon":7.3062661,"tags":{"access":"private","amenity":"bicycle_parking","bicycle_parking":"bollard","capacity":"2","covered":"no"}},{"type":"node","id":7964386558,"lat":51.4938542,"lon":7.3038883,"tags":{"access":"private","amenity":"bicycle_parking","bic":"stands","capacity":"2","covered":"no"}},{"type":"node","id":7964450913,"lat":51.4932329,"lon":7.3042205,"tags":{"access":"private","amenity":"bicycle_parking","bic":"stands","capacity":"2","covered":"no"}},{"type":"node","id":7964453470,"lat":51.49346,"lon":7.3041046,"tags":{"access":"private","amenity":"bicycle_parking","bic":"stands","capacity":"2","covered":"no"}},{"type":"node","id":7964462177,"lat":51.4846486,"lon":7.3009776,"tags":{"amenity":"bicycle_parking","bicycle_parking":"wall_loops","capacity":"16","covered":"no"}},{"type":"node","id":7964462179,"lat":51.4940459,"lon":7.3037878,"tags":{"access":"private","amenity":"bicycle_parking","bic":"stands","capacity":"2","covered":"no"}},{"type":"node","id":7964462187,"lat":51.4876879,"lon":7.3041465,"tags":{"amenity":"bicycle_parking","bicycle_parking":"wall_loops","capacity":"5","covered":"no"}},{"type":"node","id":7964462188,"lat":51.4943832,"lon":7.3036641,"tags":{"access":"private","amenity":"bicycle_parking","bic":"stands","capacity":"2","covered":"no"}},{"type":"node","id":7964462497,"lat":51.4942887,"lon":7.3037105,"tags":{"access":"private","amenity":"bicycle_parking","bic":"stands","capacity":"2","covered":"no"}},{"type":"node","id":7964462601,"lat":51.4931471,"lon":7.3042663,"tags":{"access":"private","amenity":"bicycle_parking","bic":"stands","capacity":"2","covered":"no"}},{"type":"node","id":7964462602,"lat":51.4936513,"lon":7.3039959,"tags":{"access":"private","amenity":"bicycle_parking","bic":"stands","capacity":"2","covered":"no"}},{"type":"node","id":7964573210,"lat":51.4939998,"lon":7.3069582,"tags":{"access":"private","amenity":"bicycle_parking","bicycle_parking":"wide_stands","capacity":"5","covered":"no"}},{"type":"node","id":7968358830,"lat":51.4492801,"lon":7.2040055,"tags":{"amenity":"bicycle_parking","bicycle_parking":"stands","capacity":"2","covered":"no","fee":"no"}},{"type":"node","id":7982180327,"lat":51.4724128,"lon":7.2499985,"tags":{"access":"customers","amenity":"bicycle_parking","bicycle_parking":"wall_loops","capacity":"4","covered":"no"}},{"type":"node","id":7987079248,"lat":51.498898,"lon":7.1848679},{"type":"node","id":7987079250,"lat":51.4989263,"lon":7.1850225},{"type":"node","id":7987079253,"lat":51.498938,"lon":7.185116},{"type":"node","id":7987079256,"lat":51.4989395,"lon":7.1850128},{"type":"node","id":7987079259,"lat":51.4988641,"lon":7.1849907},{"type":"node","id":7987079261,"lat":51.4988653,"lon":7.1849114},{"type":"node","id":7987079263,"lat":51.4989334,"lon":7.1850472},{"type":"node","id":7987079276,"lat":51.4989626,"lon":7.1850978},{"type":"node","id":7987079277,"lat":51.4989055,"lon":7.1851394},{"type":"node","id":7987079282,"lat":51.4989456,"lon":7.1850382},{"type":"node","id":7992891760,"lat":51.4901642,"lon":7.2332026},{"type":"node","id":7992891767,"lat":51.490149,"lon":7.2330784},{"type":"node","id":7992891771,"lat":51.4901723,"lon":7.2332},{"type":"node","id":8000244021,"lat":51.4802396,"lon":7.2160569,"tags":{"amenity":"bicycle_parking","bicycle_parking":"stands","covered":"no"}},{"type":"node","id":8021000322,"lat":51.4706938,"lon":7.1649036},{"type":"node","id":8021000323,"lat":51.4707166,"lon":7.1648894},{"type":"node","id":8021000324,"lat":51.4707024,"lon":7.1648247},{"type":"node","id":8021000325,"lat":51.4706794,"lon":7.1648382},{"type":"node","id":8021267978,"lat":51.4749524,"lon":7.1703259},{"type":"node","id":8021267979,"lat":51.4749444,"lon":7.1702903},{"type":"node","id":8021267980,"lat":51.4749038,"lon":7.170314},{"type":"node","id":8021267981,"lat":51.4749119,"lon":7.1703495},{"type":"node","id":8032361679,"lat":51.4812527,"lon":7.2159313,"tags":{"amenity":"bicycle_parking","bicycle_parking":"bollard","capacity":"18","covered":"no"}},{"type":"node","id":8032364637,"lat":51.4813249,"lon":7.2159123,"tags":{"amenity":"bicycle_parking","bicycle_parking":"bollard","capacity":"18","covered":"no"}},{"type":"node","id":8041854412,"lat":51.4658236,"lon":7.3148398},{"type":"node","id":8043061912,"lat":51.412489,"lon":7.2357722,"tags":{"amenity":"bicycle_parking","bicycle_parking":"stands","capacity":"2","fee":"no"}},{"type":"node","id":8043074752,"lat":51.413565,"lon":7.2202621,"tags":{"amenity":"bicycle_parking","bicycle_parking":"stands","capacity":"5","fee":"no"}},{"type":"node","id":8044282341,"lat":51.4549962,"lon":7.228568,"tags":{"amenity":"bicycle_parking","bicycle_parking":"stands","capacity":"3"}},{"type":"node","id":8069776492,"lat":51.4751988,"lon":7.2453674,"tags":{"amenity":"bicycle_parking","bicycle_parking":"stands","capacity":"8","covered":"no"}},{"type":"node","id":8069776778,"lat":51.4754019,"lon":7.2452963,"tags":{"amenity":"bicycle_parking","bicycle_parking":"stands","capacity":"4","covered":"no"}},{"type":"node","id":8069794064,"lat":51.4750741,"lon":7.2454079,"tags":{"amenity":"bicycle_parking","bicycle_parking":"stands","capacity":"4","covered":"no"}},{"type":"node","id":8120416118,"lat":51.4706311,"lon":7.3018066,"tags":{"access":"yes","amenity":"bicycle_parking","bicycle_parking":"stands","capacity":"6","covered":"no","surface":"grass"}},{"type":"way","id":133468411,"bounds":{"minlat":51.4735526,"minlon":7.3139228,"maxlat":51.4737358,"maxlon":7.3142278},"nodes":[1469045222,1469045239,1469045226,1469045227,1469045222],"geometry":[{"lat":51.4735526,"lon":7.3140149},{"lat":51.4736163,"lon":7.3142278},{"lat":51.4737358,"lon":7.3141356},{"lat":51.4736721,"lon":7.3139228},{"lat":51.4735526,"lon":7.3140149}],"tags":{"amenity":"bicycle_parking","bicycle_parking":"stands","capacity":"12","covered":"no","surface":"paving_stones"}},{"type":"way","id":143306512,"bounds":{"minlat":51.4910004,"minlon":7.2008617,"maxlat":51.4910274,"maxlon":7.2009263},"nodes":[1568218986,1568218976,1568218967,1568218972,1568218986],"geometry":[{"lat":51.4910274,"lon":7.20087},{"lat":51.4910146,"lon":7.2009263},{"lat":51.4910004,"lon":7.200918},{"lat":51.4910132,"lon":7.2008617},{"lat":51.4910274,"lon":7.20087}],"tags":{"amenity":"bicycle_parking","bicycle_parking":"shed","building":"yes","capacity":"5","covered":"yes"}},{"type":"way","id":149503872,"bounds":{"minlat":51.451355,"minlon":7.156173,"maxlat":51.4514855,"maxlon":7.1563984},"nodes":[1624665538,1624665535,1624665536,1624665525,1624665544,1624665538],"geometry":[{"lat":51.4514791,"lon":7.156173},{"lat":51.451355,"lon":7.1561824},{"lat":51.4513585,"lon":7.1563043},{"lat":51.4513613,"lon":7.1563984},{"lat":51.4514855,"lon":7.156389},{"lat":51.4514791,"lon":7.156173}],"tags":{"amenity":"bicycle_parking","capacity":"100"}},{"type":"way","id":160578370,"bounds":{"minlat":51.466511,"minlon":7.2043318,"maxlat":51.4666138,"maxlon":7.2044747},"nodes":[1726326150,1726326151,1726326149,1758964782,1726326150],"geometry":[{"lat":51.466591,"lon":7.2043318},{"lat":51.4666138,"lon":7.2043833},{"lat":51.4665338,"lon":7.2044747},{"lat":51.466511,"lon":7.2044232},{"lat":51.466591,"lon":7.2043318}],"tags":{"amenity":"bicycle_parking","bicycle_parking":"wall_loops","capacity":"8","operator":"Aldi"}},{"type":"way","id":223795218,"bounds":{"minlat":51.4599691,"minlon":7.154476,"maxlat":51.4600258,"maxlon":7.1545772},"nodes":[2326682244,2326682242,2326682245,2326682246,2326682244],"geometry":[{"lat":51.4599972,"lon":7.154476},{"lat":51.4599691,"lon":7.1545045},{"lat":51.4599978,"lon":7.1545772},{"lat":51.4600258,"lon":7.1545487},{"lat":51.4599972,"lon":7.154476}],"tags":{"amenity":"bicycle_parking","bicycle_parking":"stands","capacity":"18","covered":"yes"}},{"type":"way","id":223797626,"bounds":{"minlat":51.4599494,"minlon":7.1545661,"maxlat":51.4599747,"maxlon":7.1546754},"nodes":[2326684757,2326684759,2326684756,2326684755,2326684757],"geometry":[{"lat":51.4599747,"lon":7.1545699},{"lat":51.4599606,"lon":7.1546754},{"lat":51.4599494,"lon":7.1546716},{"lat":51.4599635,"lon":7.1545661},{"lat":51.4599747,"lon":7.1545699}],"tags":{"amenity":"bicycle_parking","bicycle_parking":"lockers","capacity":"10","covered":"yes"}},{"type":"way","id":264355519,"bounds":{"minlat":51.509684,"minlon":7.2114147,"maxlat":51.5097299,"maxlon":7.211506},"nodes":[2700432988,2700432982,2700433004,2700433020,2700432988],"geometry":[{"lat":51.5097023,"lon":7.2114147},{"lat":51.509684,"lon":7.2114324},{"lat":51.5097116,"lon":7.211506},{"lat":51.5097299,"lon":7.2114883},{"lat":51.5097023,"lon":7.2114147}],"tags":{"amenity":"bicycle_parking","bicycle_parking":"bollard","capacity":"10","covered":"yes"}},{"type":"way","id":337766014,"bounds":{"minlat":51.4736777,"minlon":7.1398903,"maxlat":51.4738493,"maxlon":7.1400393},"nodes":[3448186795,3448186591,3448186586,3448186587,3448186795],"geometry":[{"lat":51.4738493,"lon":7.1400007},{"lat":51.473839,"lon":7.1400393},{"lat":51.4736777,"lon":7.1399289},{"lat":51.473688,"lon":7.1398903},{"lat":51.4738493,"lon":7.1400007}],"tags":{"amenity":"bicycle_parking","bicycle_parking":"stands","bike_ride":"yes","building":"roof","capacity":"40","covered":"yes","layer":"1"}},{"type":"way","id":337766015,"bounds":{"minlat":51.4738348,"minlon":7.1401656,"maxlat":51.4738705,"maxlon":7.1402606},"nodes":[3448186796,3448186590,3448186794,3448186798,3448186796],"geometry":[{"lat":51.4738581,"lon":7.1401656},{"lat":51.4738348,"lon":7.1401742},{"lat":51.4738472,"lon":7.1402606},{"lat":51.4738705,"lon":7.140252},{"lat":51.4738581,"lon":7.1401656}],"tags":{"amenity":"bicycle_parking","bicycle_parking":"stands","building":"roof","capacity":"18","covered":"yes","layer":"1"}},{"type":"way","id":337795980,"bounds":{"minlat":51.4906366,"minlon":7.2009451,"maxlat":51.4907172,"maxlon":7.2009904},"nodes":[3448534020,3448534016,3448534015,3448534019,3448534020],"geometry":[{"lat":51.4907172,"lon":7.2009547},{"lat":51.4906383,"lon":7.2009451},{"lat":51.4906366,"lon":7.2009808},{"lat":51.4907155,"lon":7.2009904},{"lat":51.4907172,"lon":7.2009547}],"tags":{"amenity":"bicycle_parking","bicycle_parking":"shed","building":"roof","covered":"yes"}},{"type":"way","id":352774650,"bounds":{"minlat":51.4532034,"minlon":7.2503451,"maxlat":51.453272,"maxlon":7.2504819},"nodes":[3585429100,3585429101,3585429102,3585429103,3585429104,3585429105,3585429106,3585429100],"geometry":[{"lat":51.4532419,"lon":7.2504819},{"lat":51.4532611,"lon":7.2504685},{"lat":51.453272,"lon":7.2503934},{"lat":51.4532335,"lon":7.2503451},{"lat":51.4532068,"lon":7.2503518},{"lat":51.4532034,"lon":7.2504095},{"lat":51.4532068,"lon":7.2504618},{"lat":51.4532419,"lon":7.2504819}],"tags":{"amenity":"bicycle_parking","bicycle_parking":"stands","capacity":"10","covered":"no"}},{"type":"way","id":352966189,"bounds":{"minlat":51.4474744,"minlon":7.2655906,"maxlat":51.447588,"maxlon":7.2657086},"nodes":[3587505356,3587505357,3587505358,3587505359,3587505356],"geometry":[{"lat":51.4474744,"lon":7.2656847},{"lat":51.4475802,"lon":7.2655906},{"lat":51.447588,"lon":7.2656172},{"lat":51.4474824,"lon":7.2657086},{"lat":51.4474744,"lon":7.2656847}],"tags":{"amenity":"bicycle_parking","bicycle_parking":"rack","capacity":"6","covered":"no"}},{"type":"way","id":352966849,"bounds":{"minlat":51.4475376,"minlon":7.2657763,"maxlat":51.4476535,"maxlon":7.2659002},"nodes":[3587518395,4345002969,4345002965,3587518398,3587518395],"geometry":[{"lat":51.4475468,"lon":7.2659002},{"lat":51.4476535,"lon":7.2658025},{"lat":51.4476447,"lon":7.2657763},{"lat":51.4475376,"lon":7.265873},{"lat":51.4475468,"lon":7.2659002}],"tags":{"amenity":"bicycle_parking","bicycle_parking":"stands","capacity":"10","covered":"no"}},{"type":"way","id":434732732,"bounds":{"minlat":51.4726822,"minlon":7.2139325,"maxlat":51.4727638,"maxlon":7.2140911},"nodes":[4326742532,4326742541,4326742547,4326742545,4326742532],"geometry":[{"lat":51.4726822,"lon":7.2139491},{"lat":51.4726957,"lon":7.2139325},{"lat":51.4727638,"lon":7.2140745},{"lat":51.4727504,"lon":7.2140911},{"lat":51.4726822,"lon":7.2139491}],"tags":{"amenity":"bicycle_parking","bicycle_parking":"stands","capacity":"14","covered":"no"}},{"type":"way","id":497011116,"bounds":{"minlat":51.4508152,"minlon":7.1983753,"maxlat":51.4509061,"maxlon":7.1985325},"nodes":[4886475404,4886475403,4886475402,4886475401,4886475404],"geometry":[{"lat":51.4508623,"lon":7.1983753},{"lat":51.4508152,"lon":7.1984244},{"lat":51.4508589,"lon":7.1985325},{"lat":51.4509061,"lon":7.1984834},{"lat":51.4508623,"lon":7.1983753}],"tags":{"access":"private","amenity":"bicycle_parking"}},{"type":"way","id":510537172,"bounds":{"minlat":51.4788628,"minlon":7.2219025,"maxlat":51.4789441,"maxlon":7.2220545},"nodes":[4995322131,4995322132,4995322130,4995322129,4995322131],"geometry":[{"lat":51.478914,"lon":7.2220545},{"lat":51.4789441,"lon":7.2220209},{"lat":51.4788929,"lon":7.2219025},{"lat":51.4788628,"lon":7.2219362},{"lat":51.478914,"lon":7.2220545}],"tags":{"amenity":"bicycle_parking","bicycle_parking":"stands","capacity":"18","covered":"no"}},{"type":"way","id":532470502,"bounds":{"minlat":51.4952781,"minlon":7.277644,"maxlat":51.4954256,"maxlon":7.2777794},"nodes":[5166919399,5166919400,5166919401,5166919402,5166919399],"geometry":[{"lat":51.4954173,"lon":7.2777794},{"lat":51.4954256,"lon":7.2777472},{"lat":51.4952878,"lon":7.277644},{"lat":51.4952781,"lon":7.2776781},{"lat":51.4954173,"lon":7.2777794}],"tags":{"amenity":"bicycle_parking","bicycle_parking":"wall_loops","capacity":"15","covered":"no"}},{"type":"way","id":532470687,"bounds":{"minlat":51.4959836,"minlon":7.2779289,"maxlat":51.4960395,"maxlon":7.2780067},"nodes":[5166923936,5166923937,5166923938,5166923939,5166923936],"geometry":[{"lat":51.4960278,"lon":7.2780067},{"lat":51.4959836,"lon":7.2779786},{"lat":51.4959961,"lon":7.2779289},{"lat":51.4960395,"lon":7.2779585},{"lat":51.4960278,"lon":7.2780067}],"tags":{"amenity":"bicycle_parking","bicycle_parking":"wall_loops","capacity":"9","covered":"no","operator":"Lidl"}},{"type":"way","id":532471526,"bounds":{"minlat":51.4955131,"minlon":7.2780412,"maxlat":51.4955649,"maxlon":7.278123},"nodes":[5166924148,5166924149,5166924150,5166924151,5166924148],"geometry":[{"lat":51.4955649,"lon":7.2780855},{"lat":51.4955432,"lon":7.278123},{"lat":51.4955131,"lon":7.2780774},{"lat":51.4955357,"lon":7.2780412},{"lat":51.4955649,"lon":7.2780855}],"tags":{"amenity":"bicycle_parking","bicycle_parking":"wall_loops","capacity":"10","covered":"no","operator":"www.ruhr-park.de"}},{"type":"way","id":532471888,"bounds":{"minlat":51.496178,"minlon":7.2799475,"maxlat":51.4962499,"maxlon":7.280156},"nodes":[996711873,5166933250,5166933251,5166933252,996711873],"geometry":[{"lat":51.4962499,"lon":7.279964},{"lat":51.4962284,"lon":7.2799475},{"lat":51.496178,"lon":7.2801422},{"lat":51.4961991,"lon":7.280156},{"lat":51.4962499,"lon":7.279964}],"tags":{"amenity":"bicycle_parking","bicycle_parking":"stands","capacity":"12","covered":"no","operator":"www.ruhr-park.de"}},{"type":"way","id":532472442,"bounds":{"minlat":51.4961272,"minlon":7.2798832,"maxlat":51.4962097,"maxlon":7.2800245},"nodes":[5166938524,5166938525,5166938526,5166938527,5166938524],"geometry":[{"lat":51.4962097,"lon":7.2799207},{"lat":51.4961829,"lon":7.2800245},{"lat":51.4961272,"lon":7.2799903},{"lat":51.4961564,"lon":7.2798832},{"lat":51.4962097,"lon":7.2799207}],"tags":{"amenity":"bicycle_parking","bicycle_parking":"stands","capacity":"24","covered":"no","operator":"www.ruhr-park.de"}},{"type":"way","id":532768804,"bounds":{"minlat":51.495916,"minlon":7.2813893,"maxlat":51.4960157,"maxlon":7.2817448},"nodes":[5169544086,5169544087,5169544090,5169544091,5169544088,5169544089,5169544086],"geometry":[{"lat":51.4960157,"lon":7.2814486},{"lat":51.4959295,"lon":7.2813893},{"lat":51.4959202,"lon":7.2814242},{"lat":51.4959856,"lon":7.2814692},{"lat":51.495916,"lon":7.2817305},{"lat":51.4959368,"lon":7.2817448},{"lat":51.4960157,"lon":7.2814486}],"tags":{"amenity":"bicycle_parking","bicycle_parking":"stands","capacity":"40","covered":"no","operator":"www.ruhr-park.de"}},{"type":"way","id":532775556,"bounds":{"minlat":51.4959482,"minlon":7.2827044,"maxlat":51.4961026,"maxlon":7.282901},"nodes":[5169569255,5169569256,5169569257,5169569258,5169569255],"geometry":[{"lat":51.4961026,"lon":7.2827842},{"lat":51.4960739,"lon":7.282901},{"lat":51.4959482,"lon":7.2828212},{"lat":51.495977,"lon":7.2827044},{"lat":51.4961026,"lon":7.2827842}],"tags":{"amenity":"bicycle_parking","bicycle_parking":"stands","capacity":"30","covered":"yes","operator":"www.ruhrpark.de"}},{"type":"way","id":532777162,"bounds":{"minlat":51.4954968,"minlon":7.2845987,"maxlat":51.4955975,"maxlon":7.2847344},"nodes":[5169574423,5169574424,5169574425,5169574426,6742267411,6742267412,6742267413,6742267410,6742267409,5169574423],"geometry":[{"lat":51.4955975,"lon":7.2846661},{"lat":51.4955781,"lon":7.2847344},{"lat":51.4954968,"lon":7.28468},{"lat":51.495516,"lon":7.2846094},{"lat":51.495526,"lon":7.2845987},{"lat":51.4955417,"lon":7.2846031},{"lat":51.4955588,"lon":7.2846162},{"lat":51.4955859,"lon":7.2846353},{"lat":51.4955958,"lon":7.284648},{"lat":51.4955975,"lon":7.2846661}],"tags":{"amenity":"bicycle_parking","bicycle_parking":"stands","capacity":"24","covered":"no","lit":"yes","operator":"www.ruhrpark.de"}},{"type":"way","id":553912545,"bounds":{"minlat":51.4574543,"minlon":7.2385396,"maxlat":51.457486,"maxlon":7.2385926},"nodes":[5346343964,5346338383,5346344872,5346343963,5346343964],"geometry":[{"lat":51.457486,"lon":7.2385745},{"lat":51.457468,"lon":7.2385926},{"lat":51.4574543,"lon":7.2385577},{"lat":51.4574723,"lon":7.2385396},{"lat":51.457486,"lon":7.2385745}],"tags":{"amenity":"bicycle_parking","bicycle_parking":"stands","capacity":"12","covered":"no"}},{"type":"way","id":556463911,"bounds":{"minlat":51.4794896,"minlon":7.2034949,"maxlat":51.4795049,"maxlon":7.2035666},"nodes":[5367942952,5367942951],"geometry":[{"lat":51.4794896,"lon":7.2034949},{"lat":51.4795049,"lon":7.2035666}],"tags":{"access":"yes","amenity":"bicycle_parking","bicycle_parking":"stands","capacity":"18","covered":"no","fee":"no","lit":"yes","smoothness":"good","supervised":"no","surface":"sett"}},{"type":"way","id":644570589,"bounds":{"minlat":51.4657511,"minlon":7.3148398,"maxlat":51.4658648,"maxlon":7.3150154},"nodes":[6061735719,8041854412,1330923290,6061735722,6061735719],"geometry":[{"lat":51.4658648,"lon":7.3149308},{"lat":51.4658236,"lon":7.3148398},{"lat":51.4657511,"lon":7.3149235},{"lat":51.4657923,"lon":7.3150154},{"lat":51.4658648,"lon":7.3149308}],"tags":{"amenity":"bicycle_parking","bicycle_parking":"wall_loops","capacity":"43","covered":"no","lit":"yes","surface":"paving_stones"}},{"type":"way","id":645556240,"bounds":{"minlat":51.4847493,"minlon":7.3014105,"maxlat":51.4848268,"maxlon":7.3015369},"nodes":[6068069523,6168879096,6068069546,1942592875,6068069728,6068069523],"geometry":[{"lat":51.4847987,"lon":7.3014105},{"lat":51.4848121,"lon":7.3014504},{"lat":51.4848268,"lon":7.3014945},{"lat":51.4847773,"lon":7.3015369},{"lat":51.4847493,"lon":7.3014529},{"lat":51.4847987,"lon":7.3014105}],"tags":{"amenity":"bicycle_parking","covered":"no","surface":"paving_stones"}},{"type":"way","id":645621553,"bounds":{"minlat":51.4462089,"minlon":7.2445173,"maxlat":51.4464086,"maxlon":7.244694},"nodes":[6068482421,6068482422],"geometry":[{"lat":51.4464086,"lon":7.2445173},{"lat":51.4462089,"lon":7.244694}],"tags":{"access":"yes","amenity":"bicycle_parking","bicycle_parking":"stands","capacity":"48","colour":"gray","covered":"no","material":"metal","surface":"grass_paver"}},{"type":"way","id":671607311,"bounds":{"minlat":51.4728555,"minlon":7.2984715,"maxlat":51.472889,"maxlon":7.2985196},"nodes":[6289307890,6289307888,6289307892,6289307889,6289307890],"geometry":[{"lat":51.4728794,"lon":7.2984715},{"lat":51.472889,"lon":7.2984979},{"lat":51.4728651,"lon":7.2985196},{"lat":51.4728555,"lon":7.2984932},{"lat":51.4728794,"lon":7.2984715}],"tags":{"amenity":"bicycle_parking","bicycle_parking":"stands","capacity":"4","covered":"no","fee":"no"}},{"type":"way","id":672015362,"bounds":{"minlat":51.4816733,"minlon":7.2862353,"maxlat":51.4817573,"maxlon":7.2863854},"nodes":[6293161455,6293161456,6293161459,6393721188,6293161457,6293161458,6293161455],"geometry":[{"lat":51.4817573,"lon":7.2862478},{"lat":51.4816865,"lon":7.2862353},{"lat":51.4816825,"lon":7.2862758},{"lat":51.481681,"lon":7.2862916},{"lat":51.4816733,"lon":7.2863716},{"lat":51.4817454,"lon":7.2863854},{"lat":51.4817573,"lon":7.2862478}],"tags":{"access":"private","amenity":"bicycle_parking","capacity":"50","covered":"yes"}},{"type":"way","id":682205315,"bounds":{"minlat":51.477672,"minlon":7.3241232,"maxlat":51.4777562,"maxlon":7.3241949},"nodes":[7136952838,7136952846,6388667344,6388667340,6388667345,6388667334,6388667333,6388667341,7136952844,6388667332,6388667338,6388667339,6388667335,6388667336,6388667342,7136952838],"geometry":[{"lat":51.4777562,"lon":7.3241573},{"lat":51.477672,"lon":7.3241949},{"lat":51.4776733,"lon":7.3241803},{"lat":51.4776765,"lon":7.3241671},{"lat":51.47768,"lon":7.324155},{"lat":51.4776857,"lon":7.3241447},{"lat":51.4776931,"lon":7.3241352},{"lat":51.4777004,"lon":7.3241287},{"lat":51.4777086,"lon":7.3241246},{"lat":51.4777164,"lon":7.3241232},{"lat":51.4777239,"lon":7.3241244},{"lat":51.4777313,"lon":7.324127},{"lat":51.477738,"lon":7.3241311},{"lat":51.4777444,"lon":7.3241376},{"lat":51.4777507,"lon":7.3241457},{"lat":51.4777562,"lon":7.3241573}],"tags":{"access":"yes","amenity":"bicycle_parking","bicycle_parking":"stands","capacity":"14","covered":"no","park_ride":"yes","surface":"paving_stones"}},{"type":"way","id":682215699,"bounds":{"minlat":51.463658,"minlon":7.2318225,"maxlat":51.463752,"maxlon":7.2319841},"nodes":[6388759377,6388759378,6388759379,6388759380,6388759377],"geometry":[{"lat":51.463752,"lon":7.231842},{"lat":51.463737,"lon":7.2318225},{"lat":51.463658,"lon":7.2319647},{"lat":51.4636714,"lon":7.2319841},{"lat":51.463752,"lon":7.231842}],"tags":{"amenity":"bicycle_parking","bicycle_parking":"stands","capacity":"28","covered":"no","fee":"no"}},{"type":"way","id":714455540,"bounds":{"minlat":51.4736231,"minlon":7.2523291,"maxlat":51.4737448,"maxlon":7.2525222},"nodes":[6715807100,6715807098,6860431857,6860431865,6715807102,6715807099,6715807103,6715807101,6715807100],"geometry":[{"lat":51.4736231,"lon":7.2524663},{"lat":51.4736777,"lon":7.2523291},{"lat":51.4736834,"lon":7.2523349},{"lat":51.4737218,"lon":7.2523743},{"lat":51.4737448,"lon":7.2523979},{"lat":51.4736988,"lon":7.2525135},{"lat":51.4736862,"lon":7.2525006},{"lat":51.4736776,"lon":7.2525222},{"lat":51.4736231,"lon":7.2524663}],"tags":{"amenity":"bicycle_parking","bicycle_parking":"stands","capacity":"30","covered":"no","smoothness":"good","surface":"paving_stones"}},{"type":"way","id":719995405,"bounds":{"minlat":51.4366671,"minlon":7.2771419,"maxlat":51.4367112,"maxlon":7.2772211},"nodes":[6757750119,6757750116,6757750117,6757750118,6757750119],"geometry":[{"lat":51.4367004,"lon":7.2771419},{"lat":51.4367112,"lon":7.2772069},{"lat":51.4366779,"lon":7.2772211},{"lat":51.4366671,"lon":7.2771561},{"lat":51.4367004,"lon":7.2771419}],"tags":{"access":"yes","amenity":"bicycle_parking","bicycle_parking":"lockers","building":"yes","capacity":"6","covered":"yes","generator:method":"photovoltaic","generator:output:electricity":"yes","generator:source":"solar","generator:type":"solar_photovoltaic_panel","opening_hours":"24/7","power":"generator","surface":"metal"}},{"type":"way","id":727697525,"bounds":{"minlat":51.4791381,"minlon":7.2215287,"maxlat":51.4792163,"maxlon":7.2216813},"nodes":[6819483830,6819483831,6838004063,6838004014,6838004064,6838004065,6838004066,6819483832,6819483833,6819483830],"geometry":[{"lat":51.4791527,"lon":7.2215287},{"lat":51.4791381,"lon":7.2215451},{"lat":51.4791639,"lon":7.2215985},{"lat":51.4791713,"lon":7.2215987},{"lat":51.4791761,"lon":7.2216046},{"lat":51.4791783,"lon":7.2216166},{"lat":51.4791763,"lon":7.2216255},{"lat":51.4792019,"lon":7.2216813},{"lat":51.4792163,"lon":7.2216649},{"lat":51.4791527,"lon":7.2215287}],"tags":{"amenity":"bicycle_parking","bicycle_parking":"bollard","capacity":"18","covered":"no"}},{"type":"way","id":728808252,"bounds":{"minlat":51.4804574,"minlon":7.221559,"maxlat":51.4804811,"maxlon":7.2215942},"nodes":[6828106521,6828106522,6828106523,6828106524,6828106521],"geometry":[{"lat":51.4804811,"lon":7.2215671},{"lat":51.4804619,"lon":7.221559},{"lat":51.4804574,"lon":7.221586},{"lat":51.4804766,"lon":7.2215942},{"lat":51.4804811,"lon":7.2215671}],"tags":{"amenity":"bicycle_parking","bicycle_parking":"bollard","capacity":"6","covered":"no"}},{"type":"way","id":728808253,"bounds":{"minlat":51.4804773,"minlon":7.221424,"maxlat":51.4805147,"maxlon":7.2215225},"nodes":[6828106526,6828106527,6828106528,6828106529,6828106526],"geometry":[{"lat":51.4805147,"lon":7.2214343},{"lat":51.4804962,"lon":7.221424},{"lat":51.4804773,"lon":7.2215122},{"lat":51.4804959,"lon":7.2215225},{"lat":51.4805147,"lon":7.2214343}],"tags":{"amenity":"bicycle_parking","bicycle_parking":"bollard","capacity":"10","covered":"no"}},{"type":"way","id":728808254,"bounds":{"minlat":51.4805854,"minlon":7.2209923,"maxlat":51.4806127,"maxlon":7.2210588},"nodes":[6828106531,6828106532,6828106533,6828106534,6828106531],"geometry":[{"lat":51.4806127,"lon":7.2210003},{"lat":51.4805972,"lon":7.2209923},{"lat":51.4805854,"lon":7.2210508},{"lat":51.480601,"lon":7.2210588},{"lat":51.4806127,"lon":7.2210003}],"tags":{"amenity":"bicycle_parking","bicycle_parking":"bollard","capacity":"6","covered":"no"}},{"type":"way","id":728808255,"bounds":{"minlat":51.4805484,"minlon":7.2211674,"maxlat":51.4805755,"maxlon":7.2212402},"nodes":[6828106535,6828106536,6828106537,6828106538,6828106535],"geometry":[{"lat":51.4805755,"lon":7.2211746},{"lat":51.4805623,"lon":7.2211674},{"lat":51.4805484,"lon":7.221233},{"lat":51.4805616,"lon":7.2212402},{"lat":51.4805755,"lon":7.2211746}],"tags":{"amenity":"bicycle_parking","bicycle_parking":"bollard","capacity":"8","covered":"no"}},{"type":"way","id":758609439,"bounds":{"minlat":51.4676798,"minlon":7.2715387,"maxlat":51.4677552,"maxlon":7.2716585},"nodes":[7085015235,6516610099,7085015241,7085015242,7085015235],"geometry":[{"lat":51.4676798,"lon":7.2715843},{"lat":51.4677071,"lon":7.2715387},{"lat":51.4677552,"lon":7.2716129},{"lat":51.4677279,"lon":7.2716585},{"lat":51.4676798,"lon":7.2715843}],"tags":{"amenity":"bicycle_parking","bicycle_parking":"stands","capacity":"20","covered":"yes","level":"0","smoothness":"good","surface":"paving_stones"}},{"type":"way","id":763219844,"bounds":{"minlat":51.4515974,"minlon":7.2732672,"maxlat":51.4516825,"maxlon":7.2733392},"nodes":[7131891523,6301295536,7131887677,7131891505,7131891523],"geometry":[{"lat":51.4515974,"lon":7.2733119},{"lat":51.4516765,"lon":7.2732672},{"lat":51.4516825,"lon":7.2732945},{"lat":51.4516034,"lon":7.2733392},{"lat":51.4515974,"lon":7.2733119}],"tags":{"access":"yes","amenity":"bicycle_parking","bicycle_parking":"lockers","capacity":"10","covered":"yes","description":"DeinRadschloss – Fahrradboxen oder Sammelabstellanlagen mit elektronischem Schließsystem an Verknüpfungspunkten zum ÖPNV. Online suchen, buchen und bezahlen. Öffnen der Anlagen mit PIN-Code oder Chipkarte. Kurzzeit- und Langzeitmiete.","fee":"yes","name":"Fahrradbox U35 Hustadt","operator":"Kienzler DeinRadschloss","website":"https://www.dein-radschloss.de/boxbuchen/?preselect_unit_uid=203"}},{"type":"way","id":763929396,"bounds":{"minlat":51.4775613,"minlon":7.3240841,"maxlat":51.4775988,"maxlon":7.3242351},"nodes":[7136952841,6301310812,7136952839,7136952843,7136952841],"geometry":[{"lat":51.4775613,"lon":7.32409},{"lat":51.4775758,"lon":7.3240841},{"lat":51.4775988,"lon":7.3242291},{"lat":51.4775843,"lon":7.3242351},{"lat":51.4775613,"lon":7.32409}],"tags":{"amenity":"bicycle_parking","bicycle_parking":"lockers","capacity":"24","covered":"yes","description":"DeinRadschloss – Fahrradboxen oder Sammelabstellanlagen mit elektronischem Schließsystem an Verknüpfungspunkten zum ÖPNV. Online suchen, buchen und bezahlen. Öffnen der Anlagen mit PIN-Code oder Chipkarte. Kurzzeit- und Langzeitmiete.","fee":"yes","level":"0","name":"Fahrradbox Bf Langendreer","network":"VRR","operator":"Kienzler DeinRadschloss","website":"https://www.dein-radschloss.de/boxbuchen/?preselect_unit_uid=204"}},{"type":"way","id":768629182,"bounds":{"minlat":51.4988682,"minlon":7.2229743,"maxlat":51.4988883,"maxlon":7.2230453},"nodes":[7175910067,7175910068,7175910069,7175910070,7175910067],"geometry":[{"lat":51.4988883,"lon":7.2229769},{"lat":51.4988774,"lon":7.2229743},{"lat":51.4988682,"lon":7.22304},{"lat":51.4988799,"lon":7.2230453},{"lat":51.4988883,"lon":7.2229769}],"tags":{"access":"yes","amenity":"bicycle_parking","bicycle_parking":"stands","capacity":"10","covered":"no","fee":"no","operator":"Lidl","operator:type":"private"}},{"type":"way","id":770030942,"bounds":{"minlat":51.4693551,"minlon":7.2444139,"maxlat":51.4693818,"maxlon":7.2444796},"nodes":[7188552958,7188552959,7188552960,7188552961,7188552958],"geometry":[{"lat":51.469366,"lon":7.2444796},{"lat":51.4693551,"lon":7.2444743},{"lat":51.469371,"lon":7.2444139},{"lat":51.4693818,"lon":7.2444206},{"lat":51.469366,"lon":7.2444796}],"tags":{"amenity":"bicycle_parking","bicycle_parking":"stands","capacity":"8","covered":"no","fee":"no","operator":"Netto","operator:type":"business"}},{"type":"way","id":788238675,"bounds":{"minlat":51.4726115,"minlon":7.3159832,"maxlat":51.4726574,"maxlon":7.3161116},"nodes":[7369587615,7369587614,7369587613,7369587612,7369587615],"geometry":[{"lat":51.4726379,"lon":7.3161116},{"lat":51.4726115,"lon":7.3159945},{"lat":51.4726309,"lon":7.3159832},{"lat":51.4726574,"lon":7.3161002},{"lat":51.4726379,"lon":7.3161116}],"tags":{"access":"yes","amenity":"bicycle_parking","bicycle_parking":"lockers","building":"yes","capacity":"12","name":"E-Bike Garage","operator":"Stadt Bochum","website":"https://e-bike-garage.de/"}},{"type":"way","id":794759837,"bounds":{"minlat":51.4806478,"minlon":7.2219201,"maxlat":51.480831,"maxlon":7.2220524},"nodes":[7433594170,7433594171,7433594172,7433594173,7433594170],"geometry":[{"lat":51.480831,"lon":7.2220215},{"lat":51.4806547,"lon":7.2219201},{"lat":51.4806478,"lon":7.221951},{"lat":51.4808241,"lon":7.2220524},{"lat":51.480831,"lon":7.2220215}],"tags":{"amenity":"bicycle_parking","fee":"no"}},{"type":"way","id":799104901,"bounds":{"minlat":51.4996424,"minlon":7.2597064,"maxlat":51.4997022,"maxlon":7.2598075},"nodes":[1348053913,7473485147,7473485148,7473485146,1080570087,1348053913],"geometry":[{"lat":51.4996592,"lon":7.2598075},{"lat":51.4996424,"lon":7.259731},{"lat":51.4996851,"lon":7.2597064},{"lat":51.4997022,"lon":7.2597826},{"lat":51.499675,"lon":7.259798},{"lat":51.4996592,"lon":7.2598075}],"tags":{"access":"customers","amenity":"bicycle_parking","capacity":"5","covered":"no","fee":"no","operator":"Staples","park_ride":"no","smoothness":"good","surface":"paving_stones"}},{"type":"way","id":828187032,"bounds":{"minlat":51.473375,"minlon":7.2251825,"maxlat":51.4733996,"maxlon":7.2252806},"nodes":[7731670126,7731670125,7731670124,7731670123,7731670126],"geometry":[{"lat":51.4733895,"lon":7.2251825},{"lat":51.4733996,"lon":7.2252765},{"lat":51.4733851,"lon":7.2252806},{"lat":51.473375,"lon":7.2251865},{"lat":51.4733895,"lon":7.2251825}],"tags":{"amenity":"bicycle_parking","bicycle_parking":"stands"}},{"type":"way","id":828187041,"bounds":{"minlat":51.4734832,"minlon":7.225152,"maxlat":51.4735178,"maxlon":7.2253424},"nodes":[7731670145,7731670142,7731670143,7731670144,7731670145],"geometry":[{"lat":51.4734978,"lon":7.225152},{"lat":51.4735178,"lon":7.2253383},{"lat":51.4735033,"lon":7.2253424},{"lat":51.4734832,"lon":7.225156},{"lat":51.4734978,"lon":7.225152}],"tags":{"amenity":"bicycle_parking","bicycle_parking":"stands"}},{"type":"way","id":834758664,"bounds":{"minlat":51.4809248,"minlon":7.2200247,"maxlat":51.4810213,"maxlon":7.2200988},"nodes":[7792189631,3533956598,3533956595,7792189632,7792189631],"geometry":[{"lat":51.4810156,"lon":7.2200247},{"lat":51.4810213,"lon":7.2200555},{"lat":51.4809305,"lon":7.2200988},{"lat":51.4809248,"lon":7.220068},{"lat":51.4810156,"lon":7.2200247}],"tags":{"amenity":"bicycle_parking","bicycle_parking":"stands","capacity":"10"}},{"type":"way","id":834758665,"bounds":{"minlat":51.4755429,"minlon":7.2355698,"maxlat":51.4755816,"maxlon":7.2356434},"nodes":[7792189634,7792189633,7792189630,7792189629,7792189634],"geometry":[{"lat":51.4755816,"lon":7.2355859},{"lat":51.4755661,"lon":7.2355698},{"lat":51.4755429,"lon":7.2356273},{"lat":51.4755585,"lon":7.2356434},{"lat":51.4755816,"lon":7.2355859}],"tags":{"amenity":"bicycle_parking","bicycle_parking":"stands","capacity":"3"}},{"type":"way","id":837525012,"bounds":{"minlat":51.4672277,"minlon":7.3166282,"maxlat":51.467303,"maxlon":7.3168029},"nodes":[7816794164,7816794157,7816794158,7816794145,7816794164],"geometry":[{"lat":51.467303,"lon":7.3167878},{"lat":51.4672893,"lon":7.3168029},{"lat":51.4672277,"lon":7.3166436},{"lat":51.4672425,"lon":7.3166282},{"lat":51.467303,"lon":7.3167878}],"tags":{"amenity":"bicycle_parking","bicycle_parking":"wall_loops","covered":"yes","lit":"yes"}},{"type":"way","id":856642144,"bounds":{"minlat":51.4988641,"minlon":7.1848679,"maxlat":51.4989626,"maxlon":7.1851394},"nodes":[7987079248,7987079256,7987079250,7987079263,7987079282,7987079276,7987079253,7987079277,7987079259,7987079261,7987079248],"geometry":[{"lat":51.498898,"lon":7.1848679},{"lat":51.4989395,"lon":7.1850128},{"lat":51.4989263,"lon":7.1850225},{"lat":51.4989334,"lon":7.1850472},{"lat":51.4989456,"lon":7.1850382},{"lat":51.4989626,"lon":7.1850978},{"lat":51.498938,"lon":7.185116},{"lat":51.4989055,"lon":7.1851394},{"lat":51.4988641,"lon":7.1849907},{"lat":51.4988653,"lon":7.1849114},{"lat":51.498898,"lon":7.1848679}],"tags":{"amenity":"bicycle_parking","covered":"no","surface":"paving_stones"}},{"type":"way","id":857302751,"bounds":{"minlat":51.490149,"minlon":7.2330759,"maxlat":51.4901723,"maxlon":7.2332026},"nodes":[6379372108,7992891767,7992891760,7992891771,6379372108],"geometry":[{"lat":51.490157,"lon":7.2330759},{"lat":51.490149,"lon":7.2330784},{"lat":51.4901642,"lon":7.2332026},{"lat":51.4901723,"lon":7.2332},{"lat":51.490157,"lon":7.2330759}],"tags":{"access":"yes","amenity":"bicycle_parking","bicycle_parking":"stands","capacity":"20","covered":"no","fee":"no","surface":"paving_stones"}},{"type":"way","id":860570143,"bounds":{"minlat":51.4706794,"minlon":7.1648247,"maxlat":51.4707166,"maxlon":7.1649036},"nodes":[8021000322,8021000323,8021000324,8021000325,8021000322],"geometry":[{"lat":51.4706938,"lon":7.1649036},{"lat":51.4707166,"lon":7.1648894},{"lat":51.4707024,"lon":7.1648247},{"lat":51.4706794,"lon":7.1648382},{"lat":51.4706938,"lon":7.1649036}],"tags":{"access":"private","amenity":"bicycle_parking","bicycle_parking":"shed","building":"hut","capacity":"6","covered":"yes"}},{"type":"way","id":860596658,"bounds":{"minlat":51.4749038,"minlon":7.1702903,"maxlat":51.4749524,"maxlon":7.1703495},"nodes":[8021267978,8021267979,8021267980,8021267981,8021267978],"geometry":[{"lat":51.4749524,"lon":7.1703259},{"lat":51.4749444,"lon":7.1702903},{"lat":51.4749038,"lon":7.170314},{"lat":51.4749119,"lon":7.1703495},{"lat":51.4749524,"lon":7.1703259}],"tags":{"access":"private","amenity":"bicycle_parking","bicycle_parking":"shed","building":"yes","capacity":"6","covered":"yes"}}]