[{"type":"node","id":31154293,"lat":51.4265006,"lon":7.1446508,"tags":{"addr:city":"Bochum","addr:country":"DE","addr:housenumber":"116-120","addr:postcode":"44879","addr:street":"Dr.-C.-Otto-Straße","addr:suburb":"Dahlhausen","brand":"Rewe","brand:wikidata":"Q16968817","brand:wikipedia":"en:REWE","contact:phone":"+49 234 9412095","contact:website":"https://www.rewe.de/marktseite/bochum/2161888/rewe-markt-dr-c-otto-str-116-120/","name":"Rewe","opening_hours":"Mo-Fr 07:00-19:00;Sa 07:00-18:00;Su,PH off","payment:cash":"yes","payment:girocard":"yes","shop":"supermarket","wheelchair":"yes"}},{"type":"node","id":264116511,"lat":51.4743587,"lon":7.2098944,"tags":{"addr:city":"Bochum","addr:country":"DE","addr:housenumber":"85","addr:postcode":"44793","addr:street":"Bessemerstraße","atm":"no","brand":"Aldi Nord","delivery":"no","internet_access":"no","name":"Aldi","opening_hours":"Mo-Sa 8:00-20:00","shop":"supermarket","wheelchair":"yes"}},{"type":"node","id":264379765,"lat":51.481444,"lon":7.2091709,"tags":{"addr:city":"Bochum","addr:country":"DE","addr:housenumber":"38-40","addr:postcode":"44793","addr:street":"Alleestraße","name":"Edeka Burkowski","opening_hours":"Mo-Sa 07:00-21:00","shop":"supermarket","wheelchair":"yes"}},{"type":"node","id":277276094,"lat":51.4717418,"lon":7.3235391,"tags":{"addr:city":"Bochum","addr:country":"DE","addr:housenumber":"212","addr:postcode":"44892","addr:street":"Hauptstraße","brand":"Real","brand:wikidata":"Q698473","brand:wikipedia":"en:Real (hypermarket)","level":"0","name":"Real","opening_hours":"Mo-Sa 08:00-22:00","shop":"supermarket","wheelchair":"yes"}},{"type":"node","id":277902976,"lat":51.4480004,"lon":7.1689436,"tags":{"addr:country":"DE","addr:housenumber":"149-153","addr:postcode":"44869","addr:street":"Ruhrstraße","brand":"Edeka","brand:wikidata":"Q701755","brand:wikipedia":"de:Edeka","contact:phone":"+49 2327 977059","contact:website":"https://www.edeka.de/eh/rhein-ruhr/edeka-kant-ruhrstra%C3%9Fe-149-153/index.jsp","name":"Edeka","opening_hours":"Mo-Fr 07:00-19:00; Sa 07:00-17:00","shop":"supermarket","wheelchair":"yes"}},{"type":"node","id":277955115,"lat":51.4650723,"lon":7.1496211,"tags":{"addr:city":"Bochum","addr:country":"DE","addr:housenumber":"202","addr:postcode":"44867","addr:street":"Westenfelder Straße","contact:email":"rewe-mokanski-5913@web.de","contact:website":"http://www.rewe-mokanski.de/cms/website.php?id=/de/index/maerkte/westenfelderstrasse.htm","name":"REWE Mokanski","opening_hours":"Mo-Sa 06:00-24:00; Su,PH off","shop":"supermarket","wheelchair":"yes"}},{"type":"node","id":295444429,"lat":51.4733289,"lon":7.3174496,"tags":{"addr:city":"Bochum","addr:country":"DE","addr:housenumber":"56","addr:postcode":"44892","addr:street":"Unterstraße","addr:suburb":"Langendreer","brand":"Aldi","brand:wikidata":"Q125054","brand:wikipedia":"en:Aldi","check_date":"2020-02-14","level":"0","name":"Aldi","opening_hours":"Mo-Sa 07:00-21:00","opening_hours:covid19":"open","payment:cash":"yes","payment:debit_cards":"yes","shop":"supermarket","wheelchair":"yes"}},{"type":"node","id":312796048,"lat":51.4505286,"lon":7.2310531,"tags":{"addr:city":"Bochum","addr:country":"DE","addr:housenumber":"59","addr:postcode":"44799","addr:street":"Brenscheder Straße","brand":"Edeka","brand:wikidata":"Q701755","brand:wikipedia":"de:Edeka","name":"EDEKA","opening_hours":"Mo-Sa 07:00-20:00","shop":"supermarket","wheelchair":"yes"}},{"type":"node","id":312796052,"lat":51.451706,"lon":7.2314106,"tags":{"addr:city":"Bochum","addr:country":"DE","addr:housenumber":"56a","addr:postcode":"44799","addr:street":"Brenscheder Straße","brand":"Rewe","brand:wikidata":"Q16968817","brand:wikipedia":"en:REWE","name":"Rewe","opening_hours":"Mo-Sa 07:00-22:00","phone":"+49 234 9730010","shop":"supermarket","wheelchair":"yes"}},{"type":"node","id":344593404,"lat":51.4282548,"lon":7.1700715,"tags":{"addr:city":"Bochum","addr:country":"DE","addr:housenumber":"2","addr:street":"Welperstraße","addr:suburb":"Linden","brand":"Lidl","brand:wikidata":"Q151954","brand:wikipedia":"en:Lidl","name":"Lidl","opening_hours":"Mo-Sa 07:00-21:00","payment:cash":"yes","payment:girocard":"yes","shop":"supermarket","website":"https://www.lidl.de/","wheelchair":"yes"}},{"type":"node","id":365237387,"lat":51.490947,"lon":7.2433303,"tags":{"addr:city":"Bochum","addr:country":"DE","addr:housenumber":"206","addr:postcode":"44791","addr:street":"Castroper Straße","brand":"Aldi Nord","brand:wikidata":"Q41171373","brand:wikipedia":"en:Aldi","name":"Aldi Nord","opening_hours":"Mo-Sa 07:00-21:00","operator":"Aldi","payment:cash":"yes","payment:girocard":"yes","phone":"+49 800 7234870","shop":"supermarket","website":"https://www.aldi-nord.de/","wheelchair":"yes"}},{"type":"node","id":378750116,"lat":51.4902824,"lon":7.2077996,"tags":{"addr:city":"Bochum","addr:country":"DE","addr:housenumber":"8","addr:postcode":"44791","addr:street":"Zechenstraße","name":"Edeka","opening_hours":"Mo-Fr 07:30-20:00; Sa 07:00-20:00","shop":"supermarket","wheelchair":"yes"}},{"type":"node","id":426583210,"lat":51.5061205,"lon":7.1942401,"tags":{"addr:city":"Bochum","addr:country":"DE","addr:housenumber":"13","addr:postcode":"44809","addr:street":"Riemker Straße","brand":"Aldi","brand:wikidata":"Q125054","brand:wikipedia":"en:Aldi","name":"Aldi","opening_hours":"Mo-Sa 08:00-20:00","shop":"supermarket","website":"https://www.aldi-nord.de/tools/filialen-und-oeffnungszeiten/nordrhein-westfalen/bochum/riemker-str-13.html"}},{"type":"node","id":459527928,"lat":51.4720259,"lon":7.2507558,"tags":{"addr:city":"Bochum","addr:country":"DE","addr:housenumber":"248","addr:postcode":"44803","addr:street":"Wittener Straße","fax":"+49 234 351547","name":"REWE Lenk","opening_hours":"Mo-Sa 07:00-20:00","operator":"Thomas Lenk Eh OHG","phone":"+49 234 358774","shop":"supermarket","website":"https://www.rewe-dortmund.de","wheelchair":"yes"}},{"type":"node","id":482849589,"lat":51.4729973,"lon":7.2220409,"tags":{"brand":"Rewe","brand:wikidata":"Q16968817","brand:wikipedia":"en:REWE","name":"Rewe","opening_hours":"Mo-Sa 07:00-20:00","shop":"supermarket","wheelchair":"yes"}},{"type":"node","id":484688725,"lat":51.492241,"lon":7.2126632,"tags":{"addr:city":"Bochum","addr:country":"DE","addr:housenumber":"109a","addr:postcode":"44809","addr:street":"Herner Straße","brand":"Penny","brand:wikidata":"Q284688","brand:wikipedia":"en:Penny (supermarket)","name":"Penny","opening_hours":"Mo-Sa 07:00-22:00","opening_hours:covid19":"open","payment:cards":"yes","payment:cash":"yes","payment:credit_cards":"yes","payment:maestro":"yes","shop":"supermarket","wheelchair":"yes"}},{"type":"node","id":496385975,"lat":51.4925565,"lon":7.2514619,"tags":{"addr:city":"Bochum","addr:country":"DE","addr:housenumber":"270","addr:postcode":"44791","addr:street":"Castroper Straße","name":"Penny Markt","opening_hours":"Mo-Sa 07:00-22:00","shop":"supermarket","toilets:wheelchair":"no","wheelchair":"yes"}},{"type":"node","id":598602801,"lat":51.4279257,"lon":7.2418931,"tags":{"addr:city":"Bochum","addr:country":"DE","addr:housenumber":"304","addr:postcode":"44797","addr:street":"Kemnader Straße","brand":"Rewe","brand:wikidata":"Q16968817","brand:wikipedia":"en:REWE","contact:phone":"+49 234 8902980","contact:website":"https://www.rewe.de/marktseite/bochum/2161068/rewe-markt-kemnader-strasse-304/","name":"Rewe","opening_hours":"Mo-Sa 07:00-21:00; Su,PH off","payment:cash":"yes","shop":"supermarket","wheelchair":"yes"}},{"type":"node","id":605351944,"lat":51.4637514,"lon":7.2374561,"tags":{"addr:city":"Bochum","addr:country":"DE","addr:housenumber":"105a","addr:postcode":"44803","addr:street":"Wasserstraße","brand":"Edeka","brand:wikidata":"Q701755","brand:wikipedia":"en:Edeka","name":"Edeka","opening_hours":"Mo-Sa 07:00-20:00","shop":"supermarket","wheelchair":"yes"}},{"type":"node","id":663387514,"lat":51.448581,"lon":7.2587606,"tags":{"addr:city":"Bochum","addr:country":"DE","addr:housenumber":"149","addr:postcode":"44801","addr:street":"Querenburger Höhe","brand":"Netto Marken-Discount","brand:wikidata":"Q879858","brand:wikipedia":"de:Netto Marken-Discount","contact:website":"https://www.netto-online.de","layer":"1","level":"1","name":"Netto Marken-Discount","opening_hours":"Mo-Sa 07:00-22:00","operator":"Netto Marken-Discount AG & Co. KG","shop":"supermarket","toilets:wheelchair":"no","wheelchair":"yes","wheelchair:description":"keine Stufen, aber Drehkreuz am Anfang. Man muss den Eingang für Einkaufswagen nutzen."}},{"type":"node","id":663730945,"lat":51.4551443,"lon":7.2563075,"tags":{"addr:city":"Bochum","addr:country":"DE","addr:housenumber":"20","addr:postcode":"44801","addr:street":"Semperstraße","name":"Kauver","shop":"supermarket","website":"http://kauver.de/index.php/44801-bochum"}},{"type":"node","id":663875463,"lat":51.4558429,"lon":7.2506037,"tags":{"addr:city":"Bochum","addr:country":"DE","addr:housenumber":"116","addr:postcode":"44803","addr:street":"Markstraße","name":"Sahin","opening_hours":"Mo-Fr 08:00-20:00; Sa 08:00-18:00","shop":"supermarket","wheelchair":"yes"}},{"type":"node","id":663976238,"lat":51.4485454,"lon":7.2581101,"tags":{"addr:city":"Bochum","addr:country":"DE","addr:housenumber":"139","addr:postcode":"44801","addr:street":"Querenburger Höhe","layer":"1","level":"1","name":"Reformhaus Bacher","opening_hours":"Mo-Fr 09:00-20:00, Sa 09:00-18:00","shop":"supermarket","wheelchair":"yes"}},{"type":"node","id":666787168,"lat":51.5075744,"lon":7.1930426,"tags":{"brand":"Real","brand:wikidata":"Q698473","brand:wikipedia":"en:Real (hypermarket)","name":"Real","opening_hours":"Mo-Sa 08:00-22:00","payment:bancomat":"no","payment:cash":"yes","payment:debit_cards":"yes","payment:girocard":"yes","shop":"supermarket","wheelchair":"yes"}},{"type":"node","id":666789548,"lat":51.5081349,"lon":7.1886236,"tags":{"addr:city":"Bochum","addr:housenumber":"425","addr:postcode":"44809","addr:street":"Dorstener Straße","name":"netto","opening_hours":"Mo-Fr 07:00-21:00; Sa 07:00-21:00","shop":"supermarket","wheelchair":"yes"}},{"type":"node","id":675070523,"lat":51.4808928,"lon":7.2113938,"tags":{"addr:city":"Bochum","addr:country":"DE","addr:housenumber":"27","addr:postcode":"44793","addr:street":"Alleestraße","name":"Cappadocia","opening_hours":"Mo-Fr 08:00-20:00,Sa 08:00-18:00","payment:cash":"yes","phone":"+49 234 9020847","shop":"supermarket","website":"https://www.facebook.com/CappadociaFrischeCenter/","wheelchair":"yes"}},{"type":"node","id":747803321,"lat":51.4402912,"lon":7.2116587,"tags":{"addr:city":"Bochum","addr:housenumber":"116","addr:postcode":"44795","addr:street":"Karl-Friedrich-Straße","brand":"Rewe","brand:wikidata":"Q16968817","brand:wikipedia":"en:REWE","name":"Rewe","opening_hours":"Mo-Sa 07:00-22:00","operator":"REWE Markt GmbH","shop":"supermarket","toilets:wheelchair":"no","wheelchair":"yes"}},{"type":"node","id":813079395,"lat":51.4939241,"lon":7.1907728,"tags":{"name":"Netto","shop":"supermarket","wheelchair":"yes"}},{"type":"node","id":822054652,"lat":51.4823233,"lon":7.1306649,"tags":{"addr:city":"Bochum","addr:country":"DE","addr:housenumber":"1","addr:postcode":"44866","addr:street":"Alter Markt","addr:suburb":"Wattenscheid","brand":"Kaufland","brand:wikidata":"Q685967","brand:wikipedia":"en:Kaufland","level":"-1","name":"Kaufland","shop":"supermarket","toilets:wheelchair":"yes","wheelchair":"yes","wheelchair:description":"Behinderten-WC bei den Kassen vom Kaufland"}},{"type":"node","id":928470843,"lat":51.440556,"lon":7.2114719,"tags":{"addr:city":"Bochum","addr:housenumber":"123","addr:postcode":"44795","addr:street":"Karl-Friedrich-Straße","fax":"+49 234 49708636","name":"Pro-Biomarkt","opening_hours":"Mo-Fr 08:00-19:00; Sa 08:00-16:00","organic":"only","phone":"+49 234 49708635","shop":"supermarket","website":"https://www.pro-biomarkt.de/"}},{"type":"node","id":942841751,"lat":51.4771486,"lon":7.2164767,"tags":{"addr:city":"Bochum","addr:country":"DE","addr:housenumber":"17","addr:postcode":"44787","addr:street":"Kortumstraße","brand":"Rewe","brand:wikidata":"Q16968817","brand:wikipedia":"en:REWE","name":"Rewe","opening_hours":"Mo-Fr 07:00-24:00; Sa 07:00-22:00","payment:cash":"yes","payment:girocard":"yes","shop":"supermarket","wheelchair":"yes"}},{"type":"node","id":1032814754,"lat":51.4747497,"lon":7.2384019,"tags":{"addr:city":"Bochum","addr:country":"DE","addr:housenumber":"133","addr:postcode":"44803","addr:street":"Wittener Straße","name":"REWE Lenk","opening_hours":"Mo-Fr 7:00-18:00, Sa 7:00 - 16:00","shop":"supermarket","website":"http://www.rewe-kettwig.de/REWE-Lenk/Filialen_in_Bochum.html","wheelchair":"yes"}},{"type":"node","id":1035673665,"lat":51.4758245,"lon":7.2350432,"tags":{"name":"Netto","opening_hours":"Mo-Sa 07:00-22:00","shop":"supermarket","wheelchair":"yes"}},{"type":"node","id":1080372143,"lat":51.4897621,"lon":7.2605341,"tags":{"addr:city":"Bochum","addr:country":"DE","addr:housenumber":"44","addr:postcode":"44791","addr:street":"Grüner Weg","brand":"Rewe","brand:wikidata":"Q16968817","brand:wikipedia":"en:REWE","contact:phone":"+49 234 592571","name":"Rewe","opening_hours":"Mo-Sa 07:00-21:00","shop":"supermarket","wheelchair":"yes"}},{"type":"node","id":1157598739,"lat":51.498897,"lon":7.2225987,"tags":{"addr:city":"Bochum","addr:country":"DE","addr:housenumber":"110","addr:postcode":"44807","addr:street":"Vierhausstraße","name":"Lidl","opening_hours":"Mo-Sa 07:00-21:00","operator":"Lidl","shop":"supermarket","website":"https://www.lidl.de/filialen/bochum/grumme-vierhausstr-110.html","wheelchair":"yes"}},{"type":"node","id":1179438660,"lat":51.4708775,"lon":7.2169954,"tags":{"addr:city":"Bochum","addr:country":"DE","addr:housenumber":"30","addr:postcode":"44789","addr:street":"Königsallee","name":"REWE City","opening_hours":"Mo-Fr 07:00-24:00; Sa 07:00-22:00","phone":"+49 234 930910","shop":"supermarket","wheelchair":"yes"}},{"type":"node","id":1433705207,"lat":51.4597362,"lon":7.142857,"tags":{"addr:city":"Bochum","addr:housenumber":"163-165","addr:postcode":"44867","addr:street":"Wattenscheider Hellweg","name":"Rewe-Mokanski","opening_hours":"Mo-Sa 07:00-21:00","phone":"+49 2327 547981","shop":"supermarket","website":"https://www.rewe-mokanski.de","wheelchair":"yes"}},{"type":"node","id":1520284483,"lat":51.4824028,"lon":7.2179662,"tags":{"addr:city":"Bochum","addr:country":"DE","addr:housenumber":"100","addr:postcode":"44787","addr:street":"Kortumstraße","brand":"Rewe","brand:wikidata":"Q16968817","brand:wikipedia":"en:REWE","level":"1","name":"Rewe","opening_hours":"Mo-Sa 08:00-20:00","organic":"yes","payment:cash":"yes","payment:girocard":"yes","phone":"+49 234 9650986","shop":"supermarket","website":"https://www.rewe.de/marktseite/bochum/1940239/rewe-markt-kortumstrasse-100/","wheelchair":"yes"}},{"type":"node","id":1565008299,"lat":51.4277324,"lon":7.1635994,"tags":{"addr:city":"Bochum","addr:country":"DE","addr:housenumber":"807","addr:postcode":"44879","addr:street":"Hattinger Straße","addr:suburb":"Linden","brand":"Rewe","brand:wikidata":"Q16968817","brand:wikipedia":"en:REWE","name":"Rewe","opening_hours":"Mo-Sa 07:00-22:00","payment:cash":"yes","payment:cryptocurrencies":"no","payment:girocard":"yes","phone":"+49 234 490500","shop":"supermarket","surveillance":"indoor","website":"https://www.rewe.de/marktseite/rewe-markt-bochum-hattinger-str.-807/","wheelchair":"yes"}},{"type":"node","id":1625654536,"lat":51.4971536,"lon":7.2579941,"tags":{"addr:city":"Bochum","addr:country":"DE","addr:housenumber":"20","addr:postcode":"44805","addr:street":"Castroper Hellweg","name":"REWE Ihr Kaufpark","opening_hours":"Mo-Fr 8:00-24:00; Sa 8:00-22:00","payment:cash":"yes","payment:girocard":"yes","phone":"+49 234 9505490","shop":"supermarket","toilets:wheelchair":"no","website":"https://www.rewe.de/marktseite/bochum/2161365/rewe-markt-castroper-hellweg-20/","wheelchair":"yes","wheelchair:description":"Drei Behinderten-Parkplätze und extra Einkaufswagen für Rollstuhlfahrer."}},{"type":"node","id":1672199065,"lat":51.4911288,"lon":7.2438408,"tags":{"addr:city":"Bochum","addr:country":"DE","addr:housenumber":"202-210","addr:postcode":"44791","addr:street":"Castroper Straße","brand":"Edeka","brand:wikidata":"Q701755","contact:phone":"+49 234 51684967","name":"Edeka","opening_hours":"Mo-Sa 07:00-21:00","operator":"Edeka Driller","payment:cash":"yes","payment:girocard":"yes","shop":"supermarket","website":"https://www.edeka-driller.de/","wheelchair":"yes"}},{"type":"node","id":1911959808,"lat":51.4268,"lon":7.1418772,"tags":{"addr:city":"Bochum","addr:country":"DE","addr:housenumber":"141","addr:postcode":"44879","addr:street":"Dr.-C.-Otto-Straße","addr:suburb":"Dahlhausen","brand":"Lidl","brand:wikidata":"Q151954","brand:wikipedia":"en:Lidl","name":"Lidl","opening_hours":"Mo-Sa  08:00-21:00","payment:cash":"yes","payment:girocard":"yes","shop":"supermarket","wheelchair":"yes"}},{"type":"node","id":1945939427,"lat":51.4917265,"lon":7.308121,"tags":{"addr:city":"Bochum","addr:housenumber":"502","addr:postcode":"44894","addr:street":"Werner Hellweg","check_date:opening_hours":"2018-08-05","name":"ALDI Nord","opening_hours":"Mo-Sa 08:00-20:00","shop":"supermarket","wheelchair":"yes"}},{"type":"node","id":1948850261,"lat":51.491775,"lon":7.3050259,"tags":{"addr:city":"Bochum","addr:housenumber":"25","addr:postcode":"44894","addr:street":"Nörenbergstraße","brand":"Rewe","brand:wikidata":"Q16968817","brand:wikipedia":"en:REWE","check_date:opening_hours":"2018-08-05","contact:phone":"+49 234 262877","name":"Rewe","opening_hours":"Mo-Sa 07:30-22:00","operator":"REWE MERT EH-oHG","shop":"supermarket","website":"https://www.rewe.de/","wheelchair":"limited"}},{"type":"node","id":2082552816,"lat":51.4290116,"lon":7.1656731,"tags":{"addr:city":"Bochum","addr:country":"DE","addr:housenumber":"777","addr:postcode":"44879","addr:street":"Hattinger Straße","addr:suburb":"Linden","brand":"Netto Marken-Discount","brand:wikidata":"Q879858","brand:wikipedia":"de:Netto Marken-Discount","dog":"no","name":"Netto Marken-Discount","opening_hours":"Mo-Sa 07:00-21:00","payment:american_express":"yes","payment:app":"yes","payment:apple_pay":"yes","payment:cash":"yes","payment:cryptocurrencies":"no","payment:diners_club":"yes","payment:discover_card":"yes","payment:girocard":"yes","payment:google_pay":"yes","payment:maestro":"yes","payment:mastercard":"yes","payment:visa":"yes","payment:vpay":"yes","shop":"supermarket","smoking":"no","surveillance":"indoor","website":"https://www.netto-online.de","wheelchair":"yes"}},{"type":"node","id":2212829126,"lat":51.4482004,"lon":7.2579239,"tags":{"addr:city":"Bochum","addr:country":"DE","addr:housenumber":"208a","addr:postcode":"44801","addr:street":"Querenburger Höhe","brand":"Rewe","brand:wikidata":"Q16968817","brand:wikipedia":"en:REWE","designation":"Supermarket","level":"1","name":"Rewe","opening_hours":"Mo-Fr 07:00-24:00; Sa 07:00-22:00","payment:contactless":"yes","payment:girocard":"yes","shop":"supermarket","toilets:wheelchair":"no","wheelchair":"yes"}},{"type":"node","id":2647726821,"lat":51.499097,"lon":7.203515,"tags":{"addr:city":"Bochum","addr:country":"DE","addr:housenumber":"4-8","addr:postcode":"44809","addr:state":"NW","addr:street":"Speicherstraße","name":"Niggemann Foodfrischemarkt GmbH","organic":"yes","shop":"supermarket","wheelchair":"yes"}},{"type":"node","id":2826523484,"lat":51.4780934,"lon":7.2166881,"tags":{"addr:city":"Bochum","addr:country":"DE","addr:housenumber":"35","addr:postcode":"44787","addr:street":"Kortumstraße","addr:suburb":"Mitte","contact:email":"info@veggihaus.de","contact:facebook":"https://www.facebook.com/Veggihaus","contact:fax":"+49 234 91283031","contact:phone":"+49 234 91283030","diet:vegan":"yes","diet:vegetarian":"only","name":"Veggihaus","opening_hours":"Mo-Fr 09:00-20:00; Sa 09:00-18:00","operator":"Veggihaus KG","organic":"yes","shop":"supermarket","start_date":"2014-04-08","website":"https://veggihaus.abo-kiste.com/","wheelchair":"yes"}},{"type":"node","id":3098996318,"lat":51.4550969,"lon":7.2687643,"tags":{"addr:city":"Bochum","addr:housenumber":"3a","addr:postcode":"44801","addr:street":"Auf dem Backenberg","name":"Hustadt Markt","phone":"+49 234 3255737","shop":"supermarket"}},{"type":"node","id":3322005499,"lat":51.4952788,"lon":7.2779972,"tags":{"addr:city":"Bochum","addr:housenumber":"24","addr:postcode":"44791","addr:street":"Am Einkaufszentrum","brand":"Lidl","brand:wikidata":"Q151954","brand:wikipedia":"en:Lidl","level":"0","name":"Lidl","opening_hours":"Mo-Sa 09:00-21:00; Fr 09:00-21:30","payment:cash":"yes","payment:contactless":"yes","payment:girocard":"yes","payment:maestro":"yes","payment:mastercard":"yes","payment:visa":"yes","phone":"+49 800 4353361","shop":"supermarket","toilets:wheelchair":"no","website":"https://www.lidl.de/","wheelchair":"yes"}},{"type":"node","id":4553615435,"lat":51.5002424,"lon":7.2800871,"tags":{"addr:city":"Bochum","addr:housenumber":"109","addr:postcode":"44805","addr:street":"Harpener Hellweg","brand":"Penny","brand:wikidata":"Q284688","brand:wikipedia":"en:Penny (supermarket)","name":"Penny","opening_hours":"Mo-Sa 07:00-21:30","shop":"supermarket"}},{"type":"node","id":5036973890,"lat":51.451857,"lon":7.2314288,"tags":{"addr:city":"Bochum","addr:country":"DE","addr:housenumber":"56","addr:postcode":"44799","addr:street":"Brenscheder Straße","brand":"Netto","brand:wikidata":"Q552652","brand:wikipedia":"da:Netto (supermarkedskæde)","name":"Netto","opening_hours":"Mo-Sa 07:00-21:00","shop":"supermarket","wheelchair":"yes"}},{"type":"node","id":5111172830,"lat":51.4770837,"lon":7.3022327,"tags":{"addr:city":"Bochum","addr:housenumber":"205","addr:postcode":"44892","addr:street":"Alte Bahnhofstraße","level":"0","name":"Umut Supermarkt","opening_hours":"Mo-Sa 06:30-22:30","shop":"supermarket","wheelchair":"yes"}},{"type":"node","id":5264552784,"lat":51.4794968,"lon":7.2066127,"tags":{"addr:city":"Bochum","addr:country":"DE","addr:housenumber":"65a","addr:postcode":"44793","addr:street":"Alleestraße","brand":"Penny","fair_trade":"yes","name":"Penny Markt Jahrhunderthalle","opening_hours":"Mo-Sa 07:00-22:00","operator":"Penny-Markt GmbH","payment:cash":"yes","payment:debit_cards":"yes","shop":"supermarket","toilets:wheelchair":"no","website":"https://www.penny.de/","wheelchair":"yes"}},{"type":"node","id":5312602107,"lat":51.4620459,"lon":7.2036033,"tags":{"addr:city":"Bochum","addr:country":"DE","addr:housenumber":"223a","addr:postcode":"44795","addr:street":"Hattinger Straße","brand":"Rewe","brand:wikidata":"Q16968817","brand:wikipedia":"en:REWE","contact:phone":"+49 234 3253730","contact:website":"http://rewe-mokanski.de/cms/website.php?id=/de/index/maerkte/hattingerstrasse.htm","name":"Rewe","opening_hours":"Mo-Sa 07:00-22:00; Su,PH off","operator":"Mokanski Einzelhandels OHG","shop":"supermarket","wheelchair":"yes"}},{"type":"node","id":5368593964,"lat":51.4843739,"lon":7.2169238,"tags":{"addr:city":"Bochum","addr:country":"DE","addr:housenumber":"40","addr:postcode":"44787","addr:street":"Brückstraße","name":"Kashmir-Bazar","payment:girocard":"yes","shop":"supermarket","surveillance":"indoor","toilets":"yes","wheelchair":"limited"}},{"type":"node","id":5481460920,"lat":51.4706594,"lon":7.2672978,"tags":{"level":"0","name":"Smak-Markt","opening_hours":"Mo-Sa 08:00-19:00","shop":"supermarket"}},{"type":"node","id":5747042063,"lat":51.491437,"lon":7.3067327,"tags":{"addr:city":"Bochum","addr:housenumber":"490","addr:postcode":"44894","addr:street":"Werner Hellweg","name":"Frühling Markt","opening_hours":"Mo-Sa 08:00-20:00","shop":"supermarket","wheelchair":"no"}},{"type":"node","id":5752224388,"lat":51.4544258,"lon":7.1480407,"tags":{"addr:city":"Bochum","addr:country":"DE","addr:housenumber":"35","addr:postcode":"44869","addr:street":"Ginsterweg","brand":"Penny","brand:wikidata":"Q284688","brand:wikipedia":"en:Penny (supermarket)","contact:website":"http://www.penny.de/","name":"Penny","opening_hours":"Mo-Sa 08:00-21:30","shop":"supermarket","wheelchair":"yes"}},{"type":"node","id":5920487469,"lat":51.4788996,"lon":7.1910177,"tags":{"name":"Lebensmittel Schamberger","shop":"supermarket"}},{"type":"node","id":5936445167,"lat":51.4471392,"lon":7.2211665,"tags":{"name":"Biokatalyst Natur- und Nährstoffe","shop":"supermarket","website":"https://biokatalyst.de"}},{"type":"node","id":6106171854,"lat":51.4841684,"lon":7.2154783,"tags":{"addr:city":"Bochum","addr:country":"DE","addr:housenumber":"19","addr:postcode":"44787","addr:street":"Hans-Böckler-Straße","name":"Supermarkt am Rathaus","opening_hours":"Mo-Sa 08:00-20:00","shop":"supermarket","wheelchair":"yes"}},{"type":"node","id":6231089485,"lat":51.4824626,"lon":7.2181207,"tags":{"contact:phone":"+49 234 67505","level":"0","name":"Reformhaus Bacher","opening_hours":"Mo-Sa 09:30-20:00","organic":"only","shop":"supermarket","website":"http://www.reformhaus-bacher.de/"}},{"type":"node","id":6258812707,"lat":51.4858209,"lon":7.2135992,"tags":{"addr:city":"Bochum","addr:country":"DE","addr:housenumber":"1-3","addr:postcode":"44787","addr:street":"Dorstener Straße","level":"0","name":"Sahin-Market","opening_hours":"Mo-Sa 07:00-19:00","payment:cash":"yes","phone":"+49 234 66241","shop":"supermarket"}},{"type":"node","id":6284488924,"lat":51.4802246,"lon":7.1398893,"tags":{"addr:city":"Bochum","addr:housenumber":"19","addr:postcode":"44866","addr:street":"Hochstraße","name":"Sayyan Markt","opening_hours":"Mo-Sa 09:00-20:00","payment:cash":"yes","shop":"supermarket"}},{"type":"node","id":6288843042,"lat":51.4718358,"lon":7.32192,"tags":{"addr:city":"Bochum","addr:housenumber":"25","addr:postcode":"44892","addr:street":"Alte Bahnhofstraße","disused:amenity":"pharmacy","name":"Gül Market","opening_hours":"Mo-Sa 07:00-20:00","payment:cash":"yes","shop":"supermarket"}},{"type":"node","id":6355036724,"lat":51.4756427,"lon":7.2358068,"tags":{"addr:city":"Bochum","addr:country":"DE","addr:housenumber":"111","addr:postcode":"44803","addr:street":"Wittener Straße","fair_trade":"yes","name":"Biokauf","opening_hours":"Mo-Fr 08:00-20:00; Sa 08:00-18:00","shop":"supermarket","website":"http://www.biokauf-besser-essen.de/","wheelchair":"yes"}},{"type":"node","id":6356078760,"lat":51.4759466,"lon":7.2144953,"tags":{"addr:city":"Bochum","addr:country":"DE","addr:housenumber":"5-6","addr:postcode":"44787","addr:street":"Konrad-Adenauer-Platz","brand":"Lidl","brand:wikidata":"Q151954","brand:wikipedia":"en:Lidl","name":"Lidl","opening_hours":"Mo-Sa 07:00-22:00","payment:cash":"yes","payment:girocard":"yes","shop":"supermarket","wheelchair":"yes"}},{"type":"node","id":6356133899,"lat":51.4727807,"lon":7.2442514,"tags":{"addr:city":"Bochum","addr:country":"DE","addr:housenumber":"14","addr:postcode":"44803","addr:street":"Lindengraben","name":"ALDI","opening_hours":"Mo-Fr 07:00-20:00; Sa 07:00-16:00; PH off","shop":"supermarket","wheelchair":"limited"}},{"type":"node","id":6588986019,"lat":51.4754661,"lon":7.3039887,"tags":{"addr:city":"Bochum","addr:country":"DE","addr:housenumber":"179","addr:postcode":"44892","addr:street":"Alte Bahnhofstraße","addr:suburb":"Langendreer","contact:email":"info@unser-lebensmittelpunkt.de","contact:instagram":"https://www.instagram.com/unser.lebensmittelpunkt/?hl=de","contact:website":"https://www.unser-lebensmittelpunkt.de/","level":"0","name":"Unser Lebensmittelpunkt","opening_hours":"Tu,Th,Sa 08:00-16:00; We,Fr 08:00-13:00; PH closed","payment:cash":"yes","shop":"supermarket","source":"survey"}},{"type":"node","id":6779615110,"lat":51.4269186,"lon":7.1429087,"tags":{"addr:city":"Bochum","addr:housenumber":"132","addr:postcode":"44879","addr:street":"Dr.-C.-Otto-Straße","name":"Anadolu Lebensmittel","shop":"supermarket","wheelchair":"no"}},{"type":"node","id":6929746498,"lat":51.4851641,"lon":7.1336831,"tags":{"addr:city":"Bochum","addr:housenumber":"58","addr:postcode":"44866","addr:street":"Marienstraße","name":"Eylül","shop":"supermarket"}},{"type":"node","id":7076853608,"lat":51.4694597,"lon":7.2441396,"tags":{"addr:city":"Bochum","addr:country":"DE","addr:housenumber":"28","addr:postcode":"44803","addr:street":"Wasserstraße","name":"Netto","opening_hours":"Mo-Sa 07:00-21:00","shop":"supermarket","wheelchair":"limited"}},{"type":"node","id":7455898835,"lat":51.4804434,"lon":7.1375659,"tags":{"name":"Nasza Biedronka","opening_hours":"Mo-Sa 08:00-22:00","shop":"supermarket"}},{"type":"way","id":44704199,"bounds":{"minlat":51.49468,"minlon":7.1802222,"maxlat":51.4951536,"maxlon":7.1809623},"nodes":[567226522,567226527,567226526,567226528,567226523,567226524,567226529,567226525,567226522],"geometry":[{"lat":51.4950146,"lon":7.1802832},{"lat":51.4950495,"lon":7.1802372},{"lat":51.4950964,"lon":7.1803291},{"lat":51.495058,"lon":7.1803798},{"lat":51.4951536,"lon":7.180567},{"lat":51.4948537,"lon":7.1809623},{"lat":51.49468,"lon":7.1806223},{"lat":51.4949835,"lon":7.1802222},{"lat":51.4950146,"lon":7.1802832}],"tags":{"addr:city":"Bochum","addr:country":"DE","addr:housenumber":"109","addr:postcode":"44793","addr:street":"Karolinenstraße","building":"yes","name":"arena Einkaufszentrum","shop":"supermarket","source":"Bing"}},{"type":"way","id":52089312,"bounds":{"minlat":51.4548957,"minlon":7.2480289,"maxlat":51.4553748,"maxlon":7.2486855},"nodes":[2984140893,663861832,2984140891,2984140890,2984140888,663861800,2984140876,2984140854,2984140855,2984140844,2984140881,2984140892,2984140895,2984140898,2984140901,2984140896,3342705693,2984140900,2984140903,2984140905,2984140906,2984140899,826313681,2984140893],"geometry":[{"lat":51.4551847,"lon":7.2481661},{"lat":51.4551786,"lon":7.2481733},{"lat":51.4551616,"lon":7.2482023},{"lat":51.4551519,"lon":7.248187},{"lat":51.4551345,"lon":7.2482154},{"lat":51.4551219,"lon":7.2481952},{"lat":51.4550618,"lon":7.2481003},{"lat":51.454977,"lon":7.24824},{"lat":51.4549772,"lon":7.2482407},{"lat":51.4548957,"lon":7.2483741},{"lat":51.455086,"lon":7.2486855},{"lat":51.4551619,"lon":7.2485651},{"lat":51.4552535,"lon":7.2484207},{"lat":51.4552667,"lon":7.2484422},{"lat":51.4552803,"lon":7.2483902},{"lat":51.455255,"lon":7.2483482},{"lat":51.4552699,"lon":7.2483257},{"lat":51.4552761,"lon":7.248315},{"lat":51.4553136,"lon":7.248256},{"lat":51.4553251,"lon":7.2482748},{"lat":51.4553748,"lon":7.2481966},{"lat":51.4552719,"lon":7.2480289},{"lat":51.4552452,"lon":7.2480718},{"lat":51.4551847,"lon":7.2481661}],"tags":{"addr:city":"Bochum","addr:country":"DE","addr:housenumber":"122","addr:postcode":"44803","addr:street":"Markstraße","building":"apartments","building:levels":"4","layer":"1","name":"frischmarkt","opening_hours":"Mo-Sa 07:00-22:00","roof:levels":"0","shop":"supermarket","wheelchair":"yes"}},{"type":"way","id":80229942,"bounds":{"minlat":51.4943731,"minlon":7.2852772,"maxlat":51.4951308,"maxlon":7.2869363},"nodes":[936337721,1705537662,936337682,936337693,996712282,996713181,7451862497,936337665,987593797,936337721],"geometry":[{"lat":51.4951308,"lon":7.2855767},{"lat":51.4950832,"lon":7.2855435},{"lat":51.494702,"lon":7.2852772},{"lat":51.4943731,"lon":7.2864921},{"lat":51.494529,"lon":7.286601},{"lat":51.4944898,"lon":7.2867457},{"lat":51.4945788,"lon":7.2868079},{"lat":51.4947627,"lon":7.2869363},{"lat":51.4948571,"lon":7.2865876},{"lat":51.4951308,"lon":7.2855767}],"tags":{"addr:city":"Bochum","addr:country":"DE","addr:housenumber":"2","addr:postcode":"44791","addr:street":"Am Einkaufszentrum","addr:suburb":"Harpen","brand":"Kaufland","brand:wikidata":"Q685967","brand:wikipedia":"en:Kaufland","building":"retail","building:levels":"2","building:use":"retail","building:use:retail":"yes","contact:phone":"+49 234 587900","name":"Kaufland","opening_hours":"Mo-Sa 07:00-22:00","payment:cash":"yes","payment:contactless":"yes","payment:girocard":"yes","payment:maestro":"yes","payment:mastercard":"yes","payment:visa":"yes","roof:shape":"flat","shop":"supermarket","source:outline":"ALKIS NRW","toilets:wheelchair":"yes","website":"https://www.kaufland.de/","wheelchair":"yes"}},{"type":"way","id":86124901,"bounds":{"minlat":51.4413976,"minlon":7.2130237,"maxlat":51.4417699,"maxlon":7.2135299},"nodes":[2656566547,2656566170,2656564688,2656564876,2656564972,2656565149,2656565126,2656565151,2656565336,2656565583,2656566021,4856171249,2656565934,2656566547],"geometry":[{"lat":51.4417699,"lon":7.2132868},{"lat":51.441687,"lon":7.2130237},{"lat":51.4413976,"lon":7.2132343},{"lat":51.441414,"lon":7.2132925},{"lat":51.4414283,"lon":7.2132821},{"lat":51.4414765,"lon":7.2134518},{"lat":51.4414622,"lon":7.2134622},{"lat":51.4414772,"lon":7.2135153},{"lat":51.4415237,"lon":7.2134808},{"lat":51.4415378,"lon":7.2135299},{"lat":51.441644,"lon":7.2134521},{"lat":51.4416359,"lon":7.2134241},{"lat":51.4416265,"lon":7.2133918},{"lat":51.4417699,"lon":7.2132868}],"tags":{"addr:city":"Bochum","addr:country":"DE","addr:housenumber":"410","addr:postcode":"44795","addr:street":"Markstraße","brand":"Netto","brand:wikidata":"Q552652","brand:wikipedia":"da:Netto (supermarkedskæde)","building":"parking","name":"netto","opening_hours":"Mo-Sa 07:00-22:00","payment:Netto-App":"yes","payment:ec":"yes","payment:girocard":"yes","payment:maestro":"yes","payment:mastercard":"yes","payment:v_pay":"yes","payment:visa":"yes","shop":"supermarket","wheelchair":"yes"}},{"type":"way","id":89674421,"bounds":{"minlat":51.4663293,"minlon":7.2035957,"maxlat":51.4666838,"maxlon":7.2043782},"nodes":[2664876728,2664876730,2664876726,2664876724,2664876721,2664876722,2664876720,2664876719,2664876687,2664876689,2664876685,2664876683,2664876658,2664876665,2664876663,2664876695,2664876699,2664876713,2664876704,2664876702,2664876679,2664876681,2664876675,2664876673,2664876667,2664876669,2664876661,2664876650,2664876588,2664876608,2664876579,2664876567,2664876558,2664876560,2664876384,2664876341,2664876348,2664876311,2664876302,2664876270,2664876279,2664876165,2664876154,2664876138,2664876147,2664875977,2664875975,2664875962,2664875965,2664875896,2664875895,2664875892,2664875894,2664875917,2664875898,2664875966,2664875968,2664875971,2664876084,2664876062,2664876071,2664875952,2664875950,2664875940,2664875944,2664875890,2664875889,2664875873,2664875885,2664875887,2664875922,2664875897,2664875927,2664875937,2664875954,2664875948,2664875956,2664875958,2664875989,2664875979,2664876011,2664876020,2664876112,2664876097,2664876114,2664876121,2664876234,2664876207,2664876242,2664876249,2664876287,2664876264,2664876294,2664876318,2664876333,2664876324,2664876355,2664876358,2664876573,2664876565,2664876599,2664876625,2664876616,2664876691,2664876693,2664876709,2664876706,2664876727,2664876729,2664876742,2664876735,2664876788,2664876800,2664876819,2664876811,2664876807,2664876774,2664876781,2664876766,2664876749,2664876728],"geometry":[{"lat":51.4666314,"lon":7.2041002},{"lat":51.4666323,"lon":7.2040991},{"lat":51.4666286,"lon":7.2040908},{"lat":51.4666276,"lon":7.2040919},{"lat":51.4666056,"lon":7.2040428},{"lat":51.4666066,"lon":7.2040418},{"lat":51.4666028,"lon":7.2040335},{"lat":51.4666018,"lon":7.2040345},{"lat":51.4665797,"lon":7.2039854},{"lat":51.4665808,"lon":7.2039844},{"lat":51.4665769,"lon":7.2039761},{"lat":51.4665759,"lon":7.203977},{"lat":51.466554,"lon":7.2039281},{"lat":51.4665548,"lon":7.203927},{"lat":51.4665542,"lon":7.2039254},{"lat":51.466587,"lon":7.2038879},{"lat":51.4665878,"lon":7.2038894},{"lat":51.466593,"lon":7.2038834},{"lat":51.4665892,"lon":7.2038749},{"lat":51.4665886,"lon":7.2038752},{"lat":51.4665735,"lon":7.2038181},{"lat":51.4665753,"lon":7.2038159},{"lat":51.4665715,"lon":7.2038076},{"lat":51.466571,"lon":7.203808},{"lat":51.4665561,"lon":7.2037519},{"lat":51.4665579,"lon":7.2037497},{"lat":51.4665542,"lon":7.2037411},{"lat":51.4665535,"lon":7.2037417},{"lat":51.4665381,"lon":7.2036841},{"lat":51.4665399,"lon":7.2036819},{"lat":51.4665361,"lon":7.2036734},{"lat":51.4665354,"lon":7.2036737},{"lat":51.4665175,"lon":7.2036053},{"lat":51.4665192,"lon":7.2036035},{"lat":51.466516,"lon":7.2035957},{"lat":51.4665107,"lon":7.2036016},{"lat":51.4665114,"lon":7.2036032},{"lat":51.4664895,"lon":7.203628},{"lat":51.4664888,"lon":7.2036265},{"lat":51.4664836,"lon":7.2036323},{"lat":51.4664842,"lon":7.2036339},{"lat":51.4664448,"lon":7.2036787},{"lat":51.4664441,"lon":7.2036773},{"lat":51.4664389,"lon":7.2036831},{"lat":51.4664396,"lon":7.2036846},{"lat":51.4663984,"lon":7.2037314},{"lat":51.4663976,"lon":7.2037301},{"lat":51.4663924,"lon":7.2037359},{"lat":51.4663941,"lon":7.2037397},{"lat":51.4663529,"lon":7.2037865},{"lat":51.4663512,"lon":7.2037827},{"lat":51.4663459,"lon":7.2037886},{"lat":51.4663499,"lon":7.203797},{"lat":51.466355,"lon":7.203791},{"lat":51.466354,"lon":7.2037887},{"lat":51.466395,"lon":7.2037416},{"lat":51.4663956,"lon":7.2037431},{"lat":51.4663965,"lon":7.2037423},{"lat":51.4664231,"lon":7.203801},{"lat":51.4664222,"lon":7.2038024},{"lat":51.4664228,"lon":7.2038038},{"lat":51.4663817,"lon":7.2038513},{"lat":51.466381,"lon":7.2038498},{"lat":51.4663758,"lon":7.2038558},{"lat":51.4663765,"lon":7.2038573},{"lat":51.4663353,"lon":7.2039049},{"lat":51.4663345,"lon":7.2039036},{"lat":51.4663293,"lon":7.2039095},{"lat":51.4663331,"lon":7.2039179},{"lat":51.4663342,"lon":7.2039169},{"lat":51.4663561,"lon":7.2039662},{"lat":51.4663537,"lon":7.2039689},{"lat":51.4663574,"lon":7.2039773},{"lat":51.4663599,"lon":7.2039746},{"lat":51.4663818,"lon":7.2040237},{"lat":51.4663794,"lon":7.2040265},{"lat":51.4663832,"lon":7.2040349},{"lat":51.4663856,"lon":7.2040321},{"lat":51.4664075,"lon":7.2040811},{"lat":51.466405,"lon":7.204084},{"lat":51.4664088,"lon":7.2040923},{"lat":51.4664112,"lon":7.2040896},{"lat":51.4664332,"lon":7.2041388},{"lat":51.4664308,"lon":7.2041415},{"lat":51.4664345,"lon":7.2041499},{"lat":51.466437,"lon":7.2041473},{"lat":51.4664588,"lon":7.2041961},{"lat":51.4664564,"lon":7.2041989},{"lat":51.4664602,"lon":7.2042074},{"lat":51.4664626,"lon":7.2042046},{"lat":51.4664845,"lon":7.2042535},{"lat":51.4664821,"lon":7.2042564},{"lat":51.4664873,"lon":7.2042683},{"lat":51.4664898,"lon":7.2042655},{"lat":51.4665101,"lon":7.204311},{"lat":51.4665077,"lon":7.2043139},{"lat":51.4665115,"lon":7.2043223},{"lat":51.466514,"lon":7.2043195},{"lat":51.4665359,"lon":7.2043687},{"lat":51.466535,"lon":7.2043696},{"lat":51.4665387,"lon":7.2043782},{"lat":51.4665439,"lon":7.2043722},{"lat":51.4665433,"lon":7.2043706},{"lat":51.4665847,"lon":7.2043237},{"lat":51.4665852,"lon":7.2043253},{"lat":51.4665905,"lon":7.2043193},{"lat":51.4665899,"lon":7.2043177},{"lat":51.466631,"lon":7.2042709},{"lat":51.4666317,"lon":7.2042725},{"lat":51.466637,"lon":7.2042665},{"lat":51.4666364,"lon":7.2042649},{"lat":51.4666778,"lon":7.2042179},{"lat":51.4666784,"lon":7.2042195},{"lat":51.4666838,"lon":7.2042134},{"lat":51.46668,"lon":7.204205},{"lat":51.466679,"lon":7.204206},{"lat":51.466657,"lon":7.2041572},{"lat":51.466658,"lon":7.204156},{"lat":51.4666543,"lon":7.2041478},{"lat":51.4666532,"lon":7.2041487},{"lat":51.4666314,"lon":7.2041002}],"tags":{"addr:city":"Bochum","addr:housenumber":"22","addr:postcode":"44795","addr:street":"An der Landwehr","brand":"Aldi","brand:wikidata":"Q125054","brand:wikipedia":"en:Aldi","building":"retail","name":"Aldi","opening_hours":"Mo-Sa 08:00-21:00","operator":"ALDI Nord","shop":"supermarket","wheelchair":"yes"}},{"type":"way","id":93179621,"bounds":{"minlat":51.4965458,"minlon":7.1901328,"maxlat":51.4968622,"maxlon":7.1909074},"nodes":[1080172604,1080172582,1080172594,1080172610,1080172602,1080172618,1080172604],"geometry":[{"lat":51.4966166,"lon":7.1908782},{"lat":51.4965458,"lon":7.1901965},{"lat":51.4967838,"lon":7.1901328},{"lat":51.4968622,"lon":7.190888},{"lat":51.4967896,"lon":7.1909074},{"lat":51.496782,"lon":7.1908339},{"lat":51.4966166,"lon":7.1908782}],"tags":{"addr:city":"Bochum","addr:country":"DE","addr:housenumber":"6","addr:postcode":"44809","addr:street":"Freudenbergstraße","brand":"Lidl","brand:wikidata":"Q151954","brand:wikipedia":"en:Lidl","building":"yes","name":"Lidl","shop":"supermarket","toilets:wheelchair":"no","wheelchair":"yes"}},{"type":"way","id":93950765,"bounds":{"minlat":51.4715776,"minlon":7.1184019,"maxlat":51.472732,"maxlon":7.1216011},"nodes":[1092210599,1092209973,1092209382,1092209152,1092210268,1092209462,1092210530,1092209780,1092209194,4014797793,1092210395,1092209700,1092209080,1092210057,2183227341,1092209884,1092209294,1092210341,1092209653,1092210599],"geometry":[{"lat":51.4715776,"lon":7.1186345},{"lat":51.4717022,"lon":7.1185669},{"lat":51.4716861,"lon":7.1184698},{"lat":51.4717556,"lon":7.1184341},{"lat":51.4718217,"lon":7.1184019},{"lat":51.471841,"lon":7.1185021},{"lat":51.4720389,"lon":7.1184085},{"lat":51.4720453,"lon":7.1184428},{"lat":51.4721229,"lon":7.1184077},{"lat":51.472141,"lon":7.1185021},{"lat":51.4721645,"lon":7.1186359},{"lat":51.4724568,"lon":7.1201945},{"lat":51.4725254,"lon":7.1201662},{"lat":51.472732,"lon":7.1212729},{"lat":51.4726617,"lon":7.1213059},{"lat":51.4720333,"lon":7.1216011},{"lat":51.4718324,"lon":7.1204909},{"lat":51.4718998,"lon":7.120461},{"lat":51.4716086,"lon":7.1188959},{"lat":51.4715776,"lon":7.1186345}],"tags":{"addr:city":"Bochum","addr:country":"DE","addr:housenumber":"40-43","addr:postcode":"44867","addr:street":"Ottostraße","addr:suburb":"Wattenscheid","brand":"Real","brand:wikidata":"Q698473","brand:wikipedia":"en:Real (hypermarket)","building":"supermarket","building:levels":"2","fax":"+49 2327 305205","name":"Real","opening_hours":"Mo-Sa 08:00-22:00; Su off","payment:cash":"yes","payment:debit_cards":"yes","payment:girocard":"yes","phone":"+49 2327 3050","shop":"supermarket","toilets":"yes","toilets:wheelchair":"yes","website":"https://www.real.de/markt/bochum-wattenscheid/","wheelchair":"yes"}},{"type":"way","id":94494692,"bounds":{"minlat":51.4999381,"minlon":7.2042482,"maxlat":51.5008957,"maxlon":7.2051792},"nodes":[1097647775,2851558961,4789970138,2851558962,1876800649,1097647886,2213288349,1881710600,1881710603,1097647832,3043482402,6221522023,1097647775],"geometry":[{"lat":51.4999535,"lon":7.2051792},{"lat":51.4999459,"lon":7.2047057},{"lat":51.4999414,"lon":7.2044562},{"lat":51.4999385,"lon":7.2043109},{"lat":51.4999381,"lon":7.2042904},{"lat":51.5004237,"lon":7.2042687},{"lat":51.5005449,"lon":7.2042645},{"lat":51.5006303,"lon":7.2042594},{"lat":51.5008803,"lon":7.2042482},{"lat":51.5008957,"lon":7.205135},{"lat":51.500555,"lon":7.20515},{"lat":51.500084,"lon":7.2051788},{"lat":51.4999535,"lon":7.2051792}],"tags":{"addr:city":"Bochum","addr:country":"DE","addr:housenumber":"2","addr:postcode":"44809","addr:street":"Speicherstraße","addr:suburb":"Hofstede","brand":"Kaufland","brand:wikidata":"Q685967","brand:wikipedia":"en:Kaufland","building":"retail","contact:phone":"+49 234 95718620","contact:website":"https://www.kaufland.de/","email":"service@kaufland.de","frequency":"50","generator:method":"photovoltaic","generator:output:electricity":"yes","generator:source":"solar","generator:type":"solar_photovoltaic_panel","name":"Kaufland","opening_hours":"Mo-Sa 07:00-22:00; Su,PH off","payment:cash":"yes","payment:girocard":"yes","phone":"+49 234 957 186 20","power":"generator","shop":"supermarket","toilets:wheelchair":"yes","voltage":"400","website":"https://www.kaufland.de/","wheelchair":"yes"}},{"type":"way","id":94496498,"bounds":{"minlat":51.5026915,"minlon":7.203442,"maxlat":51.50314,"maxlon":7.2039061},"nodes":[1097653892,1097653918,1097653874,1097653877,1097653946,1097653952,1097653943,1097653948,1097653892],"geometry":[{"lat":51.50314,"lon":7.2038692},{"lat":51.502706,"lon":7.2039061},{"lat":51.5026915,"lon":7.2034671},{"lat":51.5029874,"lon":7.203442},{"lat":51.5029896,"lon":7.2035091},{"lat":51.5030753,"lon":7.2035018},{"lat":51.5030836,"lon":7.2037558},{"lat":51.5031361,"lon":7.2037513},{"lat":51.50314,"lon":7.2038692}],"tags":{"addr:city":"Bochum","addr:country":"DE","addr:housenumber":"70-72","addr:postcode":"44809","addr:street":"Poststraße","building":"supermarket","name":"Lidl","shop":"supermarket","source":"bing","toilets:wheelchair":"no","wheelchair":"yes"}},{"type":"way","id":96413655,"bounds":{"minlat":51.483658,"minlon":7.2250015,"maxlat":51.4839464,"maxlon":7.2257107},"nodes":[1117297047,1859048471,1859048472,1117297218,1117297295,6031498620,1117297213,1117296936,1117297239,1117296984,1117297285,1117297089,1117297047],"geometry":[{"lat":51.4839403,"lon":7.2250529},{"lat":51.4839332,"lon":7.2251185},{"lat":51.4839407,"lon":7.2251189},{"lat":51.4839464,"lon":7.2253335},{"lat":51.483845,"lon":7.2253266},{"lat":51.4838298,"lon":7.2255704},{"lat":51.483821,"lon":7.2257107},{"lat":51.483658,"lon":7.2256833},{"lat":51.4836931,"lon":7.2250753},{"lat":51.4837161,"lon":7.2250821},{"lat":51.4837185,"lon":7.2250015},{"lat":51.4837531,"lon":7.2250076},{"lat":51.4839403,"lon":7.2250529}],"tags":{"addr:city":"Bochum","addr:country":"DE","addr:housenumber":"7","addr:postcode":"44791","addr:street":"Blumenstraße","brand":"Aldi","brand:wikidata":"Q125054","brand:wikipedia":"en:Aldi","building":"retail","name":"Aldi","shop":"supermarket","wheelchair":"yes"}},{"type":"way","id":97722467,"bounds":{"minlat":51.4695012,"minlon":7.2925088,"maxlat":51.4705468,"maxlon":7.2941972},"nodes":[1131305517,1335827500,1335827566,1335827611,1335827645,1131305479,6267518855,1131305328,6401749603,1131305536,1131305447,1131305522,1131305421,1131305517],"geometry":[{"lat":51.4701873,"lon":7.2925088},{"lat":51.4702804,"lon":7.2927299},{"lat":51.4703797,"lon":7.2926222},{"lat":51.4704272,"lon":7.2927351},{"lat":51.47033,"lon":7.2928405},{"lat":51.4705468,"lon":7.2933557},{"lat":51.4697939,"lon":7.2941725},{"lat":51.4697711,"lon":7.2941972},{"lat":51.4695012,"lon":7.293556},{"lat":51.4696593,"lon":7.2933845},{"lat":51.4696265,"lon":7.2933064},{"lat":51.4696762,"lon":7.2932525},{"lat":51.4696215,"lon":7.2931227},{"lat":51.4701873,"lon":7.2925088}],"tags":{"addr:city":"Bochum","addr:country":"DE","addr:housenumber":"90","addr:postcode":"44892","addr:street":"Ümminger Straße","brand":"Kaufland","brand:wikidata":"Q685967","brand:wikipedia":"de:Kaufland","building":"retail","building:levels":"1","name":"Kaufland","opening_hours":"Mo-Sa 07:00-22:00","opening_hours:covid19":"same","phone":"+49 234 96290480","roof:colour":"grey","roof:shape":"flat","shop":"supermarket","website":"https://www.kaufland.de/","wheelchair":"yes"}},{"type":"way","id":111135303,"bounds":{"minlat":51.4700489,"minlon":7.3168726,"maxlat":51.4704698,"maxlon":7.3173994},"nodes":[1266930665,1266930657,1266930661,1266930668,1266930667,1266930659,1266930654,1266930663,1457591002,1266930665],"geometry":[{"lat":51.4703977,"lon":7.3168726},{"lat":51.4700489,"lon":7.3170733},{"lat":51.4701217,"lon":7.3173994},{"lat":51.4703297,"lon":7.3172797},{"lat":51.4703354,"lon":7.317305},{"lat":51.4704331,"lon":7.3172487},{"lat":51.4704267,"lon":7.3172203},{"lat":51.4704698,"lon":7.3171955},{"lat":51.4704211,"lon":7.3169776},{"lat":51.4703977,"lon":7.3168726}],"tags":{"addr:city":"Bochum","addr:country":"DE","addr:housenumber":"67","addr:postcode":"44892","addr:street":"Alte Bahnhofstraße","addr:suburb":"Langendreer","building":"retail","building:levels":"1","name":"Netto","opening_hours":"Mo-Sa 07:00-21:00","payment:cash":"yes","shop":"supermarket","website":"https://www.netto-online.de/","wheelchair":"yes"}},{"type":"way","id":119641389,"bounds":{"minlat":51.4393972,"minlon":7.1580351,"maxlat":51.4397942,"maxlon":7.1584329},"nodes":[2732402419,2732401981,2732401439,2732401392,2732401131,2732401173,2732401135,2732401251,2732401378,2732402027,6970397450,2732402306,4095741236,2732402419],"geometry":[{"lat":51.4397942,"lon":7.1580921},{"lat":51.4396358,"lon":7.1580371},{"lat":51.4394615,"lon":7.1580909},{"lat":51.4394546,"lon":7.1580351},{"lat":51.4393972,"lon":7.1580528},{"lat":51.4394042,"lon":7.1581087},{"lat":51.4393974,"lon":7.1581108},{"lat":51.4394276,"lon":7.1583628},{"lat":51.4394499,"lon":7.1584329},{"lat":51.4396551,"lon":7.1583687},{"lat":51.439721,"lon":7.1583909},{"lat":51.4397526,"lon":7.1584016},{"lat":51.4397579,"lon":7.1583621},{"lat":51.4397942,"lon":7.1580921}],"tags":{"addr:city":"Bochum","addr:housenumber":"186","addr:postcode":"44879","addr:street":"Hasenwinkeler Straße","brand":"Netto Marken-Discount","brand:wikidata":"Q879858","brand:wikipedia":"de:Netto Marken-Discount","building":"retail","building:levels":"2","name":"Netto Marken-Discount","opening_hours":"Mo-Sa 07:00-22:00","roof:levels":"0","shop":"supermarket","wheelchair":"limited"}},{"type":"way","id":122156866,"bounds":{"minlat":51.5121484,"minlon":7.2564851,"maxlat":51.5125315,"maxlon":7.2574773},"nodes":[2717477397,2717477379,2717477391,2717477324,2717477313,2717477310,2717477320,2717477287,2717477274,2717477273,2717477284,2717477268,2717477230,2717477245,2717477185,1365778092,1365778100,2717477204,2717477200,2717477190,2717477188,2717477234,2717477236,2717477253,2717477397],"geometry":[{"lat":51.5125315,"lon":7.2572972},{"lat":51.5125215,"lon":7.2572208},{"lat":51.512529,"lon":7.2572183},{"lat":51.5124927,"lon":7.2569292},{"lat":51.5124848,"lon":7.2569318},{"lat":51.5124826,"lon":7.256914},{"lat":51.5124905,"lon":7.2569113},{"lat":51.5124649,"lon":7.2567071},{"lat":51.5124575,"lon":7.2567095},{"lat":51.5124552,"lon":7.2566916},{"lat":51.5124626,"lon":7.2566892},{"lat":51.5124371,"lon":7.2564851},{"lat":51.5123732,"lon":7.2565055},{"lat":51.5123834,"lon":7.2565847},{"lat":51.5121484,"lon":7.2566597},{"lat":51.5121512,"lon":7.2566823},{"lat":51.5122104,"lon":7.2571529},{"lat":51.5122216,"lon":7.2572424},{"lat":51.5121907,"lon":7.2572364},{"lat":51.5121808,"lon":7.2573256},{"lat":51.5121709,"lon":7.257415},{"lat":51.5123783,"lon":7.2574734},{"lat":51.5123789,"lon":7.2574734},{"lat":51.5123938,"lon":7.2574773},{"lat":51.5125315,"lon":7.2572972}],"tags":{"addr:city":"Bochum","addr:country":"DE","addr:housenumber":"450","addr:postcode":"44805","addr:street":"Hiltroper Straße","brand":"Rewe","brand:wikidata":"Q16968817","brand:wikipedia":"en:REWE","building":"supermarket","name":"Rewe","opening_hours":"Mo-Sa 07:00-20:00","operator":"Lenk OHG","shop":"supermarket","wheelchair":"yes"}},{"type":"way","id":132715152,"bounds":{"minlat":51.4720051,"minlon":7.3118473,"maxlat":51.4724396,"maxlon":7.3128379},"nodes":[1459991404,1459991396,1459991403,1138212850,1138212819,7244507409,7244507408,7244511824,7244511825,1459991404],"geometry":[{"lat":51.4720051,"lon":7.311959},{"lat":51.472127,"lon":7.3118473},{"lat":51.4723123,"lon":7.3123683},{"lat":51.4724396,"lon":7.3127262},{"lat":51.4723178,"lon":7.3128379},{"lat":51.4721351,"lon":7.3123244},{"lat":51.4721159,"lon":7.312342},{"lat":51.4720603,"lon":7.3121858},{"lat":51.4720795,"lon":7.3121682},{"lat":51.4720051,"lon":7.311959}],"tags":{"addr:city":"Bochum","addr:country":"DE","addr:housenumber":"123a","addr:postcode":"44892","addr:street":"Alte Bahnhofstraße","brand":"Rewe","brand:wikidata":"Q51893511","building":"retail","building:levels":"1","check_date":"2018-08-13","name":"Rewe Ihr Kaufpark","old_name":"Kaufpark;Deschauer","opening_hours":"Mo-Sa 07:00-22:00","opening_hours:covid19":"same","roof:colour":"light_gray","roof:material":"metal","roof:orientation":"along","roof:shape":"gabled","shop":"supermarket","website":"http://www.ihr-kaufpark.de","wheelchair":"yes"}},{"type":"way","id":137821352,"bounds":{"minlat":51.5154492,"minlon":7.2569877,"maxlat":51.5158166,"maxlon":7.2576007},"nodes":[2717180754,2717180755,2717180756,2717180752,2717180753,2717180741,2717180740,2717180739,2717180738,2717180749,2717180751,2717180754],"geometry":[{"lat":51.5157197,"lon":7.2572147},{"lat":51.5158152,"lon":7.2572124},{"lat":51.5158166,"lon":7.257047},{"lat":51.5157188,"lon":7.2570488},{"lat":51.5157191,"lon":7.2569877},{"lat":51.5154588,"lon":7.2569938},{"lat":51.5154564,"lon":7.2572946},{"lat":51.5154511,"lon":7.2572941},{"lat":51.5154492,"lon":7.2575413},{"lat":51.5155859,"lon":7.2576007},{"lat":51.5157184,"lon":7.2575436},{"lat":51.5157197,"lon":7.2572147}],"tags":{"addr:city":"Bochum","addr:country":"DE","addr:housenumber":"7","addr:postcode":"44805","addr:street":"Wiescherstraße","building":"house","name":"Penny","opening_hours":"Mo-Sa 07:00-21:30","shop":"supermarket"}},{"type":"way","id":141278169,"bounds":{"minlat":51.4291466,"minlon":7.1373963,"maxlat":51.4294876,"maxlon":7.1380349},"nodes":[2736365411,6057414054,6057414053,6057414049,5240957991,2736365257,6057414046,2736365411],"geometry":[{"lat":51.4294876,"lon":7.1375714},{"lat":51.429342,"lon":7.1378898},{"lat":51.4293787,"lon":7.1379329},{"lat":51.429332,"lon":7.1380349},{"lat":51.4291466,"lon":7.1378167},{"lat":51.4293389,"lon":7.1373963},{"lat":51.4294193,"lon":7.1374909},{"lat":51.4294876,"lon":7.1375714}],"tags":{"addr:city":"Bochum","addr:country":"DE","addr:housenumber":"182","addr:postcode":"44879","addr:street":"Dr.-C.-Otto-Straße","addr:suburb":"Dahlhausen","brand":"Aldi Nord","brand:wikidata":"Q41171373","brand:wikipedia":"de:Aldi","building":"retail","building:levels":"1","frequency":"50","generator:method":"photovoltaic","generator:output:electricity":"60 kW","generator:source":"solar","generator:type":"solar_photovoltaic_panel","name":"Aldi Nord","opening_hours":"Mo-Sa 08:00-21:00","operator":"ALDI","payment:cash":"yes","payment:cryptocurrencies":"no","payment:electronic_purses":"no","payment:girocard":"yes","payment:mastercard":"no","power":"generator","shop":"supermarket","start_date":"2017","voltage":"400","website":"https://www.aldi-nord.de/","wheelchair":"yes"}},{"type":"way","id":146644663,"bounds":{"minlat":51.457275,"minlon":7.1740171,"maxlat":51.4578043,"maxlon":7.1748649},"nodes":[1599116676,1599116672,1599116661,1599116670,1599116674,6258731540,6258731541,1599116684,1599116678,1599116683,6402480257,1599116666,5809533372,5809533373,1599116667,1599116659,1599116676],"geometry":[{"lat":51.4578043,"lon":7.1745702},{"lat":51.4576215,"lon":7.1740171},{"lat":51.4575128,"lon":7.1741096},{"lat":51.457546,"lon":7.17421},{"lat":51.4574593,"lon":7.1742837},{"lat":51.4574061,"lon":7.1741228},{"lat":51.4573971,"lon":7.1740954},{"lat":51.4573899,"lon":7.1740738},{"lat":51.457275,"lon":7.1741716},{"lat":51.4574497,"lon":7.1747003},{"lat":51.4574581,"lon":7.1747277},{"lat":51.4574982,"lon":7.1748649},{"lat":51.4576055,"lon":7.1747819},{"lat":51.4575742,"lon":7.1746765},{"lat":51.4576709,"lon":7.1745942},{"lat":51.457694,"lon":7.1746641},{"lat":51.4578043,"lon":7.1745702}],"tags":{"addr:city":"Bochum","addr:country":"DE","addr:housenumber":"9","addr:postcode":"44869","addr:street":"Am Thie","building":"yes","fixme":"Bitte die genaue Geometrie mit einem neuen Luftbild festlegen.","name":"REWE Lenk","opening_hours":"Mo-Sa 07:00-20:00","roof:shape":"gabled","shop":"supermarket","wheelchair":"yes"}},{"type":"way","id":147484929,"bounds":{"minlat":51.463761,"minlon":7.1523037,"maxlat":51.4640404,"maxlon":7.1528423},"nodes":[2745730361,2745730401,2745730352,2745730395,3917159486,2745730389,2745730359,2745730348,2745730336,2745730339,2745730329,2745730331,2745730328,2745730334,2745730332,2745730337,2745730340,2745730342,2745730345,3917159484,2745730355,2745730406,2745730361],"geometry":[{"lat":51.4639881,"lon":7.152624},{"lat":51.4640245,"lon":7.1525826},{"lat":51.4639531,"lon":7.1524217},{"lat":51.4640208,"lon":7.1523398},{"lat":51.4640167,"lon":7.152331},{"lat":51.4640124,"lon":7.1523215},{"lat":51.4639753,"lon":7.1523649},{"lat":51.4639475,"lon":7.1523037},{"lat":51.4638568,"lon":7.1524093},{"lat":51.4638635,"lon":7.1524239},{"lat":51.4638088,"lon":7.1524875},{"lat":51.4638156,"lon":7.1525021},{"lat":51.463761,"lon":7.1525654},{"lat":51.4638566,"lon":7.1527502},{"lat":51.4638392,"lon":7.1527822},{"lat":51.4638656,"lon":7.1528279},{"lat":51.4638813,"lon":7.1528043},{"lat":51.4638974,"lon":7.1528395},{"lat":51.4639347,"lon":7.1527959},{"lat":51.4639412,"lon":7.1528102},{"lat":51.4639559,"lon":7.1528423},{"lat":51.4640404,"lon":7.1527433},{"lat":51.4639881,"lon":7.152624}],"tags":{"addr:city":"Bochum","addr:country":"DE","addr:housenumber":"83","addr:postcode":"44869","addr:street":"Wattenscheider Hellweg","addr:suburb":"Höntrop","building":"retail","building:levels":"1","dog":"no","name":"denn's Bio-Supermarkt","opening_hours":"Mo-Sa 08:00-20:00","operator":"denn's Biomarkt GmbH","payment:american_express":"yes","payment:cash":"yes","payment:girocard":"yes","payment:mastercard":"yes","payment:visa":"yes","roof:shape":"flat","shop":"supermarket","surveillance":"indoor","surveillance:type":"camera","surveillance:zone":"shop","toilets:wheelchair":"no","website":"https://www.denns-biomarkt.de/39845_Bochum.html","wheelchair":"yes"}},{"type":"way","id":151158827,"bounds":{"minlat":51.4615811,"minlon":7.202742,"maxlat":51.4620657,"maxlon":7.2034222},"nodes":[2659582419,2659582398,2659582397,2659582387,2659582385,2659582372,2659582357,2659582358,2659582289,2659582282,2659582274,2659582280,2659582276,2659582271,2659582284,2659582288,2659582290,2659582331,2659582329,2659582335,2659582334,2659582391,2659582395,2659582404,2659582401,2659582410,2659582419],"geometry":[{"lat":51.4620657,"lon":7.203044},{"lat":51.4619675,"lon":7.2029165},{"lat":51.4619658,"lon":7.2028913},{"lat":51.4619051,"lon":7.2028126},{"lat":51.4618884,"lon":7.2028142},{"lat":51.4618328,"lon":7.202742},{"lat":51.461785,"lon":7.2028365},{"lat":51.4617884,"lon":7.2028411},{"lat":51.4616527,"lon":7.2031095},{"lat":51.4616232,"lon":7.2030713},{"lat":51.4615907,"lon":7.2031355},{"lat":51.4616131,"lon":7.2031647},{"lat":51.4616027,"lon":7.2031849},{"lat":51.4615811,"lon":7.2032003},{"lat":51.4616282,"lon":7.2033924},{"lat":51.4616449,"lon":7.2033822},{"lat":51.4616547,"lon":7.2034222},{"lat":51.46173,"lon":7.2033754},{"lat":51.4617204,"lon":7.2033355},{"lat":51.4617485,"lon":7.2033178},{"lat":51.461746,"lon":7.2033078},{"lat":51.4619361,"lon":7.2031931},{"lat":51.4619458,"lon":7.2032329},{"lat":51.4619943,"lon":7.2032024},{"lat":51.4619847,"lon":7.2031628},{"lat":51.4620173,"lon":7.2031397},{"lat":51.4620657,"lon":7.203044}],"tags":{"addr:city":"Bochum","addr:country":"DE","addr:housenumber":"1-3","addr:postcode":"44795","addr:street":"Stensstraße","building":"retail","building:levels":"1","name":"Netto","opening_hours":"Mo-Sa 07:00-21:00","roof:levels":"0","roof:shape":"flat","shop":"supermarket","wheelchair":"yes"}},{"type":"way","id":156127092,"bounds":{"minlat":51.5181253,"minlon":7.2809173,"maxlat":51.518566,"maxlon":7.2812917},"nodes":[2712431790,2712431800,2712431802,2712431801,2712431797,2712431796,2712431789,2712431788,2712431783,2712431782,2712431756,2712431755,2712431753,2712431752,2712431737,2712431736,2712431734,2712431733,2712431714,2712431713,2712431711,2712431710,2712431697,2712431696,2712431689,2712431688,2712431664,2712431663,2712431659,2712431655,2712431637,2712431635,2712431633,2712431632,2712431615,2712431614,2712431613,2712431612,2712431600,2712431599,2712431595,2712431596,2712431570,2712431568,2712431561,2712431563,2712431564,2712431560,2712431591,2712431590,2712431587,2712431588,2712431589,2712431586,2712431583,2712431585,2712431592,2712431593,2712431608,2712431609,2712431610,2712431611,2712431627,2712431628,2712431630,2712431631,2712431647,2712431646,2712431651,2712431649,2712431680,2712431681,2712431685,2712431686,2712431705,2712431706,2712431708,2712431709,2712431728,2712431729,2712431731,2712431732,2712431748,2712431749,2712431750,2712431751,2712431790],"geometry":[{"lat":51.5185602,"lon":7.2812917},{"lat":51.5185652,"lon":7.2809406},{"lat":51.5185659,"lon":7.2809402},{"lat":51.518566,"lon":7.2809325},{"lat":51.5185609,"lon":7.2809323},{"lat":51.5185609,"lon":7.2809335},{"lat":51.5185401,"lon":7.2809329},{"lat":51.5185398,"lon":7.2809319},{"lat":51.5185371,"lon":7.2809318},{"lat":51.518537,"lon":7.2809332},{"lat":51.5184951,"lon":7.2809313},{"lat":51.5184949,"lon":7.2809303},{"lat":51.518492,"lon":7.2809302},{"lat":51.5184919,"lon":7.2809317},{"lat":51.5184497,"lon":7.28093},{"lat":51.5184497,"lon":7.2809286},{"lat":51.5184469,"lon":7.2809285},{"lat":51.5184467,"lon":7.2809297},{"lat":51.5184046,"lon":7.2809285},{"lat":51.5184046,"lon":7.2809271},{"lat":51.5184016,"lon":7.280927},{"lat":51.5184014,"lon":7.2809281},{"lat":51.5183595,"lon":7.2809269},{"lat":51.5183595,"lon":7.2809255},{"lat":51.5183567,"lon":7.2809254},{"lat":51.5183564,"lon":7.2809265},{"lat":51.5183146,"lon":7.2809253},{"lat":51.5183146,"lon":7.2809239},{"lat":51.5183118,"lon":7.2809238},{"lat":51.5183115,"lon":7.2809249},{"lat":51.5182699,"lon":7.2809234},{"lat":51.5182697,"lon":7.2809223},{"lat":51.5182665,"lon":7.2809222},{"lat":51.5182665,"lon":7.2809234},{"lat":51.5182245,"lon":7.2809221},{"lat":51.5182245,"lon":7.2809208},{"lat":51.5182217,"lon":7.2809207},{"lat":51.5182213,"lon":7.2809218},{"lat":51.5181797,"lon":7.2809203},{"lat":51.5181795,"lon":7.2809194},{"lat":51.5181767,"lon":7.2809193},{"lat":51.5181767,"lon":7.2809205},{"lat":51.5181307,"lon":7.2809185},{"lat":51.5181305,"lon":7.2809175},{"lat":51.5181261,"lon":7.2809173},{"lat":51.5181259,"lon":7.280925},{"lat":51.5181266,"lon":7.2809253},{"lat":51.5181253,"lon":7.2810115},{"lat":51.5181738,"lon":7.2810133},{"lat":51.5181718,"lon":7.281151},{"lat":51.518171,"lon":7.2811514},{"lat":51.518171,"lon":7.2811561},{"lat":51.5181717,"lon":7.2811566},{"lat":51.5181703,"lon":7.2812709},{"lat":51.5181693,"lon":7.2812709},{"lat":51.5181692,"lon":7.2812793},{"lat":51.5181744,"lon":7.2812795},{"lat":51.5181744,"lon":7.2812779},{"lat":51.5182169,"lon":7.2812792},{"lat":51.5182169,"lon":7.2812806},{"lat":51.5182197,"lon":7.2812807},{"lat":51.5182199,"lon":7.2812796},{"lat":51.5182615,"lon":7.2812811},{"lat":51.5182618,"lon":7.2812822},{"lat":51.5182646,"lon":7.2812822},{"lat":51.5182648,"lon":7.2812812},{"lat":51.5183065,"lon":7.2812827},{"lat":51.5183065,"lon":7.2812837},{"lat":51.5183098,"lon":7.2812838},{"lat":51.5183098,"lon":7.281283},{"lat":51.5183511,"lon":7.2812846},{"lat":51.5183511,"lon":7.2812855},{"lat":51.5183545,"lon":7.2812857},{"lat":51.5183545,"lon":7.2812842},{"lat":51.5183963,"lon":7.2812859},{"lat":51.5183965,"lon":7.2812869},{"lat":51.5183992,"lon":7.281287},{"lat":51.5183993,"lon":7.2812853},{"lat":51.5184417,"lon":7.2812872},{"lat":51.5184417,"lon":7.2812886},{"lat":51.5184445,"lon":7.2812887},{"lat":51.5184447,"lon":7.2812876},{"lat":51.5184866,"lon":7.2812887},{"lat":51.5184866,"lon":7.2812901},{"lat":51.5184894,"lon":7.2812902},{"lat":51.5184897,"lon":7.2812891},{"lat":51.5185602,"lon":7.2812917}],"tags":{"addr:city":"Bochum","addr:country":"DE","addr:housenumber":"9","addr:postcode":"44805","addr:street":"Amtmann-Ibing-Straße","brand":"Aldi Nord","brand:wikidata":"Q41171373","brand:wikipedia":"en:Aldi","building":"retail","building:levels":"1","building:use":"retail","check_date":"2020-02-07","max_level":"0","min_level":"0","name":"Aldi Nord","opening_hours":"Mo-Sa 07:00-21:00","roof:material":"roof_tiles","roof:orientation":"along","roof:shape":"gabled","shop":"supermarket","wheelchair":"yes"}},{"type":"way","id":156127093,"bounds":{"minlat":51.5180883,"minlon":7.2818875,"maxlat":51.5184679,"maxlon":7.2823202},"nodes":[1684133524,1684133522,1684133518,1684133497,1684133524],"geometry":[{"lat":51.5184679,"lon":7.2818946},{"lat":51.5184649,"lon":7.2823202},{"lat":51.5180883,"lon":7.2823132},{"lat":51.5180914,"lon":7.2818875},{"lat":51.5184679,"lon":7.2818946}],"tags":{"addr:city":"Bochum","addr:country":"DE","addr:housenumber":"7","addr:postcode":"44805","addr:street":"Amtmann-Ibing-Straße","brand":"Lidl","brand:wikidata":"Q151954","brand:wikipedia":"en:Lidl","building":"retail","building:levels":"1","max_level":"0","min_level":"0","name":"Lidl","opening_hours":"Mo-Sa 07:00-21:00","roof:material":"roof_tiles","roof:shape":"gabled","shop":"supermarket","wheelchair":"yes"}},{"type":"way","id":163927960,"bounds":{"minlat":51.5190664,"minlon":7.280613,"maxlat":51.5195047,"maxlon":7.2809774},"nodes":[2712432065,1756585848,1756585975,2712432063,2712431981,2712431962,2712431932,2712431931,2712432021,2712432022,2712432064,2712432065],"geometry":[{"lat":51.5194922,"lon":7.2808452},{"lat":51.5195047,"lon":7.2808414},{"lat":51.5194929,"lon":7.2806632},{"lat":51.5194889,"lon":7.2806169},{"lat":51.5192385,"lon":7.280613},{"lat":51.5191576,"lon":7.2807571},{"lat":51.5190674,"lon":7.2807658},{"lat":51.5190664,"lon":7.2809733},{"lat":51.5193338,"lon":7.2809774},{"lat":51.5193341,"lon":7.2809378},{"lat":51.5194907,"lon":7.2809399},{"lat":51.5194922,"lon":7.2808452}],"tags":{"addr:city":"Bochum","addr:country":"DE","addr:housenumber":"32","addr:postcode":"44805","addr:street":"Lothringer Straße","addr:suburb":"Gerthe","brand":"REWE","building":"retail","building:levels":"1","building:use":"retail","check_date":"2020-02-07","max_level":"0","min_level":"0","name":"REWE Kaeseler","opening_hours":"Mo-Sa 07:00-22:00","roof:colour":"white","roof:shape":"flat","shop":"supermarket","wheelchair":"yes"}},{"type":"way","id":169808023,"bounds":{"minlat":51.5003289,"minlon":7.2817402,"maxlat":51.5005756,"maxlon":7.2821914},"nodes":[2705458639,6403013769,6403013770,2705458554,2705458314,2705458315,2705458467,2705458596,2705458639],"geometry":[{"lat":51.5005756,"lon":7.2820228},{"lat":51.5005237,"lon":7.2817402},{"lat":51.5004863,"lon":7.2817586},{"lat":51.5004886,"lon":7.2817711},{"lat":51.5003289,"lon":7.2818463},{"lat":51.5003321,"lon":7.2818644},{"lat":51.5003925,"lon":7.2821914},{"lat":51.5005359,"lon":7.2821237},{"lat":51.5005756,"lon":7.2820228}],"tags":{"addr:city":"Bochum","addr:country":"DE","addr:housenumber":"137","addr:postcode":"44805","addr:street":"Harpener Hellweg","brand":"Mix Markt","brand:wikidata":"Q327854","brand:wikipedia":"de:Mix Markt","building:levels":"1","building:part":"retail","contact:email":"mixmarkt48@monolith-gruppe.com","contact:website":"http://www.mixmarkt.eu/de/germany/","name":"Mix Markt","opening_hours":"Mo-Fr 09:00-19:00; Sa 09:00-16:00","roof:shape":"flat","shop":"supermarket"}},{"type":"way","id":171272256,"bounds":{"minlat":51.4796184,"minlon":7.1653954,"maxlat":51.4801001,"maxlon":7.1660324},"nodes":[3370383971,3370383953,3370383952,3370384027,3370383955,3370383958,3370383848,3370384120,3370383856,3370383857,3370383876,3370383875,3370383883,3370383884,3370383711,3370384519,3370383718,3370383719,3370384619,3370384544,3370384156,3370383352,3370384711,3370383357,3370384718,3370384719,3370384998,3370384996,3370385002,3370385004,3370385341,3370385330,3370385029,3370383775,3370383772,3370385165,3370385168,3370385371,3370385169,3370385387,3370385388,3370385081,3370385390,3370385391,3370385796,3370385799,3370385798,3370383203,3370383204,3370385807,3370385805,3370383216,3370385660,3370385664,3370383210,3370385824,3370385392,3370385793,3370385092,3370385091,3370383773,3370383776,3370385023,3370385022,3370385331,3370385334,3370385327,3370385344,3370384150,3370384627,3370384609,3370384610,3370384552,3370384548,3370384510,3370384511,3370384503,3370384502,3370384398,3370384407,3370383706,3370383701,3370384138,3370384133,3370384136,3370384124,3370383866,3370383862,3370383865,3370384110,3370384106,3370384103,3370384105,3370383979,3370383975,3370383968,3370383971],"geometry":[{"lat":51.4796361,"lon":7.1657508},{"lat":51.4796221,"lon":7.165695},{"lat":51.4796211,"lon":7.1656957},{"lat":51.4796184,"lon":7.1656849},{"lat":51.4796241,"lon":7.1656813},{"lat":51.4796246,"lon":7.1656829},{"lat":51.4796683,"lon":7.165655},{"lat":51.4796681,"lon":7.1656533},{"lat":51.4796746,"lon":7.1656491},{"lat":51.479675,"lon":7.1656506},{"lat":51.4797181,"lon":7.1656233},{"lat":51.4797177,"lon":7.1656217},{"lat":51.4797244,"lon":7.1656174},{"lat":51.4797249,"lon":7.1656189},{"lat":51.4797687,"lon":7.1655912},{"lat":51.4797682,"lon":7.1655896},{"lat":51.479775,"lon":7.1655853},{"lat":51.4797754,"lon":7.1655868},{"lat":51.4798193,"lon":7.1655588},{"lat":51.4797997,"lon":7.165479},{"lat":51.4798464,"lon":7.1654495},{"lat":51.4798661,"lon":7.165529},{"lat":51.4798691,"lon":7.165527},{"lat":51.4798686,"lon":7.1655255},{"lat":51.4798754,"lon":7.1655212},{"lat":51.4798758,"lon":7.1655228},{"lat":51.4799193,"lon":7.165495},{"lat":51.4799191,"lon":7.1654932},{"lat":51.4799258,"lon":7.165489},{"lat":51.4799262,"lon":7.1654905},{"lat":51.4799655,"lon":7.1654654},{"lat":51.4799563,"lon":7.1654278},{"lat":51.4800075,"lon":7.1653954},{"lat":51.4800085,"lon":7.1653994},{"lat":51.4800078,"lon":7.1654001},{"lat":51.4800156,"lon":7.1654313},{"lat":51.4800175,"lon":7.1654304},{"lat":51.4800201,"lon":7.1654411},{"lat":51.4800191,"lon":7.1654417},{"lat":51.4800331,"lon":7.1654983},{"lat":51.4800341,"lon":7.1654978},{"lat":51.4800368,"lon":7.1655085},{"lat":51.4800358,"lon":7.1655092},{"lat":51.4800542,"lon":7.1655835},{"lat":51.4800552,"lon":7.1655829},{"lat":51.4800579,"lon":7.1655936},{"lat":51.480057,"lon":7.1655944},{"lat":51.4800753,"lon":7.1656687},{"lat":51.4800763,"lon":7.1656679},{"lat":51.480079,"lon":7.1656787},{"lat":51.480078,"lon":7.1656796},{"lat":51.4800964,"lon":7.1657538},{"lat":51.4800974,"lon":7.1657533},{"lat":51.4801001,"lon":7.1657642},{"lat":51.4800935,"lon":7.1657684},{"lat":51.4800929,"lon":7.1657668},{"lat":51.4800542,"lon":7.1657916},{"lat":51.4800544,"lon":7.1657933},{"lat":51.4800478,"lon":7.1657974},{"lat":51.4800474,"lon":7.1657959},{"lat":51.4800081,"lon":7.165821},{"lat":51.4800085,"lon":7.1658226},{"lat":51.4800018,"lon":7.1658269},{"lat":51.4800013,"lon":7.1658253},{"lat":51.4799581,"lon":7.1658529},{"lat":51.4799585,"lon":7.1658545},{"lat":51.4799544,"lon":7.1658571},{"lat":51.4799669,"lon":7.1659073},{"lat":51.4798415,"lon":7.1659875},{"lat":51.4798285,"lon":7.1659355},{"lat":51.4798077,"lon":7.1659488},{"lat":51.4798081,"lon":7.1659505},{"lat":51.4798013,"lon":7.1659546},{"lat":51.4798009,"lon":7.1659531},{"lat":51.4797578,"lon":7.1659806},{"lat":51.4797582,"lon":7.1659822},{"lat":51.4797514,"lon":7.1659866},{"lat":51.479751,"lon":7.165985},{"lat":51.4797369,"lon":7.1659941},{"lat":51.4797413,"lon":7.1660121},{"lat":51.4797094,"lon":7.1660324},{"lat":51.4797053,"lon":7.1660161},{"lat":51.4797014,"lon":7.1660186},{"lat":51.4796987,"lon":7.166008},{"lat":51.4796997,"lon":7.166007},{"lat":51.4796812,"lon":7.1659325},{"lat":51.4796801,"lon":7.1659331},{"lat":51.4796775,"lon":7.1659224},{"lat":51.4796785,"lon":7.1659216},{"lat":51.47966,"lon":7.1658473},{"lat":51.4796589,"lon":7.165848},{"lat":51.4796562,"lon":7.1658371},{"lat":51.4796573,"lon":7.1658364},{"lat":51.4796387,"lon":7.1657618},{"lat":51.4796377,"lon":7.1657626},{"lat":51.4796351,"lon":7.1657519},{"lat":51.4796361,"lon":7.1657508}],"tags":{"addr:city":"Bochum","addr:country":"DE","addr:housenumber":"99","addr:postcode":"44866","addr:street":"Heidestraße","building":"yes","name":"Lidl","shop":"supermarket","wheelchair":"yes"}},{"type":"way","id":171290695,"bounds":{"minlat":51.4809056,"minlon":7.1588912,"maxlat":51.4812493,"maxlon":7.1596941},"nodes":[3370388934,3370388872,3370388930,3370387654,3370387653,3370387649,3370388359,3370388182,3370388181,3370388180,3370388179,3370388176,3370388865,3370388543,3370388934],"geometry":[{"lat":51.4810625,"lon":7.1588912},{"lat":51.4810576,"lon":7.1588947},{"lat":51.4810579,"lon":7.1588963},{"lat":51.4809105,"lon":7.1590041},{"lat":51.48091,"lon":7.159003},{"lat":51.4809056,"lon":7.1590062},{"lat":51.4809812,"lon":7.1592696},{"lat":51.4809389,"lon":7.1593016},{"lat":51.4809377,"lon":7.1592974},{"lat":51.4809372,"lon":7.1592977},{"lat":51.4809363,"lon":7.1592952},{"lat":51.4809313,"lon":7.1592994},{"lat":51.4810456,"lon":7.1596941},{"lat":51.4812493,"lon":7.1595432},{"lat":51.4810625,"lon":7.1588912}],"tags":{"addr:city":"Bochum","addr:country":"DE","addr:housenumber":"59","addr:postcode":"44866","addr:street":"Dickebankstraße","brand":"Aldi","brand:wikidata":"Q125054","brand:wikipedia":"de:Aldi","building":"yes","name":"Aldi","shop":"supermarket","toilets:wheelchair":"no","wheelchair":"yes"}},{"type":"way","id":174689837,"bounds":{"minlat":51.4619902,"minlon":7.3054398,"maxlat":51.4624533,"maxlon":7.3059295},"nodes":[875631454,875631338,7247490736,1853407826,875631406,875631417,875631375,7417379556,875631319,880530612,1853407823,875631454],"geometry":[{"lat":51.4620435,"lon":7.3054398},{"lat":51.4621218,"lon":7.3054787},{"lat":51.4621353,"lon":7.3054854},{"lat":51.4622629,"lon":7.3055488},{"lat":51.4622915,"lon":7.305563},{"lat":51.4623582,"lon":7.3055178},{"lat":51.462374,"lon":7.3054534},{"lat":51.4624201,"lon":7.3056295},{"lat":51.4624533,"lon":7.3057564},{"lat":51.4624199,"lon":7.3059295},{"lat":51.4619902,"lon":7.305716},{"lat":51.4620435,"lon":7.3054398}],"tags":{"addr:city":"Bochum","addr:country":"DE","addr:housenumber":"5a","addr:postcode":"44892","addr:street":"Birkhuhnweg","building":"retail","building:levels":"1","disused:website":"http://www.naturkost-artmann.de/","name":"Denn’s","organic":"yes","roof:shape":"flat","shop":"supermarket","wheelchair":"yes"}},{"type":"way","id":182443606,"bounds":{"minlat":51.5198971,"minlon":7.2816932,"maxlat":51.52032,"maxlon":7.2822718},"nodes":[7340685882,708593277,1927933814,7340685883,7340685882],"geometry":[{"lat":51.52032,"lon":7.2821394},{"lat":51.5202563,"lon":7.2816932},{"lat":51.5198971,"lon":7.2818257},{"lat":51.5199607,"lon":7.2822718},{"lat":51.52032,"lon":7.2821394}],"tags":{"addr:city":"Bochum","addr:country":"DE","addr:housenumber":"37","addr:postcode":"44805","addr:street":"Lothringer Straße","brand":"Netto Marken-Discount","brand:wikidata":"Q879858","brand:wikipedia":"de:Netto Marken-Discount","building":"yes","building:levels":"1","building:use:retail":"yes","name":"Netto Marken-Discount","opening_hours":"Mo-Sa 07:00-21:00","roof:shape":"flat","shop":"supermarket","source:outline":"ALKIS NRW","wheelchair":"yes"}},{"type":"way","id":204713795,"bounds":{"minlat":51.4747736,"minlon":7.1920943,"maxlat":51.4751745,"maxlon":7.1930973},"nodes":[2935777019,2935777027,2935777024,2935777025,5843702113,2935777021,2935777022,2935777020,2146962763,2935777019],"geometry":[{"lat":51.4749698,"lon":7.1930973},{"lat":51.4751745,"lon":7.192975},{"lat":51.4750917,"lon":7.1926175},{"lat":51.4751308,"lon":7.1925941},{"lat":51.4750861,"lon":7.1924014},{"lat":51.4750611,"lon":7.1922936},{"lat":51.4750791,"lon":7.1922829},{"lat":51.4750354,"lon":7.1920943},{"lat":51.4747736,"lon":7.1922507},{"lat":51.4749698,"lon":7.1930973}],"tags":{"addr:city":"Bochum","addr:country":"DE","addr:housename":"Lidl","addr:housenumber":"190","addr:postcode":"44793","addr:street":"Kohlenstraße","brand":"Lidl","brand:wikidata":"Q151954","brand:wikipedia":"en:Lidl","building":"supermarket","fair_trade":"yes","frequency":"50","generator:method":"photovoltaic","generator:output:electricity":"yes","generator:source":"solar","generator:type":"solar_photovoltaic_panel","name":"Lidl","opening_hours":"Mo-Sa 08:00-22:00","payment:cash":"yes","payment:debit_cards":"yes","power":"generator","shop":"supermarket","voltage":"400","website":"https://www.lidl.de/filialen/bochum/stahlhausen-kohlenstr-190.html","wheelchair":"yes"}},{"type":"way","id":205858791,"bounds":{"minlat":51.4829281,"minlon":7.1066871,"maxlat":51.4834525,"maxlon":7.1073803},"nodes":[2158396675,2158396705,2158396696,2158396702,2158396690,2158396685,2158396615,2158396590,2158396675],"geometry":[{"lat":51.4833392,"lon":7.1066871},{"lat":51.4834525,"lon":7.107028},{"lat":51.4834239,"lon":7.1070525},{"lat":51.4834462,"lon":7.1071194},{"lat":51.4833974,"lon":7.1071612},{"lat":51.4833751,"lon":7.1070943},{"lat":51.4830414,"lon":7.1073803},{"lat":51.4829281,"lon":7.1070394},{"lat":51.4833392,"lon":7.1066871}],"tags":{"addr:city":"Bochum","addr:country":"DE","addr:housenumber":"44","addr:postcode":"44866","addr:street":"Krayer Straße","brand":"Aldi","brand:wikidata":"Q125054","brand:wikipedia":"en:Aldi","building":"yes","name":"Aldi","roof:shape":"gabled","shop":"supermarket","wheelchair":"yes"}},{"type":"way","id":225557710,"bounds":{"minlat":51.504517,"minlon":7.2675602,"maxlat":51.504823,"maxlon":7.267944},"nodes":[2714622855,2343250438,1169158256,2714622917,1169158239,1169158505,2714622796,2343250428,6987259899,2714622574,2714622567,2714622855],"geometry":[{"lat":51.5047615,"lon":7.2679116},{"lat":51.5047625,"lon":7.2679426},{"lat":51.5048205,"lon":7.267944},{"lat":51.5048215,"lon":7.2678881},{"lat":51.5048211,"lon":7.267756},{"lat":51.504823,"lon":7.2675624},{"lat":51.504714,"lon":7.2675602},{"lat":51.5047014,"lon":7.2675609},{"lat":51.5047004,"lon":7.2676612},{"lat":51.5045177,"lon":7.2676598},{"lat":51.504517,"lon":7.2679099},{"lat":51.5047615,"lon":7.2679116}],"tags":{"addr:city":"Bochum","addr:country":"DE","addr:housenumber":"4","addr:postcode":"44805","addr:street":"Haydnstraße","building":"yes","name":"Mini Markt","shop":"supermarket","toilets:wheelchair":"no","wheelchair":"yes"}},{"type":"way","id":260174643,"bounds":{"minlat":51.4410681,"minlon":7.2123452,"maxlat":51.4413813,"maxlon":7.2127826},"nodes":[2656563381,2656563423,2656563549,2656563475,2656563657,2656563662,2656563672,2656563669,2656563732,2656563733,2656563770,2656563749,2656564045,2656564071,2656564113,2656564111,2656564496,2656564508,2656563714,2656563372,2656563050,2656563305,2656563381],"geometry":[{"lat":51.4411768,"lon":7.2127479},{"lat":51.4411904,"lon":7.2127787},{"lat":51.4412413,"lon":7.2127529},{"lat":51.4412183,"lon":7.2127012},{"lat":51.4412765,"lon":7.2126355},{"lat":51.4412778,"lon":7.2126385},{"lat":51.4412818,"lon":7.212634},{"lat":51.4412806,"lon":7.212631},{"lat":51.4413095,"lon":7.2125984},{"lat":51.4413109,"lon":7.2126013},{"lat":51.4413148,"lon":7.212597},{"lat":51.4413135,"lon":7.2125939},{"lat":51.4413435,"lon":7.2125602},{"lat":51.4413448,"lon":7.2125632},{"lat":51.4413488,"lon":7.2125587},{"lat":51.4413476,"lon":7.2125557},{"lat":51.441381,"lon":7.2125183},{"lat":51.4413813,"lon":7.2125179},{"lat":51.441304,"lon":7.2123452},{"lat":51.4411738,"lon":7.2124913},{"lat":51.4410681,"lon":7.2126105},{"lat":51.4411458,"lon":7.2127826},{"lat":51.4411768,"lon":7.2127479}],"tags":{"brand":"Aldi","brand:wikidata":"Q125054","brand:wikipedia":"en:Aldi","building":"yes","name":"Aldi","opening_hours":"Mo-Sa 08:00-20:00","payment:american_express":"yes","payment:cash":"yes","payment:ec":"yes","payment:maestro":"yes","payment:mastercard":"yes","payment:v_pay":"yes","payment:visa":"yes","shop":"supermarket","wheelchair":"yes"}},{"type":"way","id":260895449,"bounds":{"minlat":51.4581958,"minlon":7.1966387,"maxlat":51.4584768,"maxlon":7.1971318},"nodes":[2664846204,2659158358,5143763505,2659158489,2664846214,6155771340,2664846204],"geometry":[{"lat":51.4583744,"lon":7.1966387},{"lat":51.4581958,"lon":7.1970023},{"lat":51.4582657,"lon":7.1970908},{"lat":51.4582982,"lon":7.1971318},{"lat":51.4584768,"lon":7.1967682},{"lat":51.4584238,"lon":7.1967011},{"lat":51.4583744,"lon":7.1966387}],"tags":{"addr:city":"Bochum","addr:country":"DE","addr:housenumber":"264","addr:postcode":"44795","addr:street":"Hattinger Straße","building":"retail","building:levels":"1","name":"denns Biomarkt","opening_hours":"Mo-Fr 08:00-20:00; Sa 08:00-18:00","organic":"only","payment:cash":"yes","payment:girocard":"yes","phone":"+49 234 53992380","roof:levels":"0","roof:shape":"flat","shop":"supermarket","website":"https://www.denns-biomarkt.de/bochum-hattinger-str-264/marktseite/","wheelchair":"yes"}},{"type":"way","id":261059888,"bounds":{"minlat":51.4511151,"minlon":7.1913744,"maxlat":51.4514607,"maxlon":7.1921082},"nodes":[5517406511,5494493413,3775102524,1034000090,5517406518,3027845428,5517406516,3027845429,6542707219,5517406508,2666752268,1232449612,1232449672,5517406509,1232449556,6542707220,5517406511],"geometry":[{"lat":51.451122,"lon":7.1914514},{"lat":51.4511151,"lon":7.1914538},{"lat":51.4511287,"lon":7.1915546},{"lat":51.4511879,"lon":7.1919946},{"lat":51.4512072,"lon":7.1919878},{"lat":51.4512138,"lon":7.1920364},{"lat":51.4512189,"lon":7.1920745},{"lat":51.4512686,"lon":7.1920573},{"lat":51.4512917,"lon":7.1920493},{"lat":51.4512948,"lon":7.1920482},{"lat":51.4513102,"lon":7.1921082},{"lat":51.4514607,"lon":7.1920551},{"lat":51.4514312,"lon":7.1918699},{"lat":51.4514119,"lon":7.1918766},{"lat":51.4513443,"lon":7.1913744},{"lat":51.451246,"lon":7.1914084},{"lat":51.451122,"lon":7.1914514}],"tags":{"brand":"Rewe","brand:wikidata":"Q16968817","brand:wikipedia":"en:REWE","building:levels":"1","building:part":"retail","email":"info@REWE-Feiertag.de","name":"Rewe","opening_hours":"Mo-Sa 07:00-21:00","operator":"J. Feiertag GmbH & Co. KG","payment:cash":"yes","payment:cryptocurrencies":"no","payment:girocard":"yes","roof:shape":"flat","shop":"supermarket","website":"https://www.rewe-feiertag.de/","wheelchair":"yes"}},{"type":"way","id":264805777,"bounds":{"minlat":51.4952923,"minlon":7.1454423,"maxlat":51.4957543,"maxlon":7.1461979},"nodes":[2704525914,2704525903,2704525907,2704525106,2704525103,2704525084,2704525098,2704525100,2704525202,2704525059,2704525056,2704525036,2704525048,2704525053,2704525239,2704525235,2704525261,2704525279,2704525274,2704525448,2704526024,2704526022,2704526027,2704526037,2704526035,2704526304,2704526432,2704526271,2704526274,2704526626,2704526627,2704526636,2704525914],"geometry":[{"lat":51.4954911,"lon":7.1454423},{"lat":51.4954888,"lon":7.145445},{"lat":51.4954892,"lon":7.1454453},{"lat":51.4953017,"lon":7.1456525},{"lat":51.4953013,"lon":7.1456522},{"lat":51.4952991,"lon":7.1456546},{"lat":51.4953009,"lon":7.1456578},{"lat":51.4953012,"lon":7.1456576},{"lat":51.4953252,"lon":7.1457126},{"lat":51.4952946,"lon":7.1457461},{"lat":51.4952944,"lon":7.1457459},{"lat":51.4952923,"lon":7.1457482},{"lat":51.4952938,"lon":7.1457514},{"lat":51.4952942,"lon":7.145751},{"lat":51.495333,"lon":7.1458409},{"lat":51.4953327,"lon":7.1458416},{"lat":51.4953341,"lon":7.1458449},{"lat":51.4953362,"lon":7.1458426},{"lat":51.4953359,"lon":7.145842},{"lat":51.4953664,"lon":7.1458084},{"lat":51.4955324,"lon":7.1461942},{"lat":51.4955321,"lon":7.1461946},{"lat":51.4955335,"lon":7.1461979},{"lat":51.4955355,"lon":7.1461958},{"lat":51.4955355,"lon":7.1461951},{"lat":51.4956467,"lon":7.1460723},{"lat":51.4956744,"lon":7.1461374},{"lat":51.4956299,"lon":7.1461862},{"lat":51.495631,"lon":7.146189},{"lat":51.4957519,"lon":7.1460557},{"lat":51.4957523,"lon":7.1460561},{"lat":51.4957543,"lon":7.1460539},{"lat":51.4954911,"lon":7.1454423}],"tags":{"addr:city":"Bochum","addr:country":"DE","addr:housenumber":"56-58","addr:postcode":"44866","addr:street":"Günnigfelder Straße","building":"commercial","name":"ALDI-Nord","shop":"supermarket","toilets:wheelchair":"no","wheelchair":"yes"}},{"type":"way","id":264805814,"bounds":{"minlat":51.4936119,"minlon":7.1441755,"maxlat":51.4939303,"maxlon":7.1449138},"nodes":[2704491790,2704491800,2704490844,2704490828,2704490777,2704490764,2704490255,2704490036,2704490752,2704490776,2704490819,2704491806,2704491790],"geometry":[{"lat":51.4939096,"lon":7.1447102},{"lat":51.493918,"lon":7.1447056},{"lat":51.4938249,"lon":7.1442603},{"lat":51.4938041,"lon":7.1442103},{"lat":51.4937797,"lon":7.1442358},{"lat":51.4937552,"lon":7.1441755},{"lat":51.4936532,"lon":7.14428},{"lat":51.4936119,"lon":7.1443223},{"lat":51.4937325,"lon":7.1449006},{"lat":51.4937779,"lon":7.1448764},{"lat":51.4937859,"lon":7.1449138},{"lat":51.4939303,"lon":7.1448119},{"lat":51.4939096,"lon":7.1447102}],"tags":{"addr:city":"Bochum","addr:country":"DE","addr:housenumber":"57a","addr:postcode":"44866","addr:street":"Günnigfelder Straße","building":"commercial","name":"Netto","shop":"supermarket","toilets:wheelchair":"no","wheelchair":"yes"}},{"type":"way","id":329183043,"bounds":{"minlat":51.4833485,"minlon":7.1476198,"maxlat":51.4838725,"maxlon":7.1481692},"nodes":[3370115255,3370115256,3370115254,3370115080,3370115081,3370114986,3370114985,3370114984,3370114982,3370115229,3370115228,3370115399,3370115224,3370115307,3370115306,3370115300,3370115301,3370115207,3370115206,3370114164,3370114163,3370115029,3370115028,3370114857,3370115025,3370114850,3370114587,3370114589,3370114586,3370114841,3370114840,3667077664,3370114563,3370114561,3370114554,3370114555,3370114557,3370115097,3370112887,3370112886,3370114378,3370114381,3370114383,3370114562,3370115094,3370115093,3370114963,3370114965,3370114385,3370115002,3370115001,3370115003,3370114559,3370114558,3370115536,3370115275,3370115602,3370115276,3370115091,3370115255],"geometry":[{"lat":51.4837677,"lon":7.1476288},{"lat":51.4837683,"lon":7.1476283},{"lat":51.4837671,"lon":7.1476198},{"lat":51.4837617,"lon":7.147622},{"lat":51.4837618,"lon":7.147623},{"lat":51.4837281,"lon":7.1476366},{"lat":51.4837277,"lon":7.1476355},{"lat":51.4837245,"lon":7.1476368},{"lat":51.4837244,"lon":7.147638},{"lat":51.4836477,"lon":7.1476687},{"lat":51.4836472,"lon":7.1476676},{"lat":51.483644,"lon":7.147669},{"lat":51.483644,"lon":7.1476701},{"lat":51.4835939,"lon":7.1476902},{"lat":51.4835935,"lon":7.1476892},{"lat":51.4835903,"lon":7.1476905},{"lat":51.4835903,"lon":7.1476918},{"lat":51.4835399,"lon":7.1477118},{"lat":51.4835396,"lon":7.1477107},{"lat":51.4835365,"lon":7.147712},{"lat":51.4835364,"lon":7.1477132},{"lat":51.4834858,"lon":7.1477336},{"lat":51.4834855,"lon":7.1477325},{"lat":51.4834821,"lon":7.1477339},{"lat":51.4834823,"lon":7.147735},{"lat":51.483468,"lon":7.1477407},{"lat":51.4834596,"lon":7.1476866},{"lat":51.4834603,"lon":7.1476861},{"lat":51.4834589,"lon":7.1476777},{"lat":51.4834537,"lon":7.1476798},{"lat":51.4834535,"lon":7.147681},{"lat":51.4834239,"lon":7.1476932},{"lat":51.483391,"lon":7.147706},{"lat":51.4833908,"lon":7.1477048},{"lat":51.4833855,"lon":7.147707},{"lat":51.4833867,"lon":7.1477154},{"lat":51.4833875,"lon":7.1477154},{"lat":51.4833958,"lon":7.1477696},{"lat":51.4833541,"lon":7.1477865},{"lat":51.4833539,"lon":7.1477852},{"lat":51.4833485,"lon":7.1477872},{"lat":51.4833498,"lon":7.1477957},{"lat":51.4833505,"lon":7.1477957},{"lat":51.4833908,"lon":7.1480525},{"lat":51.4833723,"lon":7.14806},{"lat":51.483372,"lon":7.1480587},{"lat":51.4833667,"lon":7.148061},{"lat":51.4833681,"lon":7.1480696},{"lat":51.4833688,"lon":7.1480693},{"lat":51.4833829,"lon":7.14816},{"lat":51.4833823,"lon":7.1481613},{"lat":51.4833836,"lon":7.1481692},{"lat":51.483389,"lon":7.148167},{"lat":51.4833887,"lon":7.1481661},{"lat":51.4838725,"lon":7.1479729},{"lat":51.483845,"lon":7.1477942},{"lat":51.4838413,"lon":7.1477956},{"lat":51.483846,"lon":7.147826},{"lat":51.4838011,"lon":7.1478439},{"lat":51.4837677,"lon":7.1476288}],"tags":{"addr:city":"Bochum","addr:country":"DE","addr:housenumber":"41","addr:postcode":"44866","addr:street":"Hansastraße","addr:suburb":"Wattenscheid","brand":"Aldi Nord","brand:wikidata":"Q41171373","brand:wikipedia":"en:Aldi","building":"yes","name":"Aldi Nord","shop":"supermarket","wheelchair":"yes"}},{"type":"way","id":367379662,"bounds":{"minlat":51.4928216,"minlon":7.1436136,"maxlat":51.4934094,"maxlon":7.1442108},"nodes":[3713071310,3713071312,3713071311,3713071309,3713071310],"geometry":[{"lat":51.4933556,"lon":7.1436136},{"lat":51.4934094,"lon":7.1440345},{"lat":51.4928755,"lon":7.1442108},{"lat":51.4928216,"lon":7.1437899},{"lat":51.4933556,"lon":7.1436136}],"tags":{"addr:city":"Bochum","addr:housenumber":"39b","addr:postcode":"44866","addr:street":"Günnigfelder Straße","building":"commercial","name":"Lidl","shop":"supermarket","toilets:wheelchair":"yes","wheelchair":"yes"}},{"type":"way","id":381005103,"bounds":{"minlat":51.4534321,"minlon":7.2474876,"maxlat":51.4540699,"maxlon":7.2483444},"nodes":[3842942461,3842942043,3842942036,3842942056,3842942055,3842942457,3842942458,3842942459,4344887394,3842942460,3842942461],"geometry":[{"lat":51.4540699,"lon":7.2476777},{"lat":51.453532,"lon":7.2483444},{"lat":51.4534321,"lon":7.2481367},{"lat":51.4538394,"lon":7.2476318},{"lat":51.4538184,"lon":7.2475883},{"lat":51.4538748,"lon":7.2475185},{"lat":51.4538996,"lon":7.2474876},{"lat":51.4539195,"lon":7.247529},{"lat":51.4539267,"lon":7.24752},{"lat":51.453934,"lon":7.2475112},{"lat":51.4540699,"lon":7.2476777}],"tags":{"addr:city":"Bochum","addr:housenumber":"139","addr:postcode":"44803","addr:street":"Markstraße","brand":"Aldi","brand:wikidata":"Q125054","brand:wikipedia":"en:Aldi","building":"retail","building:levels":"1","name":"ALDI","opening_hours":"Mo-Sa 08:00-22:00","payment:cash":"yes","payment:girocard":"yes","shop":"supermarket","website":"https://www.aldi-nord.de/","wheelchair":"yes"}},{"type":"way","id":381202144,"bounds":{"minlat":51.4751906,"minlon":7.2714374,"maxlat":51.4756195,"maxlon":7.2721611},"nodes":[1862971090,3844402859,3844402752,3844402743,3844402744,3844402734,3844402733,7188423252,3844402747,7188423250,3844402755,1862971084,1862971090],"geometry":[{"lat":51.4756195,"lon":7.2717172},{"lat":51.4756144,"lon":7.2717078},{"lat":51.4754668,"lon":7.2714374},{"lat":51.4753385,"lon":7.2716178},{"lat":51.4753444,"lon":7.2716285},{"lat":51.4751961,"lon":7.271837},{"lat":51.4751906,"lon":7.2718447},{"lat":51.4753327,"lon":7.2721053},{"lat":51.4753632,"lon":7.2721611},{"lat":51.4753745,"lon":7.2721453},{"lat":51.4754973,"lon":7.2719725},{"lat":51.4754715,"lon":7.2719253},{"lat":51.4756195,"lon":7.2717172}],"tags":{"addr:city":"Bochum","addr:country":"DE","addr:housenumber":"1","addr:postcode":"44803","addr:street":"Sudbeckenpfad","brand":"Lidl","brand:wikidata":"Q151954","brand:wikipedia":"en:Lidl","building":"yes","name":"Lidl","opening_hours":"Mo-Sa 08:00-21:00","shop":"supermarket","wheelchair":"yes"}},{"type":"way","id":389598816,"bounds":{"minlat":51.4820525,"minlon":7.1281898,"maxlat":51.4826046,"maxlon":7.1287444},"nodes":[3927670134,3927670127,3927670128,3927670126,3927670129,3927670139,3927670138,3927670137,3927670136,3927670135,3927670134],"geometry":[{"lat":51.4824277,"lon":7.1287444},{"lat":51.4820888,"lon":7.1286305},{"lat":51.4820961,"lon":7.1285744},{"lat":51.4820525,"lon":7.1285598},{"lat":51.4821008,"lon":7.1281898},{"lat":51.4826046,"lon":7.1283591},{"lat":51.4825945,"lon":7.1284369},{"lat":51.4825491,"lon":7.1284217},{"lat":51.482514,"lon":7.1286915},{"lat":51.4824379,"lon":7.1286659},{"lat":51.4824277,"lon":7.1287444}],"tags":{"addr:city":"Bochum","addr:country":"DE","addr:housenumber":"9","addr:postcode":"44866","addr:street":"Lyrenstraße","building":"supermarket","name":"Lidl","opening_hours":"Mo-Sa 07:00-21:00","shop":"supermarket","source":"NRW ALKIS","toilets:wheelchair":"no","wheelchair":"yes"}},{"type":"way","id":525560011,"bounds":{"minlat":51.4945208,"minlon":7.3341186,"maxlat":51.49506,"maxlon":7.3347463},"nodes":[5112551641,5112551640,5112551639,5112551638,5112551641],"geometry":[{"lat":51.4949776,"lon":7.3341186},{"lat":51.49506,"lon":7.3344711},{"lat":51.4946032,"lon":7.3347463},{"lat":51.4945208,"lon":7.3343938},{"lat":51.4949776,"lon":7.3341186}],"tags":{"addr:city":"Bochum","addr:country":"DE","addr:housenumber":"206","addr:postcode":"44894","addr:street":"Lütgendortmunder Hellweg","brand":"Aldi Nord","brand:wikidata":"Q41171373","brand:wikipedia":"en:Aldi","building":"yes","check_date":"2017-09-15","name":"Aldi Nord","opening_hours":"Mo-Sa 08:00-21:00","operator":"ALDI GmbH & Co. Kommanditgesellschaft Datteln","shop":"supermarket","source":"survey"}},{"type":"way","id":571085006,"bounds":{"minlat":51.4590802,"minlon":7.1570049,"maxlat":51.4597439,"maxlon":7.1579181},"nodes":[5489487161,5489487160,5489487159,5489487154,5489487157,6402480240,6402480239,5489487156,5489487153,5489487152,5489487151,5489487158,5590073651,5489487161],"geometry":[{"lat":51.4596478,"lon":7.1570691},{"lat":51.4597439,"lon":7.1572299},{"lat":51.4596621,"lon":7.1573558},{"lat":51.4596414,"lon":7.1573211},{"lat":51.4592536,"lon":7.1579181},{"lat":51.4592152,"lon":7.1578539},{"lat":51.4592311,"lon":7.1578294},{"lat":51.4590802,"lon":7.157577},{"lat":51.4592244,"lon":7.157355},{"lat":51.4592488,"lon":7.1573957},{"lat":51.4595027,"lon":7.1570049},{"lat":51.4595922,"lon":7.1571547},{"lat":51.4596183,"lon":7.1571146},{"lat":51.4596478,"lon":7.1570691}],"tags":{"addr:city":"Bochum","addr:country":"DE","addr:housenumber":"67","addr:postcode":"44869","addr:street":"Höntroper Straße","addr:suburb":"Höntrop","brand":"Aldi","brand:wikidata":"Q125054","brand:wikipedia":"en:Aldi","building":"supermarket","building:levels":"1","name":"Aldi","opening_hours":"Mo-Sa 07:00-21:00","operator":"ALDI Nord","shop":"supermarket","wheelchair":"yes"}},{"type":"way","id":638307194,"bounds":{"minlat":51.476323,"minlon":7.2997438,"maxlat":51.4767049,"maxlon":7.300722},"nodes":[2048122449,1134262616,1134262601,1134262481,1134262688,6015997944,6015997945,2048122449],"geometry":[{"lat":51.4766728,"lon":7.300459},{"lat":51.4767049,"lon":7.300616},{"lat":51.4765045,"lon":7.300722},{"lat":51.476323,"lon":7.2998367},{"lat":51.4764855,"lon":7.2997508},{"lat":51.4764896,"lon":7.2997706},{"lat":51.4765386,"lon":7.2997438},{"lat":51.4766728,"lon":7.300459}],"tags":{"addr:city":"Bochum","addr:country":"DE","addr:housenumber":"10","addr:postcode":"44892","addr:street":"Ümminger Straße","brand":"Lidl","brand:wikidata":"Q151954","brand:wikipedia":"en:Lidl","building":"retail","building:levels":"1","building:material":"brick","name":"Lidl","opening_hours":"Mo-Sa 08:00-21:00","opening_hours:covid19":"same","shop":"supermarket","wheelchair":"yes"}},{"type":"way","id":686876399,"bounds":{"minlat":51.4425961,"minlon":7.1935283,"maxlat":51.4431731,"maxlon":7.1940345},"nodes":[2660107270,2660107276,2660107274,2660107277,2660107282,2660107280,2660107309,2660107310,2660107316,2660107315,2660107325,2660107327,2660107331,2660107329,2660107346,2660107347,2660107350,2660107349,2660107367,2660107368,2660107372,2660107371,2660107384,2660107385,2660107390,2660107389,2660107405,2660107406,2660107409,2660107408,2660107426,2660107427,2660107430,2660107429,2660107437,2660107447,2660107435,2660107449,1726723998,2660107442,2660107432,2660107424,2660107413,2660107404,2660107403,2660107400,2660107401,2660107383,2660107381,2660107377,2660107378,2660107364,2660107363,2660107358,2660107360,2660107343,2660107342,2660107338,2660107339,2660107324,2660107323,2660107320,2660107321,2660107305,2660107301,2660107293,2660107295,2660107268,2660107267,2660107263,2660107264,2660107246,2660107244,2660107235,2660107239,2660107177,2660107180,2660107170,2660107183,2660107270],"geometry":[{"lat":51.4428106,"lon":7.193967},{"lat":51.4428168,"lon":7.1940071},{"lat":51.4428159,"lon":7.1940078},{"lat":51.4428175,"lon":7.1940181},{"lat":51.442823,"lon":7.1940159},{"lat":51.4428222,"lon":7.1940108},{"lat":51.4428581,"lon":7.1939966},{"lat":51.4428589,"lon":7.1940018},{"lat":51.4428644,"lon":7.1939996},{"lat":51.4428636,"lon":7.1939944},{"lat":51.4429021,"lon":7.1939785},{"lat":51.4429028,"lon":7.1939837},{"lat":51.4429083,"lon":7.1939821},{"lat":51.4429077,"lon":7.1939769},{"lat":51.4429464,"lon":7.1939617},{"lat":51.4429472,"lon":7.1939669},{"lat":51.4429527,"lon":7.1939647},{"lat":51.4429519,"lon":7.1939596},{"lat":51.4429889,"lon":7.1939446},{"lat":51.4429896,"lon":7.1939498},{"lat":51.4429951,"lon":7.1939478},{"lat":51.4429944,"lon":7.1939426},{"lat":51.4430332,"lon":7.1939274},{"lat":51.443034,"lon":7.1939326},{"lat":51.4430394,"lon":7.1939304},{"lat":51.4430387,"lon":7.1939253},{"lat":51.4430751,"lon":7.1939109},{"lat":51.4430759,"lon":7.1939161},{"lat":51.4430814,"lon":7.1939138},{"lat":51.4430806,"lon":7.1939087},{"lat":51.4431234,"lon":7.1938918},{"lat":51.4431242,"lon":7.1938969},{"lat":51.4431296,"lon":7.1938948},{"lat":51.443129,"lon":7.1938909},{"lat":51.4431496,"lon":7.1938828},{"lat":51.4431671,"lon":7.1938444},{"lat":51.4431444,"lon":7.1936986},{"lat":51.4431731,"lon":7.1936871},{"lat":51.443167,"lon":7.1936477},{"lat":51.4431617,"lon":7.1936133},{"lat":51.443133,"lon":7.1936248},{"lat":51.4431213,"lon":7.1935499},{"lat":51.4430949,"lon":7.1935283},{"lat":51.443074,"lon":7.1935365},{"lat":51.4430733,"lon":7.1935326},{"lat":51.4430679,"lon":7.1935349},{"lat":51.4430687,"lon":7.1935399},{"lat":51.443029,"lon":7.1935556},{"lat":51.4430282,"lon":7.1935505},{"lat":51.4430227,"lon":7.1935527},{"lat":51.4430235,"lon":7.1935578},{"lat":51.4429836,"lon":7.1935735},{"lat":51.4429828,"lon":7.1935684},{"lat":51.4429773,"lon":7.1935706},{"lat":51.4429781,"lon":7.1935757},{"lat":51.442941,"lon":7.1935903},{"lat":51.4429402,"lon":7.1935851},{"lat":51.4429348,"lon":7.1935874},{"lat":51.4429355,"lon":7.1935925},{"lat":51.442898,"lon":7.1936073},{"lat":51.4428971,"lon":7.1936022},{"lat":51.4428916,"lon":7.1936044},{"lat":51.4428925,"lon":7.1936096},{"lat":51.4428536,"lon":7.1936248},{"lat":51.4428528,"lon":7.1936197},{"lat":51.4428473,"lon":7.1936219},{"lat":51.4428481,"lon":7.193627},{"lat":51.4428083,"lon":7.1936428},{"lat":51.4428074,"lon":7.1936376},{"lat":51.442802,"lon":7.1936398},{"lat":51.4428027,"lon":7.1936449},{"lat":51.4427689,"lon":7.1936583},{"lat":51.4427681,"lon":7.1936532},{"lat":51.4427626,"lon":7.1936554},{"lat":51.4427632,"lon":7.1936592},{"lat":51.442622,"lon":7.1937167},{"lat":51.4426265,"lon":7.1937451},{"lat":51.4425961,"lon":7.1937573},{"lat":51.442639,"lon":7.1940345},{"lat":51.4428106,"lon":7.193967}],"tags":{"addr:city":"Bochum","addr:country":"DE","addr:housenumber":"453","addr:postcode":"44795","addr:street":"Hattinger Straße","building":"supermarket","fax":"+49 234 9471860","name":"Edeka Mavrici","opening_hours":"Mo-Fr 07:00-21:00; Sa 07:00-20:00","payment:cash":"yes","payment:girocard":"yes","phone":"+49 234 9471864","roof:shape":"flat","shop":"supermarket","website":"https://www.edeka.de/eh/rhein-ruhr/edeka-mavrici-hattinger-str.-453/angebote.jsp","wheelchair":"yes"}},{"type":"way","id":762856883,"bounds":{"minlat":51.512854,"minlon":7.2112337,"maxlat":51.5131854,"maxlon":7.2120607},"nodes":[2700441472,2700441480,2700441422,2700441414,2700441387,2700441393,2700441234,2700441233,2700441207,2700441160,2700441175,6049950886,2700441117,2700441134,2700441400,2700441472],"geometry":[{"lat":51.5131725,"lon":7.2114268},{"lat":51.5131854,"lon":7.211356},{"lat":51.5130935,"lon":7.2113126},{"lat":51.5130808,"lon":7.2113832},{"lat":51.5130409,"lon":7.2113643},{"lat":51.5130542,"lon":7.2112833},{"lat":51.5129487,"lon":7.2112337},{"lat":51.5129413,"lon":7.2112758},{"lat":51.5129145,"lon":7.2112636},{"lat":51.5129137,"lon":7.2113001},{"lat":51.5128638,"lon":7.2112787},{"lat":51.5128645,"lon":7.2113684},{"lat":51.512854,"lon":7.2113695},{"lat":51.5128766,"lon":7.2119741},{"lat":51.5130559,"lon":7.2120607},{"lat":51.5131725,"lon":7.2114268}],"tags":{"addr:city":"Bochum","addr:country":"DE","addr:housenumber":"406","addr:postcode":"44807","addr:street":"Herner Straße","building":"yes","name":"Netto","opening_hours":"Mo-Sa 07:00-22:00","phone":"+49 800 2000015","shop":"supermarket","website":"http://netto-online.de","wheelchair":"limited"}},{"type":"way","id":797246323,"bounds":{"minlat":51.480134,"minlon":7.1401441,"maxlat":51.4806953,"maxlon":7.1409794},"nodes":[3369121382,3369121745,3369121387,3369121957,3369121768,3369121376,3369121774,3369121378,3369121208,3369120894,3369120688,3369119244,3369119238,3369120471,3369120470,3369120678,3369119873,3369121228,3369121320,3369121810,3369121382],"geometry":[{"lat":51.4806931,"lon":7.1409406},{"lat":51.4806548,"lon":7.140377},{"lat":51.4806953,"lon":7.14037},{"lat":51.4806882,"lon":7.1402678},{"lat":51.4806818,"lon":7.1402691},{"lat":51.4806787,"lon":7.1402257},{"lat":51.4806851,"lon":7.1402245},{"lat":51.4806796,"lon":7.1401441},{"lat":51.4804801,"lon":7.1401736},{"lat":51.4803589,"lon":7.1401916},{"lat":51.4803508,"lon":7.1401928},{"lat":51.4801637,"lon":7.1402206},{"lat":51.4801588,"lon":7.1402215},{"lat":51.4801348,"lon":7.1404541},{"lat":51.480134,"lon":7.1404624},{"lat":51.480341,"lon":7.1404293},{"lat":51.4803778,"lon":7.1409794},{"lat":51.4804937,"lon":7.1409549},{"lat":51.4805756,"lon":7.1409374},{"lat":51.4805772,"lon":7.1409601},{"lat":51.4806931,"lon":7.1409406}],"tags":{"addr:city":"Bochum","addr:housenumber":"23","addr:postcode":"44866","addr:street":"Hochstraße","brand":"Rewe","brand:wikidata":"Q16968817","brand:wikipedia":"en:REWE","name":"Rewe Mokanski","opening_hours":"Mo-Sa 07:00-21:00","shop":"supermarket","wheelchair":"yes"}}]